{"Germany_1": {"Germany_2": {"place_id": "Germany_2", "place_name": "Dresden", "place_lat": "51.040221", "place_lon": "13.731409", "journeys": [7560, 7560, 6600, 7560, 7560], "duration_median": 7560, "duration_min": 6600, "duration_max": 7560}, "Germany_3": {"place_id": "Germany_3", "place_name": "Nuremberg", "place_lat": "49.450748", "place_lon": "11.077955", "journeys": [13080, 10560, 12180, 13080, 10560, 12180, 13080, 10560, 12180, 13080, 10560, 12180], "duration_median": 12180.0, "duration_min": 10560, "duration_max": 13080}, "Germany_4": {"place_id": "Germany_4", "place_name": "Munich", "place_lat": "48.140364", "place_lon": "11.558744", "journeys": [17220, 14520, 16380, 17220, 14520, 16380], "duration_median": 16380.0, "duration_min": 14520, "duration_max": 17220}, "Germany_5": {"place_id": "Germany_5", "place_name": "Cologne", "place_lat": "50.941312", "place_lon": "6.967206", "journeys": [23940, 23940, 18780, 19200, 23940, 23940, 18780, 19200], "duration_median": 21570.0, "duration_min": 18780, "duration_max": 23940}, "Germany_6": {"place_id": "Germany_6", "place_name": "Freiburg", "place_lat": "47.997974", "place_lon": "7.841344", "journeys": [24360, 24360, 24360, 24360, 24360, 24360], "duration_median": 24360.0, "duration_min": 24360, "duration_max": 24360}, "Germany_7": {"place_id": "Germany_7", "place_name": "Hamburg", "place_lat": "53.55711", "place_lon": "9.997434", "journeys": [6420, 7560, 6360, 6420, 7560, 6360, 6420, 7560, 6360, 6420, 7560, 6360], "duration_median": 6420.0, "duration_min": 6360, "duration_max": 7560}, "Germany_8": {"place_id": "Germany_8", "place_name": "Heidelberg", "place_lat": "49.403582", "place_lon": "8.67548", "journeys": [18360, 18240, 18300, 18360, 18240, 18300], "duration_median": 18300.0, "duration_min": 18240, "duration_max": 18360}, "Germany_9": {"place_id": "Germany_9", "place_name": "Aachen", "place_lat": "50.767641", "place_lon": "6.09119", "journeys": [21240, 21600, 20820, 21240, 21600, 20820], "duration_median": 21240.0, "duration_min": 20820, "duration_max": 21600}, "czechia_1": {"place_id": "czechia_1", "place_name": "Prague", "place_lat": "50.081926", "place_lon": "14.451481", "journeys": [15240, 16440, 16440, 15240, 16440, 16440, 15240, 16440, 16440, 15240, 16440, 16440], "duration_median": 16440.0, "duration_min": 15240, "duration_max": 16440}, "czechia_5": {"place_id": "czechia_5", "place_name": "Brno", "place_lat": "49.190537", "place_lon": "16.612776", "journeys": [25380, 26340, 25380, 25380, 26340, 25380], "duration_median": 25380.0, "duration_min": 25380, "duration_max": 26340}, "austria_1": {"place_id": "austria_1", "place_name": "Vienna", "place_lat": "48.207037", "place_lon": "16.341553", "journeys": [30720, 27780, 47280, 30720, 27780, 47280, 30720, 27780, 47280, 30720, 27780, 47280], "duration_median": 30720.0, "duration_min": 27780, "duration_max": 47280}, "austria_3": {"place_id": "austria_3", "place_name": "Graz", "place_lat": "47.072301", "place_lon": "15.416437", "journeys": [40920, 58200, 40920, 40920, 58200, 40920], "duration_median": 40920.0, "duration_min": 40920, "duration_max": 58200}, "switzerland_6": {"place_id": "switzerland_6", "place_name": "Zurich", "place_lat": "47.378968", "place_lon": "8.540534", "journeys": [30840, 30840, 30840, 30840, 30840, 30840, 30840, 30840, 30840, 30840, 30840, 30840], "duration_median": 30840.0, "duration_min": 30840, "duration_max": 30840}}, "Germany_2": {"Germany_1": {"place_id": "Germany_1", "place_name": "Berlin", "place_lat": "52.524924", "place_lon": "13.369629", "journeys": [7320, 7680, 7440, 7320, 7680, 7440], "duration_median": 7440.0, "duration_min": 7320, "duration_max": 7680}, "Germany_5": {"place_id": "Germany_5", "place_name": "Cologne", "place_lat": "50.941312", "place_lon": "6.967206", "journeys": [26580, 27000, 27000], "duration_median": 27000, "duration_min": 26580, "duration_max": 27000}, "Germany_6": {"place_id": "Germany_6", "place_name": "Freiburg", "place_lat": "47.997974", "place_lon": "7.841344", "journeys": [36420, 36420, 32820, 32820], "duration_median": 34620.0, "duration_min": 32820, "duration_max": 36420}, "Germany_7": {"place_id": "Germany_7", "place_name": "Hamburg", "place_lat": "53.55711", "place_lon": "9.997434", "journeys": [15660, 15360, 15360, 15660, 15360, 15360], "duration_median": 15360.0, "duration_min": 15360, "duration_max": 15660}, "Germany_9": {"place_id": "Germany_9", "place_name": "Aachen", "place_lat": "50.767641", "place_lon": "6.09119", "journeys": [28920], "duration_median": 28920, "duration_min": 28920, "duration_max": 28920}, "czechia_1": {"place_id": "czechia_1", "place_name": "Prague", "place_lat": "50.081926", "place_lon": "14.451481", "journeys": [9000, 8460, 8700, 9000, 8460, 8700], "duration_median": 8700.0, "duration_min": 8460, "duration_max": 9000}, "czechia_5": {"place_id": "czechia_5", "place_name": "Brno", "place_lat": "49.190537", "place_lon": "16.612776", "journeys": [18600, 18600, 18600], "duration_median": 18600, "duration_min": 18600, "duration_max": 18600}, "czechia_9": {"place_id": "czechia_9", "place_name": "Liberec", "place_lat": "50.761429", "place_lon": "15.045947", "journeys": [8940, 7200, 7200], "duration_median": 7200, "duration_min": 7200, "duration_max": 8940}, "austria_1": {"place_id": "austria_1", "place_name": "Vienna", "place_lat": "48.207037", "place_lon": "16.341553", "journeys": [23940, 23940, 23940, 23940, 23940, 23940], "duration_median": 23940.0, "duration_min": 23940, "duration_max": 23940}, "austria_3": {"place_id": "austria_3", "place_name": "Graz", "place_lat": "47.072301", "place_lon": "15.416437", "journeys": [34140, 34140, 33840], "duration_median": 34140, "duration_min": 33840, "duration_max": 34140}, "switzerland_6": {"place_id": "switzerland_6", "place_name": "Zurich", "place_lat": "47.378968", "place_lon": "8.540534", "journeys": [46500, 46500, 42900, 42900, 46500, 46500, 42900, 42900], "duration_median": 44700.0, "duration_min": 42900, "duration_max": 46500}}, "Germany_3": {"Germany_1": {"place_id": "Germany_1", "place_name": "Berlin", "place_lat": "52.524924", "place_lon": "13.369629", "journeys": [21960, 13620, 10440, 21960, 13620, 10440, 21960, 13620, 10440, 21960, 13620, 10440], "duration_median": 13620.0, "duration_min": 10440, "duration_max": 21960}, "Germany_4": {"place_id": "Germany_4", "place_name": "Munich", "place_lat": "48.140364", "place_lon": "11.558744", "journeys": [4740, 3720, 4500, 5580, 4740, 4740, 3720, 4500, 5580, 4740], "duration_median": 4740.0, "duration_min": 3720, "duration_max": 5580}, "Germany_5": {"place_id": "Germany_5", "place_name": "Cologne", "place_lat": "50.941312", "place_lon": "6.967206", "journeys": [20880, 14700, 12480, 20880, 14700, 12480], "duration_median": 14700.0, "duration_min": 12480, "duration_max": 20880}, "Germany_7": {"place_id": "Germany_7", "place_name": "Hamburg", "place_lat": "53.55711", "place_lon": "9.997434", "journeys": [24900, 24540, 22860, 24900, 24540, 22860, 24900, 24540, 22860, 24900, 24540, 22860], "duration_median": 24540.0, "duration_min": 22860, "duration_max": 24900}, "Germany_10": {"place_id": "Germany_10", "place_name": "Lubeck", "place_lat": "53.86767", "place_lon": "10.669737", "journeys": [21840, 21960, 21840, 21840, 21960, 21840], "duration_median": 21840.0, "duration_min": 21840, "duration_max": 21960}, "austria_1": {"place_id": "austria_1", "place_name": "Vienna", "place_lat": "48.207037", "place_lon": "16.341553", "journeys": [17340, 17220, 15360, 17340, 17220, 15360, 17340, 17220, 15360, 17340, 17220, 15360], "duration_median": 17220.0, "duration_min": 15360, "duration_max": 17340}, "austria_4": {"place_id": "austria_4", "place_name": "Innsbruck", "place_lat": "47.263331", "place_lon": "11.400506", "journeys": [16560, 20280, 16680, 16560, 20280, 16680], "duration_median": 16680.0, "duration_min": 16560, "duration_max": 20280}}, "Germany_4": {"Germany_1": {"place_id": "Germany_1", "place_name": "Berlin", "place_lat": "52.524924", "place_lon": "13.369629", "journeys": [14400, 16500, 14280, 14400, 16500, 14280], "duration_median": 14400.0, "duration_min": 14280, "duration_max": 16500}, "Germany_3": {"place_id": "Germany_3", "place_name": "Nuremberg", "place_lat": "49.450748", "place_lon": "11.077955", "journeys": [7320, 4020, 4680, 7320, 4020, 4680], "duration_median": 4680.0, "duration_min": 4020, "duration_max": 7320}, "Germany_5": {"place_id": "Germany_5", "place_name": "Cologne", "place_lat": "50.941312", "place_lon": "6.967206", "journeys": [30900, 21720, 16320], "duration_median": 21720, "duration_min": 16320, "duration_max": 30900}, "Germany_6": {"place_id": "Germany_6", "place_name": "Freiburg", "place_lat": "47.997974", "place_lon": "7.841344", "journeys": [14640, 14640], "duration_median": 14640.0, "duration_min": 14640, "duration_max": 14640}, "Germany_7": {"place_id": "Germany_7", "place_name": "Hamburg", "place_lat": "53.55711", "place_lon": "9.997434", "journeys": [35700, 36780, 21480, 35700, 36780, 21480], "duration_median": 35700.0, "duration_min": 21480, "duration_max": 36780}, "Germany_8": {"place_id": "Germany_8", "place_name": "Heidelberg", "place_lat": "49.403582", "place_lon": "8.67548", "journeys": [12000, 10800, 10680], "duration_median": 10800, "duration_min": 10680, "duration_max": 12000}, "Germany_10": {"place_id": "Germany_10", "place_name": "Lubeck", "place_lat": "53.86767", "place_lon": "10.669737", "journeys": [26580, 26340, 26580], "duration_median": 26580, "duration_min": 26340, "duration_max": 26580}, "czechia_1": {"place_id": "czechia_1", "place_name": "Prague", "place_lat": "50.081926", "place_lon": "14.451481", "journeys": [19980, 19980, 20040, 19980, 19980, 20040], "duration_median": 19980.0, "duration_min": 19980, "duration_max": 20040}, "czechia_6": {"place_id": "czechia_6", "place_name": "Pilsen", "place_lat": "49.746889", "place_lon": "13.377351", "journeys": [14580, 14580, 14640, 14580, 14580, 14640], "duration_median": 14580.0, "duration_min": 14580, "duration_max": 14640}, "austria_1": {"place_id": "austria_1", "place_name": "Vienna", "place_lat": "48.207037", "place_lon": "16.341553", "journeys": [26100, 18540, 18060, 26100, 18540, 18060], "duration_median": 18540.0, "duration_min": 18060, "duration_max": 26100}, "austria_2": {"place_id": "austria_2", "place_name": "Salzburg", "place_lat": "47.813848", "place_lon": "13.045514", "journeys": [6900, 7740, 6660], "duration_median": 6900, "duration_min": 6660, "duration_max": 7740}, "austria_4": {"place_id": "austria_4", "place_name": "Innsbruck", "place_lat": "47.263331", "place_lon": "11.400506", "journeys": [6360, 6240, 6240], "duration_median": 6240, "duration_min": 6240, "duration_max": 6360}, "austria_5": {"place_id": "austria_5", "place_name": "Bregenz", "place_lat": "47.503001", "place_lon": "9.739623", "journeys": [7380, 7380, 7380], "duration_median": 7380, "duration_min": 7380, "duration_max": 7380}, "switzerland_6": {"place_id": "switzerland_6", "place_name": "Zurich", "place_lat": "47.378968", "place_lon": "8.540534", "journeys": [12720, 12720, 12720, 12720, 12720, 12720], "duration_median": 12720.0, "duration_min": 12720, "duration_max": 12720}, "france_19": {"place_id": "france_19", "place_name": "Paris", "place_lat": "48.861496", "place_lon": "2.333681", "journeys": [20580, 39960, 20580, 20580, 39960, 20580, 22380, 41760, 22380], "duration_median": 22380, "duration_min": 20580, "duration_max": 41760}, "france_162": {"place_id": "france_162", "place_name": "Strasbourg", "place_lat": "48.585339", "place_lon": "7.734067", "journeys": [13680, 23160, 13680], "duration_median": 13680, "duration_min": 13680, "duration_max": 23160}}, "Germany_5": {"Germany_1": {"place_id": "Germany_1", "place_name": "Berlin", "place_lat": "52.524924", "place_lon": "13.369629", "journeys": [25440, 17340, 17400, 25440, 17340, 17400], "duration_median": 17400.0, "duration_min": 17340, "duration_max": 25440}, "Germany_2": {"place_id": "Germany_2", "place_name": "Dresden", "place_lat": "51.040221", "place_lon": "13.731409", "journeys": [26340, 26340, 27120], "duration_median": 26340, "duration_min": 26340, "duration_max": 27120}, "Germany_3": {"place_id": "Germany_3", "place_name": "Nuremberg", "place_lat": "49.450748", "place_lon": "11.077955", "journeys": [14760, 13860, 13380, 14760, 13860, 13380], "duration_median": 13860.0, "duration_min": 13380, "duration_max": 14760}, "Germany_4": {"place_id": "Germany_4", "place_name": "Munich", "place_lat": "48.140364", "place_lon": "11.558744", "journeys": [22080, 19140, 17940], "duration_median": 19140, "duration_min": 17940, "duration_max": 22080}, "Germany_6": {"place_id": "Germany_6", "place_name": "Freiburg", "place_lat": "47.997974", "place_lon": "7.841344", "journeys": [20640, 20640, 14520, 14580], "duration_median": 17610.0, "duration_min": 14520, "duration_max": 20640}, "Germany_7": {"place_id": "Germany_7", "place_name": "Hamburg", "place_lat": "53.55711", "place_lon": "9.997434", "journeys": [16920, 14820, 13200, 16920, 14820, 13200], "duration_median": 14820.0, "duration_min": 13200, "duration_max": 16920}, "Germany_8": {"place_id": "Germany_8", "place_name": "Heidelberg", "place_lat": "49.403582", "place_lon": "8.67548", "journeys": [8520, 10080, 10980], "duration_median": 10080, "duration_min": 8520, "duration_max": 10980}, "Germany_9": {"place_id": "Germany_9", "place_name": "Aachen", "place_lat": "50.767641", "place_lon": "6.09119", "journeys": [3540, 3240, 3180], "duration_median": 3240, "duration_min": 3180, "duration_max": 3540}, "Germany_10": {"place_id": "Germany_10", "place_name": "Lubeck", "place_lat": "53.86767", "place_lon": "10.669737", "journeys": [16680, 16680, 16680], "duration_median": 16680, "duration_min": 16680, "duration_max": 16680}, "austria_1": {"place_id": "austria_1", "place_name": "Vienna", "place_lat": "48.207037", "place_lon": "16.341553", "journeys": [32460, 33240, 32460, 32460, 33240, 32460], "duration_median": 32460.0, "duration_min": 32460, "duration_max": 33240}, "austria_4": {"place_id": "austria_4", "place_name": "Innsbruck", "place_lat": "47.263331", "place_lon": "11.400506", "journeys": [43560, 39960, 39720], "duration_median": 39960, "duration_min": 39720, "duration_max": 43560}, "switzerland_2": {"place_id": "switzerland_2", "place_name": "Bern", "place_lat": "46.948834", "place_lon": "7.439131", "journeys": [23280, 23280, 21780], "duration_median": 23280, "duration_min": 21780, "duration_max": 23280}, "switzerland_6": {"place_id": "switzerland_6", "place_name": "Zurich", "place_lat": "47.378968", "place_lon": "8.540534", "journeys": [30180, 30180, 22200, 33780, 30180, 30180, 22200, 33780], "duration_median": 30180.0, "duration_min": 22200, "duration_max": 33780}, "france_19": {"place_id": "france_19", "place_name": "Paris", "place_lat": "48.861496", "place_lon": "2.333681", "journeys": [12120, 12120, 12240, 13920, 13920, 14040, 12120, 12120, 12240], "duration_median": 12240, "duration_min": 12120, "duration_max": 14040}}, "Germany_6": {"Germany_1": {"place_id": "Germany_1", "place_name": "Berlin", "place_lat": "52.524924", "place_lon": "13.369629", "journeys": [24600, 24240, 24240, 24600, 24240, 24240], "duration_median": 24240.0, "duration_min": 24240, "duration_max": 24600}, "Germany_2": {"place_id": "Germany_2", "place_name": "Dresden", "place_lat": "51.040221", "place_lon": "13.731409", "journeys": [36420, 36420, 32820, 32820], "duration_median": 34620.0, "duration_min": 32820, "duration_max": 36420}, "Germany_4": {"place_id": "Germany_4", "place_name": "Munich", "place_lat": "48.140364", "place_lon": "11.558744", "journeys": [15060, 15060], "duration_median": 15060.0, "duration_min": 15060, "duration_max": 15060}, "Germany_5": {"place_id": "Germany_5", "place_name": "Cologne", "place_lat": "50.941312", "place_lon": "6.967206", "journeys": [22320, 22320, 15000, 14820], "duration_median": 18660.0, "duration_min": 14820, "duration_max": 22320}, "Germany_7": {"place_id": "Germany_7", "place_name": "Hamburg", "place_lat": "53.55711", "place_lon": "9.997434", "journeys": [32160, 32160, 24360, 24060, 32160, 32160, 24360, 24060], "duration_median": 28260.0, "duration_min": 24060, "duration_max": 32160}, "Germany_8": {"place_id": "Germany_8", "place_name": "Heidelberg", "place_lat": "49.403582", "place_lon": "8.67548", "journeys": [7560, 7320, 7320], "duration_median": 7320, "duration_min": 7320, "duration_max": 7560}, "czechia_1": {"place_id": "czechia_1", "place_name": "Prague", "place_lat": "50.081926", "place_lon": "14.451481", "journeys": [45600, 45600, 42000, 42000, 45600, 45600, 42000, 42000], "duration_median": 43800.0, "duration_min": 42000, "duration_max": 45600}, "switzerland_2": {"place_id": "switzerland_2", "place_name": "Bern", "place_lat": "46.948834", "place_lon": "7.439131", "journeys": [10740, 8640, 7860], "duration_median": 8640, "duration_min": 7860, "duration_max": 10740}, "switzerland_6": {"place_id": "switzerland_6", "place_name": "Zurich", "place_lat": "47.378968", "place_lon": "8.540534", "journeys": [9420, 9960, 6960, 9420, 9960, 6960], "duration_median": 9420.0, "duration_min": 6960, "duration_max": 9960}, "france_19": {"place_id": "france_19", "place_name": "Paris", "place_lat": "48.861496", "place_lon": "2.333681", "journeys": [11580, 13020, 10920, 11580, 13020, 10920, 13380, 14820, 12720], "duration_median": 12720, "duration_min": 10920, "duration_max": 14820}, "france_24": {"place_id": "france_24", "place_name": "Bordeaux", "place_lat": "44.82649", "place_lon": "-0.55592", "journeys": [27600], "duration_median": 27600, "duration_min": 27600, "duration_max": 27600}, "france_162": {"place_id": "france_162", "place_name": "Strasbourg", "place_lat": "48.585339", "place_lon": "7.734067", "journeys": [3780, 5040, 5220], "duration_median": 5040, "duration_min": 3780, "duration_max": 5220}}, "Germany_7": {"Germany_1": {"place_id": "Germany_1", "place_name": "Berlin", "place_lat": "52.524924", "place_lon": "13.369629", "journeys": [7320, 7380, 6360, 7320, 7380, 6360, 7320, 7380, 6360, 7320, 7380, 6360], "duration_median": 7320.0, "duration_min": 6360, "duration_max": 7380}, "Germany_2": {"place_id": "Germany_2", "place_name": "Dresden", "place_lat": "51.040221", "place_lon": "13.731409", "journeys": [15540, 15360, 15360, 15540, 15360, 15360], "duration_median": 15360.0, "duration_min": 15360, "duration_max": 15540}, "Germany_3": {"place_id": "Germany_3", "place_name": "Nuremberg", "place_lat": "49.450748", "place_lon": "11.077955", "journeys": [19800, 18240, 19860, 19800, 18240, 19860, 19800, 18240, 19860, 19800, 18240, 19860], "duration_median": 19800.0, "duration_min": 18240, "duration_max": 19860}, "Germany_4": {"place_id": "Germany_4", "place_name": "Munich", "place_lat": "48.140364", "place_lon": "11.558744", "journeys": [24300, 22200, 24240, 24300, 22200, 24240], "duration_median": 24240.0, "duration_min": 22200, "duration_max": 24300}, "Germany_5": {"place_id": "Germany_5", "place_name": "Cologne", "place_lat": "50.941312", "place_lon": "6.967206", "journeys": [15240, 15120, 14220, 15240, 15120, 14220, 14880], "duration_median": 15120, "duration_min": 14220, "duration_max": 15240}, "Germany_6": {"place_id": "Germany_6", "place_name": "Freiburg", "place_lat": "47.997974", "place_lon": "7.841344", "journeys": [25740, 29460, 24240, 25740, 29460, 24240], "duration_median": 25740.0, "duration_min": 24240, "duration_max": 29460}, "Germany_8": {"place_id": "Germany_8", "place_name": "Heidelberg", "place_lat": "49.403582", "place_lon": "8.67548", "journeys": [22500, 28800, 23520, 22500, 28800, 23520], "duration_median": 23520.0, "duration_min": 22500, "duration_max": 28800}, "Germany_10": {"place_id": "Germany_10", "place_name": "Lubeck", "place_lat": "53.86767", "place_lon": "10.669737", "journeys": [3060, 2880, 3060, 3060, 2880, 3060], "duration_median": 3060.0, "duration_min": 2880, "duration_max": 3060}, "czechia_1": {"place_id": "czechia_1", "place_name": "Prague", "place_lat": "50.081926", "place_lon": "14.451481", "journeys": [24420, 24240, 24240, 24420, 24240, 24240, 24420, 24240, 24240, 24420, 24240, 24240], "duration_median": 24240.0, "duration_min": 24240, "duration_max": 24420}, "czechia_5": {"place_id": "czechia_5", "place_name": "Brno", "place_lat": "49.190537", "place_lon": "16.612776", "journeys": [34320, 34320, 34320, 34320, 34320, 34320], "duration_median": 34320.0, "duration_min": 34320, "duration_max": 34320}, "austria_1": {"place_id": "austria_1", "place_name": "Vienna", "place_lat": "48.207037", "place_lon": "16.341553", "journeys": [34980, 56940, 34980, 34980, 56940, 34980, 34980, 56940, 34980, 34980, 56940, 34980], "duration_median": 34980.0, "duration_min": 34980, "duration_max": 56940}, "austria_4": {"place_id": "austria_4", "place_name": "Innsbruck", "place_lat": "47.263331", "place_lon": "11.400506", "journeys": [35640, 49800, 46200, 35640, 49800, 46200], "duration_median": 46200.0, "duration_min": 35640, "duration_max": 49800}, "switzerland_2": {"place_id": "switzerland_2", "place_name": "Bern", "place_lat": "46.948834", "place_lon": "7.439131", "journeys": [38220, 31740, 33540, 38220, 31740, 33540], "duration_median": 33540.0, "duration_min": 31740, "duration_max": 38220}, "switzerland_6": {"place_id": "switzerland_6", "place_name": "Zurich", "place_lat": "47.378968", "place_lon": "8.540534", "journeys": [36900, 46680, 46680, 36900, 36900, 46680, 46680, 36900, 36900, 46680, 46680, 36900, 36900, 46680, 46680, 36900], "duration_median": 41790.0, "duration_min": 36900, "duration_max": 46680}}, "Germany_8": {"Germany_1": {"place_id": "Germany_1", "place_name": "Berlin", "place_lat": "52.524924", "place_lon": "13.369629", "journeys": [23340, 18480, 18540, 23340, 18480, 18540], "duration_median": 18540.0, "duration_min": 18480, "duration_max": 23340}, "Germany_4": {"place_id": "Germany_4", "place_name": "Munich", "place_lat": "48.140364", "place_lon": "11.558744", "journeys": [13440, 13680, 10620], "duration_median": 13440, "duration_min": 10620, "duration_max": 13680}, "Germany_5": {"place_id": "Germany_5", "place_name": "Cologne", "place_lat": "50.941312", "place_lon": "6.967206", "journeys": [8400, 10680, 10620], "duration_median": 10620, "duration_min": 8400, "duration_max": 10680}, "Germany_6": {"place_id": "Germany_6", "place_name": "Freiburg", "place_lat": "47.997974", "place_lon": "7.841344", "journeys": [6420, 6900, 6420], "duration_median": 6420, "duration_min": 6420, "duration_max": 6900}, "Germany_7": {"place_id": "Germany_7", "place_name": "Hamburg", "place_lat": "53.55711", "place_lon": "9.997434", "journeys": [24360, 24360, 23460, 26640, 24360, 24360, 23460, 26640], "duration_median": 24360.0, "duration_min": 23460, "duration_max": 26640}, "austria_2": {"place_id": "austria_2", "place_name": "Salzburg", "place_lat": "47.813848", "place_lon": "13.045514", "journeys": [17160, 17160, 17160], "duration_median": 17160, "duration_min": 17160, "duration_max": 17160}, "switzerland_6": {"place_id": "switzerland_6", "place_name": "Zurich", "place_lat": "47.378968", "place_lon": "8.540534", "journeys": [16260, 16260, 16260, 16260, 16260, 16260], "duration_median": 16260.0, "duration_min": 16260, "duration_max": 16260}}, "Germany_9": {"Germany_1": {"place_id": "Germany_1", "place_name": "Berlin", "place_lat": "52.524924", "place_lon": "13.369629", "journeys": [22020, 21660, 21060, 22020, 21660, 21060], "duration_median": 21660.0, "duration_min": 21060, "duration_max": 22020}, "Germany_2": {"place_id": "Germany_2", "place_name": "Dresden", "place_lat": "51.040221", "place_lon": "13.731409", "journeys": [30000], "duration_median": 30000, "duration_min": 30000, "duration_max": 30000}, "Germany_5": {"place_id": "Germany_5", "place_name": "Cologne", "place_lat": "50.941312", "place_lon": "6.967206", "journeys": [3180, 3180, 3180], "duration_median": 3180, "duration_min": 3180, "duration_max": 3180}, "france_19": {"place_id": "france_19", "place_name": "Paris", "place_lat": "48.861496", "place_lon": "2.333681", "journeys": [9840, 9780, 9780, 11640, 11580, 11580, 9840, 9780, 9780], "duration_median": 9840, "duration_min": 9780, "duration_max": 11640}}, "Germany_10": {"Germany_3": {"place_id": "Germany_3", "place_name": "Nuremberg", "place_lat": "49.450748", "place_lon": "11.077955", "journeys": [22080, 22080, 22080, 22080, 22080, 22080], "duration_median": 22080.0, "duration_min": 22080, "duration_max": 22080}, "Germany_4": {"place_id": "Germany_4", "place_name": "Munich", "place_lat": "48.140364", "place_lon": "11.558744", "journeys": [26580, 26700, 26580], "duration_median": 26580, "duration_min": 26580, "duration_max": 26700}, "Germany_5": {"place_id": "Germany_5", "place_name": "Cologne", "place_lat": "50.941312", "place_lon": "6.967206", "journeys": [16020, 16020, 16740], "duration_median": 16020, "duration_min": 16020, "duration_max": 16740}, "Germany_7": {"place_id": "Germany_7", "place_name": "Hamburg", "place_lat": "53.55711", "place_lon": "9.997434", "journeys": [3000, 3000, 3060, 3000, 3000, 3060], "duration_median": 3000.0, "duration_min": 3000, "duration_max": 3060}}, "czechia_1": {"Germany_1": {"place_id": "Germany_1", "place_name": "Berlin", "place_lat": "52.524924", "place_lon": "13.369629", "journeys": [16440, 16440, 16440, 16440, 16440, 16440, 16440, 16440, 16440, 16440, 16440, 16440], "duration_median": 16440.0, "duration_min": 16440, "duration_max": 16440}, "Germany_2": {"place_id": "Germany_2", "place_name": "Dresden", "place_lat": "51.040221", "place_lon": "13.731409", "journeys": [8820, 8820, 8820, 8820, 8820, 8820], "duration_median": 8820.0, "duration_min": 8820, "duration_max": 8820}, "Germany_4": {"place_id": "Germany_4", "place_name": "Munich", "place_lat": "48.140364", "place_lon": "11.558744", "journeys": [20100, 20100, 20100, 20100, 20100, 20100], "duration_median": 20100.0, "duration_min": 20100, "duration_max": 20100}, "Germany_6": {"place_id": "Germany_6", "place_name": "Freiburg", "place_lat": "47.997974", "place_lon": "7.841344", "journeys": [46260, 46260, 42660, 42660, 46260, 46260, 42660, 42660], "duration_median": 44460.0, "duration_min": 42660, "duration_max": 46260}, "Germany_7": {"place_id": "Germany_7", "place_name": "Hamburg", "place_lat": "53.55711", "place_lon": "9.997434", "journeys": [24360, 24360, 24420, 24360, 24360, 24420, 24360, 24360, 24420, 24360, 24360, 24420], "duration_median": 24360.0, "duration_min": 24360, "duration_max": 24420}, "czechia_2": {"place_id": "czechia_2", "place_name": "Cesky Krumlov", "place_lat": "48.822429", "place_lon": "14.317299", "journeys": [9060, 9060, 9060, 9060, 9060, 9060], "duration_median": 9060.0, "duration_min": 9060, "duration_max": 9060}, "czechia_3": {"place_id": "czechia_3", "place_name": "Karlovy Vary", "place_lat": "50.235668", "place_lon": "12.866854", "journeys": [12480, 11940, 11940, 12480, 11940, 11940], "duration_median": 11940.0, "duration_min": 11940, "duration_max": 12480}, "czechia_4": {"place_id": "czechia_4", "place_name": "Kutna Hora", "place_lat": "49.961839", "place_lon": "15.300854", "journeys": [3000, 3000, 3000, 3000, 3000, 3000], "duration_median": 3000.0, "duration_min": 3000, "duration_max": 3000}, "czechia_5": {"place_id": "czechia_5", "place_name": "Brno", "place_lat": "49.190537", "place_lon": "16.612776", "journeys": [9840, 9300, 9300, 9840, 9300, 9300], "duration_median": 9300.0, "duration_min": 9300, "duration_max": 9840}, "czechia_6": {"place_id": "czechia_6", "place_name": "Pilsen", "place_lat": "49.746889", "place_lon": "13.377351", "journeys": [5160, 4500, 5040, 5160, 4500, 5040, 5160, 4500, 5040, 5160, 4500, 5040], "duration_median": 5040.0, "duration_min": 4500, "duration_max": 5160}, "czechia_7": {"place_id": "czechia_7", "place_name": "Olomouc", "place_lat": "49.593128", "place_lon": "17.277932", "journeys": [8820, 9300, 8460, 8820, 9300, 8460], "duration_median": 8820.0, "duration_min": 8460, "duration_max": 9300}, "czechia_10": {"place_id": "czechia_10", "place_name": "Ceske Budejovice", "place_lat": "48.974616", "place_lon": "14.48875", "journeys": [6000, 7500, 6000, 6000, 7500, 6000], "duration_median": 6000.0, "duration_min": 6000, "duration_max": 7500}, "austria_1": {"place_id": "austria_1", "place_name": "Vienna", "place_lat": "48.207037", "place_lon": "16.341553", "journeys": [14640, 14940, 14640, 14640, 14940, 14640, 14640, 14940, 14640, 14640, 14940, 14640], "duration_median": 14640.0, "duration_min": 14640, "duration_max": 14940}, "austria_3": {"place_id": "austria_3", "place_name": "Graz", "place_lat": "47.072301", "place_lon": "15.416437", "journeys": [24840, 24840, 24840, 24840, 24840, 24840], "duration_median": 24840.0, "duration_min": 24840, "duration_max": 24840}, "switzerland_6": {"place_id": "switzerland_6", "place_name": "Zurich", "place_lat": "47.378968", "place_lon": "8.540534", "journeys": [56340, 56340, 52740, 52740, 56340, 56340, 52740, 52740, 56340, 56340, 52740, 52740, 56340, 56340, 52740, 52740], "duration_median": 54540.0, "duration_min": 52740, "duration_max": 56340}}, "czechia_2": {"czechia_1": {"place_id": "czechia_1", "place_name": "Prague", "place_lat": "50.081926", "place_lon": "14.451481", "journeys": [9120, 9120, 9120, 9120, 9120, 9120], "duration_median": 9120.0, "duration_min": 9120, "duration_max": 9120}, "czechia_10": {"place_id": "czechia_10", "place_name": "Ceske Budejovice", "place_lat": "48.974616", "place_lon": "14.48875", "journeys": [2820, 2820, 2880], "duration_median": 2820, "duration_min": 2820, "duration_max": 2880}}, "czechia_3": {"czechia_1": {"place_id": "czechia_1", "place_name": "Prague", "place_lat": "50.081926", "place_lon": "14.451481", "journeys": [12540, 12420, 12360, 12540, 12420, 12360], "duration_median": 12420.0, "duration_min": 12360, "duration_max": 12540}, "czechia_6": {"place_id": "czechia_6", "place_name": "Pilsen", "place_lat": "49.746889", "place_lon": "13.377351", "journeys": [8760, 7440, 8760, 8760, 7440, 8760], "duration_median": 8760.0, "duration_min": 7440, "duration_max": 8760}}, "czechia_4": {"czechia_1": {"place_id": "czechia_1", "place_name": "Prague", "place_lat": "50.081926", "place_lon": "14.451481", "journeys": [3180, 3180, 3180, 3180, 3180, 3180], "duration_median": 3180.0, "duration_min": 3180, "duration_max": 3180}, "czechia_5": {"place_id": "czechia_5", "place_name": "Brno", "place_lat": "49.190537", "place_lon": "16.612776", "journeys": [9720, 9720, 9720], "duration_median": 9720, "duration_min": 9720, "duration_max": 9720}}, "czechia_5": {"Germany_1": {"place_id": "Germany_1", "place_name": "Berlin", "place_lat": "52.524924", "place_lon": "13.369629", "journeys": [26640, 26280, 26640, 26640, 26280, 26640], "duration_median": 26640.0, "duration_min": 26280, "duration_max": 26640}, "Germany_2": {"place_id": "Germany_2", "place_name": "Dresden", "place_lat": "51.040221", "place_lon": "13.731409", "journeys": [18840, 18900, 18840], "duration_median": 18840, "duration_min": 18840, "duration_max": 18900}, "Germany_7": {"place_id": "Germany_7", "place_name": "Hamburg", "place_lat": "53.55711", "place_lon": "9.997434", "journeys": [34740, 34740, 34740, 34740, 34740, 34740], "duration_median": 34740.0, "duration_min": 34740, "duration_max": 34740}, "czechia_1": {"place_id": "czechia_1", "place_name": "Prague", "place_lat": "50.081926", "place_lon": "14.451481", "journeys": [10500, 9900, 9180, 10500, 9900, 9180], "duration_median": 9900.0, "duration_min": 9180, "duration_max": 10500}, "czechia_4": {"place_id": "czechia_4", "place_name": "Kutna Hora", "place_lat": "49.961839", "place_lon": "15.300854", "journeys": [9540, 9540, 9540], "duration_median": 9540, "duration_min": 9540, "duration_max": 9540}, "czechia_7": {"place_id": "czechia_7", "place_name": "Olomouc", "place_lat": "49.593128", "place_lon": "17.277932", "journeys": [5460, 8160, 5700], "duration_median": 5700, "duration_min": 5460, "duration_max": 8160}, "austria_1": {"place_id": "austria_1", "place_name": "Vienna", "place_lat": "48.207037", "place_lon": "16.341553", "journeys": [5220, 5580, 5220, 5220, 5580, 5220], "duration_median": 5220.0, "duration_min": 5220, "duration_max": 5580}, "austria_3": {"place_id": "austria_3", "place_name": "Graz", "place_lat": "47.072301", "place_lon": "15.416437", "journeys": [15420, 15420, 15420], "duration_median": 15420, "duration_min": 15420, "duration_max": 15420}}, "czechia_6": {"Germany_4": {"place_id": "Germany_4", "place_name": "Munich", "place_lat": "48.140364", "place_lon": "11.558744", "journeys": [14820, 14820, 14820, 14820, 14820, 14820], "duration_median": 14820.0, "duration_min": 14820, "duration_max": 14820}, "czechia_1": {"place_id": "czechia_1", "place_name": "Prague", "place_lat": "50.081926", "place_lon": "14.451481", "journeys": [4620, 5160, 4620, 4620, 5160, 4620, 4620, 5160, 4620, 4620, 5160, 4620], "duration_median": 4620.0, "duration_min": 4620, "duration_max": 5160}, "czechia_3": {"place_id": "czechia_3", "place_name": "Karlovy Vary", "place_lat": "50.235668", "place_lon": "12.866854", "journeys": [8580, 8580, 8580, 8580, 8580, 8580], "duration_median": 8580.0, "duration_min": 8580, "duration_max": 8580}, "czechia_7": {"place_id": "czechia_7", "place_name": "Olomouc", "place_lat": "49.593128", "place_lon": "17.277932", "journeys": [13680, 13680, 13680, 13680, 13680, 13680], "duration_median": 13680.0, "duration_min": 13680, "duration_max": 13680}, "czechia_10": {"place_id": "czechia_10", "place_name": "Ceske Budejovice", "place_lat": "48.974616", "place_lon": "14.48875", "journeys": [6660, 6660, 6660, 6660, 6660, 6660], "duration_median": 6660.0, "duration_min": 6660, "duration_max": 6660}}, "czechia_7": {"czechia_1": {"place_id": "czechia_1", "place_name": "Prague", "place_lat": "50.081926", "place_lon": "14.451481", "journeys": [8880, 9000, 9960, 8460, 8880, 9000, 9960, 8460], "duration_median": 8940.0, "duration_min": 8460, "duration_max": 9960}, "czechia_3": {"place_id": "czechia_3", "place_name": "Karlovy Vary", "place_lat": "50.235668", "place_lon": "12.866854", "journeys": [21360, 21360, 21360], "duration_median": 21360, "duration_min": 21360, "duration_max": 21360}, "czechia_5": {"place_id": "czechia_5", "place_name": "Brno", "place_lat": "49.190537", "place_lon": "16.612776", "journeys": [5760, 7980, 5700], "duration_median": 5760, "duration_min": 5700, "duration_max": 7980}, "czechia_6": {"place_id": "czechia_6", "place_name": "Pilsen", "place_lat": "49.746889", "place_lon": "13.377351", "journeys": [13440, 13440, 13440, 13440, 13440, 13440], "duration_median": 13440.0, "duration_min": 13440, "duration_max": 13440}}, "czechia_9": {"Germany_2": {"place_id": "Germany_2", "place_name": "Dresden", "place_lat": "51.040221", "place_lon": "13.731409", "journeys": [7140, 7140, 7140], "duration_median": 7140, "duration_min": 7140, "duration_max": 7140}}, "czechia_10": {"czechia_1": {"place_id": "czechia_1", "place_name": "Prague", "place_lat": "50.081926", "place_lon": "14.451481", "journeys": [7380, 6120, 6120, 7380, 6120, 6120], "duration_median": 6120.0, "duration_min": 6120, "duration_max": 7380}, "czechia_2": {"place_id": "czechia_2", "place_name": "Cesky Krumlov", "place_lat": "48.822429", "place_lon": "14.317299", "journeys": [2820, 2760, 2640], "duration_median": 2760, "duration_min": 2640, "duration_max": 2820}, "czechia_6": {"place_id": "czechia_6", "place_name": "Pilsen", "place_lat": "49.746889", "place_lon": "13.377351", "journeys": [6780, 6780, 6780, 6780, 6780, 6780], "duration_median": 6780.0, "duration_min": 6780, "duration_max": 6780}, "switzerland_6": {"place_id": "switzerland_6", "place_name": "Zurich", "place_lat": "47.378968", "place_lon": "8.540534", "journeys": [58980, 55380, 48180, 58980, 55380, 48180], "duration_median": 55380.0, "duration_min": 48180, "duration_max": 58980}}, "romania_1": {"romania_3": {"place_id": "romania_3", "place_name": "Sibiu", "place_lat": "45.799977", "place_lon": "24.161575", "journeys": [7740, 8940, 8880], "duration_median": 8880, "duration_min": 7740, "duration_max": 8940}, "romania_2": {"place_id": "romania_2", "place_name": "Brasov", "place_lat": "45.661516", "place_lon": "25.613711", "journeys": [11040, 13920, 11280], "duration_median": 11280, "duration_min": 11040, "duration_max": 13920}, "romania_6": {"place_id": "romania_6", "place_name": "Cluj-Napoca", "place_lat": "46.784197", "place_lon": "23.586616", "journeys": [12540, 11460, 10440], "duration_median": 11460, "duration_min": 10440, "duration_max": 12540}, "romania_10": {"place_id": "romania_10", "place_name": "Bucharest", "place_lat": "44.428816", "place_lon": "26.10382", "journeys": [22020, 20520, 22140], "duration_median": 22020, "duration_min": 20520, "duration_max": 22140}}, "romania_3": {"romania_1": {"place_id": "romania_1", "place_name": "Sighisoara", "place_lat": "46.226398", "place_lon": "24.795737", "journeys": [8340, 8100, 8820], "duration_median": 8340, "duration_min": 8100, "duration_max": 8820}, "romania_2": {"place_id": "romania_2", "place_name": "Brasov", "place_lat": "45.661516", "place_lon": "25.613711", "journeys": [11880, 10260, 13980], "duration_median": 11880, "duration_min": 10260, "duration_max": 13980}, "romania_4": {"place_id": "romania_4", "place_name": "Targu Mures", "place_lat": "46.533344", "place_lon": "24.549316", "journeys": [20220, 20220, 20220], "duration_median": 20220, "duration_min": 20220, "duration_max": 20220}, "romania_10": {"place_id": "romania_10", "place_name": "Bucharest", "place_lat": "44.428816", "place_lon": "26.10382", "journeys": [19800, 20520, 23400], "duration_median": 20520, "duration_min": 19800, "duration_max": 23400}}, "romania_2": {"romania_1": {"place_id": "romania_1", "place_name": "Sighisoara", "place_lat": "46.226398", "place_lon": "24.795737", "journeys": [14880, 12060, 13980], "duration_median": 13980, "duration_min": 12060, "duration_max": 14880}, "romania_3": {"place_id": "romania_3", "place_name": "Sibiu", "place_lat": "45.799977", "place_lon": "24.161575", "journeys": [9480, 9960, 13920], "duration_median": 9960, "duration_min": 9480, "duration_max": 13920}, "romania_4": {"place_id": "romania_4", "place_name": "Targu Mures", "place_lat": "46.533344", "place_lon": "24.549316", "journeys": [22140, 22140, 22140], "duration_median": 22140, "duration_min": 22140, "duration_max": 22140}, "romania_5": {"place_id": "romania_5", "place_name": "Miercurea Ciuc", "place_lat": "46.359574", "place_lon": "25.793782", "journeys": [5340, 9060, 7020], "duration_median": 7020, "duration_min": 5340, "duration_max": 9060}, "romania_6": {"place_id": "romania_6", "place_name": "Cluj-Napoca", "place_lat": "46.784197", "place_lon": "23.586616", "journeys": [25260, 23640, 22260], "duration_median": 23640, "duration_min": 22260, "duration_max": 25260}, "romania_9": {"place_id": "romania_9", "place_name": "Constanta", "place_lat": "44.168767", "place_lon": "28.631893", "journeys": [16200, 18600, 20100], "duration_median": 18600, "duration_min": 16200, "duration_max": 20100}, "romania_10": {"place_id": "romania_10", "place_name": "Bucharest", "place_lat": "44.428816", "place_lon": "26.10382", "journeys": [10080, 12840, 9960], "duration_median": 10080, "duration_min": 9960, "duration_max": 12840}}, "romania_4": {"romania_3": {"place_id": "romania_3", "place_name": "Sibiu", "place_lat": "45.799977", "place_lon": "24.161575", "journeys": [21600, 25200, 21600], "duration_median": 21600, "duration_min": 21600, "duration_max": 25200}, "romania_2": {"place_id": "romania_2", "place_name": "Brasov", "place_lat": "45.661516", "place_lon": "25.613711", "journeys": [19740, 19740, 19740], "duration_median": 19740, "duration_min": 19740, "duration_max": 19740}, "romania_5": {"place_id": "romania_5", "place_name": "Miercurea Ciuc", "place_lat": "46.359574", "place_lon": "25.793782", "journeys": [13980, 13980, 13980], "duration_median": 13980, "duration_min": 13980, "duration_max": 13980}, "romania_6": {"place_id": "romania_6", "place_name": "Cluj-Napoca", "place_lat": "46.784197", "place_lon": "23.586616", "journeys": [9720, 9720, 9720], "duration_median": 9720, "duration_min": 9720, "duration_max": 9720}}, "romania_5": {"romania_2": {"place_id": "romania_2", "place_name": "Brasov", "place_lat": "45.661516", "place_lon": "25.613711", "journeys": [5340, 8100, 7080], "duration_median": 7080, "duration_min": 5340, "duration_max": 8100}, "romania_4": {"place_id": "romania_4", "place_name": "Targu Mures", "place_lat": "46.533344", "place_lon": "24.549316", "journeys": [19620, 16140, 19620], "duration_median": 19620, "duration_min": 16140, "duration_max": 19620}, "romania_6": {"place_id": "romania_6", "place_name": "Cluj-Napoca", "place_lat": "46.784197", "place_lon": "23.586616", "journeys": [19800, 19560, 19800], "duration_median": 19800, "duration_min": 19560, "duration_max": 19800}, "romania_10": {"place_id": "romania_10", "place_name": "Bucharest", "place_lat": "44.428816", "place_lon": "26.10382", "journeys": [16140, 16140, 16140], "duration_median": 16140, "duration_min": 16140, "duration_max": 16140}}, "romania_6": {"romania_1": {"place_id": "romania_1", "place_name": "Sighisoara", "place_lat": "46.226398", "place_lon": "24.795737", "journeys": [11160, 12300, 12840], "duration_median": 12300, "duration_min": 11160, "duration_max": 12840}, "romania_2": {"place_id": "romania_2", "place_name": "Brasov", "place_lat": "45.661516", "place_lon": "25.613711", "journeys": [27060, 22800, 23820], "duration_median": 23820, "duration_min": 22800, "duration_max": 27060}, "romania_4": {"place_id": "romania_4", "place_name": "Targu Mures", "place_lat": "46.533344", "place_lon": "24.549316", "journeys": [9600, 9600, 9600], "duration_median": 9600, "duration_min": 9600, "duration_max": 9600}, "romania_5": {"place_id": "romania_5", "place_name": "Miercurea Ciuc", "place_lat": "46.359574", "place_lon": "25.793782", "journeys": [20760, 20160, 24360], "duration_median": 20760, "duration_min": 20160, "duration_max": 24360}, "romania_10": {"place_id": "romania_10", "place_name": "Bucharest", "place_lat": "44.428816", "place_lon": "26.10382", "journeys": [31320, 33060, 34680], "duration_median": 33060, "duration_min": 31320, "duration_max": 34680}}, "romania_8": {"romania_9": {"place_id": "romania_9", "place_name": "Constanta", "place_lat": "44.168767", "place_lon": "28.631893", "journeys": [14700, 14700, 14700], "duration_median": 14700, "duration_min": 14700, "duration_max": 14700}}, "romania_9": {"romania_2": {"place_id": "romania_2", "place_name": "Brasov", "place_lat": "45.661516", "place_lon": "25.613711", "journeys": [18900, 20640, 16200], "duration_median": 18900, "duration_min": 16200, "duration_max": 20640}, "romania_8": {"place_id": "romania_8", "place_name": "Tulcea", "place_lat": "45.162084", "place_lon": "28.769176", "journeys": [13500, 13500, 13500], "duration_median": 13500, "duration_min": 13500, "duration_max": 13500}, "romania_10": {"place_id": "romania_10", "place_name": "Bucharest", "place_lat": "44.428816", "place_lon": "26.10382", "journeys": [8700, 8520, 8520], "duration_median": 8520, "duration_min": 8520, "duration_max": 8700}}, "romania_10": {"romania_1": {"place_id": "romania_1", "place_name": "Sighisoara", "place_lat": "46.226398", "place_lon": "24.795737", "journeys": [21780, 19680, 21600], "duration_median": 21600, "duration_min": 19680, "duration_max": 21780}, "romania_3": {"place_id": "romania_3", "place_name": "Sibiu", "place_lat": "45.799977", "place_lon": "24.161575", "journeys": [20400, 18840, 20400], "duration_median": 20400, "duration_min": 18840, "duration_max": 20400}, "romania_2": {"place_id": "romania_2", "place_name": "Brasov", "place_lat": "45.661516", "place_lon": "25.613711", "journeys": [9120, 8880, 8700], "duration_median": 8880, "duration_min": 8700, "duration_max": 9120}, "romania_4": {"place_id": "romania_4", "place_name": "Targu Mures", "place_lat": "46.533344", "place_lon": "24.549316", "journeys": [32340, 32340, 32340], "duration_median": 32340, "duration_min": 32340, "duration_max": 32340}, "romania_5": {"place_id": "romania_5", "place_name": "Miercurea Ciuc", "place_lat": "46.359574", "place_lon": "25.793782", "journeys": [16080, 15300, 16080], "duration_median": 16080, "duration_min": 15300, "duration_max": 16080}, "romania_6": {"place_id": "romania_6", "place_name": "Cluj-Napoca", "place_lat": "46.784197", "place_lon": "23.586616", "journeys": [33360, 30540, 30240], "duration_median": 30540, "duration_min": 30240, "duration_max": 33360}, "romania_9": {"place_id": "romania_9", "place_name": "Constanta", "place_lat": "44.168767", "place_lon": "28.631893", "journeys": [8520, 8400, 7200], "duration_median": 8400, "duration_min": 7200, "duration_max": 8520}}, "austria_1": {"Germany_1": {"place_id": "Germany_1", "place_name": "Berlin", "place_lat": "52.524924", "place_lon": "13.369629", "journeys": [27600, 31560, 44340, 27600, 31560, 44340, 27600, 31560, 44340, 27600, 31560, 44340], "duration_median": 31560.0, "duration_min": 27600, "duration_max": 44340}, "Germany_2": {"place_id": "Germany_2", "place_name": "Dresden", "place_lat": "51.040221", "place_lon": "13.731409", "journeys": [24180, 24180, 24180, 24180, 24180, 24180], "duration_median": 24180.0, "duration_min": 24180, "duration_max": 24180}, "Germany_3": {"place_id": "Germany_3", "place_name": "Nuremberg", "place_lat": "49.450748", "place_lon": "11.077955", "journeys": [16680, 15240, 15300, 16680, 15240, 15300, 16680, 15240, 15300, 16680, 15240, 15300], "duration_median": 15300.0, "duration_min": 15240, "duration_max": 16680}, "Germany_4": {"place_id": "Germany_4", "place_name": "Munich", "place_lat": "48.140364", "place_lon": "11.558744", "journeys": [25200, 14700, 14700, 25200, 14700, 14580], "duration_median": 14700.0, "duration_min": 14580, "duration_max": 25200}, "Germany_5": {"place_id": "Germany_5", "place_name": "Cologne", "place_lat": "50.941312", "place_lon": "6.967206", "journeys": [34200, 32460, 32520, 34200, 32460, 32520], "duration_median": 32520.0, "duration_min": 32460, "duration_max": 34200}, "Germany_7": {"place_id": "Germany_7", "place_name": "Hamburg", "place_lat": "53.55711", "place_lon": "9.997434", "journeys": [34680, 51060, 34680, 34680, 51060, 34680, 34680, 51060, 34680, 34680, 51060, 34680], "duration_median": 34680.0, "duration_min": 34680, "duration_max": 51060}, "Germany_9": {"place_id": "Germany_9", "place_name": "Aachen", "place_lat": "50.767641", "place_lon": "6.09119", "journeys": [40260, 40260, 40260, 40260, 40260, 40260], "duration_median": 40260.0, "duration_min": 40260, "duration_max": 40260}, "czechia_1": {"place_id": "czechia_1", "place_name": "Prague", "place_lat": "50.081926", "place_lon": "14.451481", "journeys": [14940, 14460, 14460, 14940, 14460, 14460, 14940, 14460, 14460, 14940, 14460, 14460], "duration_median": 14460.0, "duration_min": 14460, "duration_max": 14940}, "czechia_5": {"place_id": "czechia_5", "place_name": "Brno", "place_lat": "49.190537", "place_lon": "16.612776", "journeys": [5280, 5160, 5160, 5280, 5160, 5160], "duration_median": 5160.0, "duration_min": 5160, "duration_max": 5280}, "austria_2": {"place_id": "austria_2", "place_name": "Salzburg", "place_lat": "47.813848", "place_lon": "13.045514", "journeys": [9900, 9900, 8700, 9900, 9900, 8700], "duration_median": 9900.0, "duration_min": 8700, "duration_max": 9900}, "austria_3": {"place_id": "austria_3", "place_name": "Graz", "place_lat": "47.072301", "place_lon": "15.416437", "journeys": [9660, 9660, 10620, 10620, 9660, 9660, 10620, 10620], "duration_median": 10140.0, "duration_min": 9660, "duration_max": 10620}, "austria_4": {"place_id": "austria_4", "place_name": "Innsbruck", "place_lat": "47.263331", "place_lon": "11.400506", "journeys": [15660, 15360, 15660, 15360, 15360, 21540], "duration_median": 15510.0, "duration_min": 15360, "duration_max": 21540}, "austria_5": {"place_id": "austria_5", "place_name": "Bregenz", "place_lat": "47.503001", "place_lon": "9.739623", "journeys": [25980, 36780, 33180, 25980, 36780, 33180], "duration_median": 33180.0, "duration_min": 25980, "duration_max": 36780}, "switzerland_6": {"place_id": "switzerland_6", "place_name": "Zurich", "place_lat": "47.378968", "place_lon": "8.540534", "journeys": [36960, 46920, 43320, 36960, 46920, 43320, 36960, 46920, 43320, 36960, 46920, 43320], "duration_median": 43320.0, "duration_min": 36960, "duration_max": 46920}, "france_19": {"place_id": "france_19", "place_name": "Paris", "place_lat": "48.861496", "place_lon": "2.333681", "journeys": [53820, 53820, 55620, 53820, 53820, 55620], "duration_median": 53820.0, "duration_min": 53820, "duration_max": 55620}, "france_162": {"place_id": "france_162", "place_name": "Strasbourg", "place_lat": "48.585339", "place_lon": "7.734067", "journeys": [37020, 37020], "duration_median": 37020.0, "duration_min": 37020, "duration_max": 37020}}, "austria_2": {"Germany_4": {"place_id": "Germany_4", "place_name": "Munich", "place_lat": "48.140364", "place_lon": "11.558744", "journeys": [6000, 8520, 6660], "duration_median": 6660, "duration_min": 6000, "duration_max": 8520}, "Germany_8": {"place_id": "Germany_8", "place_name": "Heidelberg", "place_lat": "49.403582", "place_lon": "8.67548", "journeys": [18060, 17040, 17040], "duration_median": 17040, "duration_min": 17040, "duration_max": 18060}, "austria_1": {"place_id": "austria_1", "place_name": "Vienna", "place_lat": "48.207037", "place_lon": "16.341553", "journeys": [10440, 10260, 10260, 10440, 10260, 10260], "duration_median": 10260.0, "duration_min": 10260, "duration_max": 10440}, "austria_3": {"place_id": "austria_3", "place_name": "Graz", "place_lat": "47.072301", "place_lon": "15.416437", "journeys": [14700, 14700, 14700], "duration_median": 14700, "duration_min": 14700, "duration_max": 14700}, "austria_4": {"place_id": "austria_4", "place_name": "Innsbruck", "place_lat": "47.263331", "place_lon": "11.400506", "journeys": [10860, 6480, 8400], "duration_median": 8400, "duration_min": 6480, "duration_max": 10860}, "austria_5": {"place_id": "austria_5", "place_name": "Bregenz", "place_lat": "47.503001", "place_lon": "9.739623", "journeys": [15000, 16620, 21420], "duration_median": 16620, "duration_min": 15000, "duration_max": 21420}, "switzerland_6": {"place_id": "switzerland_6", "place_name": "Zurich", "place_lat": "47.378968", "place_lon": "8.540534", "journeys": [25980, 35940, 32340, 25980, 35940, 32340], "duration_median": 32340.0, "duration_min": 25980, "duration_max": 35940}, "france_19": {"place_id": "france_19", "place_name": "Paris", "place_lat": "48.861496", "place_lon": "2.333681", "journeys": [44100, 44100, 45900], "duration_median": 44100, "duration_min": 44100, "duration_max": 45900}, "france_162": {"place_id": "france_162", "place_name": "Strasbourg", "place_lat": "48.585339", "place_lon": "7.734067", "journeys": [27300], "duration_median": 27300, "duration_min": 27300, "duration_max": 27300}}, "austria_3": {"Germany_1": {"place_id": "Germany_1", "place_name": "Berlin", "place_lat": "52.524924", "place_lon": "13.369629", "journeys": [41460, 61200, 41460, 41460, 61200, 41460], "duration_median": 41460.0, "duration_min": 41460, "duration_max": 61200}, "Germany_2": {"place_id": "Germany_2", "place_name": "Dresden", "place_lat": "51.040221", "place_lon": "13.731409", "journeys": [34080, 34080, 34080], "duration_median": 34080, "duration_min": 34080, "duration_max": 34080}, "czechia_1": {"place_id": "czechia_1", "place_name": "Prague", "place_lat": "50.081926", "place_lon": "14.451481", "journeys": [24360, 24360, 24360, 24360, 24360, 24360], "duration_median": 24360.0, "duration_min": 24360, "duration_max": 24360}, "czechia_5": {"place_id": "czechia_5", "place_name": "Brno", "place_lat": "49.190537", "place_lon": "16.612776", "journeys": [15060, 15060, 15060], "duration_median": 15060, "duration_min": 15060, "duration_max": 15060}, "austria_1": {"place_id": "austria_1", "place_name": "Vienna", "place_lat": "48.207037", "place_lon": "16.341553", "journeys": [9420, 9420, 9420, 9420, 9420, 9420], "duration_median": 9420.0, "duration_min": 9420, "duration_max": 9420}, "austria_2": {"place_id": "austria_2", "place_name": "Salzburg", "place_lat": "47.813848", "place_lon": "13.045514", "journeys": [14700, 14700, 16560], "duration_median": 14700, "duration_min": 14700, "duration_max": 16560}, "austria_4": {"place_id": "austria_4", "place_name": "Innsbruck", "place_lat": "47.263331", "place_lon": "11.400506", "journeys": [21660, 21660, 21660], "duration_median": 21660, "duration_min": 21660, "duration_max": 21660}, "austria_5": {"place_id": "austria_5", "place_name": "Bregenz", "place_lat": "47.503001", "place_lon": "9.739623", "journeys": [38100, 38940, 38100], "duration_median": 38100, "duration_min": 38100, "duration_max": 38940}, "switzerland_6": {"place_id": "switzerland_6", "place_name": "Zurich", "place_lat": "47.378968", "place_lon": "8.540534", "journeys": [47280, 43680, 43680, 47280, 43680, 43680], "duration_median": 43680.0, "duration_min": 43680, "duration_max": 47280}}, "austria_4": {"Germany_3": {"place_id": "Germany_3", "place_name": "Nuremberg", "place_lat": "49.450748", "place_lon": "11.077955", "journeys": [15000, 15000, 15000, 15000, 15000, 15000], "duration_median": 15000.0, "duration_min": 15000, "duration_max": 15000}, "Germany_4": {"place_id": "Germany_4", "place_name": "Munich", "place_lat": "48.140364", "place_lon": "11.558744", "journeys": [6300, 6540, 6420], "duration_median": 6420, "duration_min": 6300, "duration_max": 6540}, "Germany_5": {"place_id": "Germany_5", "place_name": "Cologne", "place_lat": "50.941312", "place_lon": "6.967206", "journeys": [40440, 39120, 36420], "duration_median": 39120, "duration_min": 36420, "duration_max": 40440}, "Germany_7": {"place_id": "Germany_7", "place_name": "Hamburg", "place_lat": "53.55711", "place_lon": "9.997434", "journeys": [35760, 49080, 35760, 35760, 49080, 35760], "duration_median": 35760.0, "duration_min": 35760, "duration_max": 49080}, "austria_1": {"place_id": "austria_1", "place_name": "Vienna", "place_lat": "48.207037", "place_lon": "16.341553", "journeys": [19920, 15960, 15660, 19920, 19920, 22500], "duration_median": 19920.0, "duration_min": 15660, "duration_max": 22500}, "austria_2": {"place_id": "austria_2", "place_name": "Salzburg", "place_lat": "47.813848", "place_lon": "13.045514", "journeys": [11280, 10800, 6900], "duration_median": 10800, "duration_min": 6900, "duration_max": 11280}, "austria_3": {"place_id": "austria_3", "place_name": "Graz", "place_lat": "47.072301", "place_lon": "15.416437", "journeys": [21600, 21600, 21600], "duration_median": 21600, "duration_min": 21600, "duration_max": 21600}}, "austria_5": {"Germany_4": {"place_id": "Germany_4", "place_name": "Munich", "place_lat": "48.140364", "place_lon": "11.558744", "journeys": [7320, 7320, 7320], "duration_median": 7320, "duration_min": 7320, "duration_max": 7320}, "czechia_1": {"place_id": "czechia_1", "place_name": "Prague", "place_lat": "50.081926", "place_lon": "14.451481", "journeys": [36840, 36840], "duration_median": 36840.0, "duration_min": 36840, "duration_max": 36840}, "czechia_10": {"place_id": "czechia_10", "place_name": "Ceske Budejovice", "place_lat": "48.974616", "place_lon": "14.48875", "journeys": [30420], "duration_median": 30420, "duration_min": 30420, "duration_max": 30420}, "austria_1": {"place_id": "austria_1", "place_name": "Vienna", "place_lat": "48.207037", "place_lon": "16.341553", "journeys": [32280, 39300, 35880, 32280, 39300, 35880], "duration_median": 35880.0, "duration_min": 32280, "duration_max": 39300}, "austria_2": {"place_id": "austria_2", "place_name": "Salzburg", "place_lat": "47.813848", "place_lon": "13.045514", "journeys": [19260, 20340, 22860], "duration_median": 20340, "duration_min": 19260, "duration_max": 22860}, "austria_3": {"place_id": "austria_3", "place_name": "Graz", "place_lat": "47.072301", "place_lon": "15.416437", "journeys": [36420, 46440, 36420], "duration_median": 36420, "duration_min": 36420, "duration_max": 46440}, "switzerland_6": {"place_id": "switzerland_6", "place_name": "Zurich", "place_lat": "47.378968", "place_lon": "8.540534", "journeys": [10380, 7740, 5220, 10380, 7740, 5220], "duration_median": 7740.0, "duration_min": 5220, "duration_max": 10380}}, "switzerland_2": {"Germany_5": {"place_id": "Germany_5", "place_name": "Cologne", "place_lat": "50.941312", "place_lon": "6.967206", "journeys": [23880, 23880, 21660], "duration_median": 23880, "duration_min": 21660, "duration_max": 23880}, "Germany_6": {"place_id": "Germany_6", "place_name": "Freiburg", "place_lat": "47.997974", "place_lon": "7.841344", "journeys": [8280, 6600, 8940], "duration_median": 8280, "duration_min": 6600, "duration_max": 8940}, "Germany_7": {"place_id": "Germany_7", "place_name": "Hamburg", "place_lat": "53.55711", "place_lon": "9.997434", "journeys": [32400, 30840, 38400, 32400, 30840, 38400], "duration_median": 32400.0, "duration_min": 30840, "duration_max": 38400}, "switzerland_3": {"place_id": "switzerland_3", "place_name": "Geneva", "place_lat": "46.210209", "place_lon": "6.142455", "journeys": [7140, 7020, 7260], "duration_median": 7140, "duration_min": 7020, "duration_max": 7260}, "switzerland_4": {"place_id": "switzerland_4", "place_name": "Lucerne", "place_lat": "47.050179", "place_lon": "8.310186", "journeys": [4620, 5220, 4620], "duration_median": 4620, "duration_min": 4620, "duration_max": 5220}, "switzerland_6": {"place_id": "switzerland_6", "place_name": "Zurich", "place_lat": "47.378968", "place_lon": "8.540534", "journeys": [4740, 4800, 4620, 4740, 4800, 4620], "duration_median": 4740.0, "duration_min": 4620, "duration_max": 4800}}, "switzerland_3": {"switzerland_2": {"place_id": "switzerland_2", "place_name": "Bern", "place_lat": "46.948834", "place_lon": "7.439131", "journeys": [7080, 7620, 7080], "duration_median": 7080, "duration_min": 7080, "duration_max": 7620}, "switzerland_4": {"place_id": "switzerland_4", "place_name": "Lucerne", "place_lat": "47.050179", "place_lon": "8.310186", "journeys": [12480, 12480, 12480], "duration_median": 12480, "duration_min": 12480, "duration_max": 12480}, "switzerland_6": {"place_id": "switzerland_6", "place_name": "Zurich", "place_lat": "47.378968", "place_lon": "8.540534", "journeys": [11700, 9960, 11700, 11700, 9960, 11700], "duration_median": 11700.0, "duration_min": 9960, "duration_max": 11700}, "france_19": {"place_id": "france_19", "place_name": "Paris", "place_lat": "48.861496", "place_lon": "2.333681", "journeys": [11580, 11580, 11580, 11580, 11580, 11580], "duration_median": 11580.0, "duration_min": 11580, "duration_max": 11580}, "france_93": {"place_id": "france_93", "place_name": "Lyon", "place_lat": "45.702255", "place_lon": "4.863811", "journeys": [7680, 7680, 7680, 7680, 7680, 7680], "duration_median": 7680.0, "duration_min": 7680, "duration_max": 7680}}, "switzerland_4": {"switzerland_2": {"place_id": "switzerland_2", "place_name": "Bern", "place_lat": "46.948834", "place_lon": "7.439131", "journeys": [4560, 5340, 4560], "duration_median": 4560, "duration_min": 4560, "duration_max": 5340}, "switzerland_3": {"place_id": "switzerland_3", "place_name": "Geneva", "place_lat": "46.210209", "place_lon": "6.142455", "journeys": [11940, 11940, 11940], "duration_median": 11940, "duration_min": 11940, "duration_max": 11940}, "switzerland_6": {"place_id": "switzerland_6", "place_name": "Zurich", "place_lat": "47.378968", "place_lon": "8.540534", "journeys": [2460, 3000, 3360, 2460, 3000, 3360], "duration_median": 3000.0, "duration_min": 2460, "duration_max": 3360}}, "switzerland_6": {"Germany_1": {"place_id": "Germany_1", "place_name": "Berlin", "place_lat": "52.524924", "place_lon": "13.369629", "journeys": [30780, 30780, 30780, 30780, 30780, 30780, 30780, 30780, 30780, 30780, 30780, 30780], "duration_median": 30780.0, "duration_min": 30780, "duration_max": 30780}, "Germany_2": {"place_id": "Germany_2", "place_name": "Dresden", "place_lat": "51.040221", "place_lon": "13.731409", "journeys": [43560, 43560, 39960, 39960, 43560, 43560, 39960, 39960], "duration_median": 41760.0, "duration_min": 39960, "duration_max": 43560}, "Germany_4": {"place_id": "Germany_4", "place_name": "Munich", "place_lat": "48.140364", "place_lon": "11.558744", "journeys": [12660, 12660, 12660, 12660, 12660, 12660], "duration_median": 12660.0, "duration_min": 12660, "duration_max": 12660}, "Germany_5": {"place_id": "Germany_5", "place_name": "Cologne", "place_lat": "50.941312", "place_lon": "6.967206", "journeys": [22500, 36540, 36540, 22500, 22500, 36540, 36540, 22500], "duration_median": 29520.0, "duration_min": 22500, "duration_max": 36540}, "Germany_6": {"place_id": "Germany_6", "place_name": "Freiburg", "place_lat": "47.997974", "place_lon": "7.841344", "journeys": [6420, 6420, 6420, 6420, 6420, 6420], "duration_median": 6420.0, "duration_min": 6420, "duration_max": 6420}, "Germany_7": {"place_id": "Germany_7", "place_name": "Hamburg", "place_lat": "53.55711", "place_lon": "9.997434", "journeys": [36900, 36240, 42900, 42900, 36900, 36240, 42900, 42900, 36900, 36240, 42900, 42900, 36900, 36240, 42900, 42900], "duration_median": 39900.0, "duration_min": 36240, "duration_max": 42900}, "Germany_8": {"place_id": "Germany_8", "place_name": "Heidelberg", "place_lat": "49.403582", "place_lon": "8.67548", "journeys": [14700, 14700, 14700, 14700, 14700, 14700], "duration_median": 14700.0, "duration_min": 14700, "duration_max": 14700}, "czechia_1": {"place_id": "czechia_1", "place_name": "Prague", "place_lat": "50.081926", "place_lon": "14.451481", "journeys": [52740, 52740, 50820, 49140, 52740, 52740, 50820, 49140, 52740, 52740, 50820, 49140, 52740, 52740, 50820, 49140], "duration_median": 51780.0, "duration_min": 49140, "duration_max": 52740}, "czechia_10": {"place_id": "czechia_10", "place_name": "Ceske Budejovice", "place_lat": "48.974616", "place_lon": "14.48875", "journeys": [44400, 40800, 40800, 44400, 40800, 40800], "duration_median": 40800.0, "duration_min": 40800, "duration_max": 44400}, "austria_1": {"place_id": "austria_1", "place_name": "Vienna", "place_lat": "48.207037", "place_lon": "16.341553", "journeys": [46260, 42660, 42660, 46260, 42660, 42660, 46260, 42660, 42660, 46260, 42660, 42660], "duration_median": 42660.0, "duration_min": 42660, "duration_max": 46260}, "austria_2": {"place_id": "austria_2", "place_name": "Salzburg", "place_lat": "47.813848", "place_lon": "13.045514", "journeys": [33240, 29640, 29640, 33240, 29640, 29640], "duration_median": 29640.0, "duration_min": 29640, "duration_max": 33240}, "austria_3": {"place_id": "austria_3", "place_name": "Graz", "place_lat": "47.072301", "place_lon": "15.416437", "journeys": [46740, 53520, 46740, 46740, 53520, 46740], "duration_median": 46740.0, "duration_min": 46740, "duration_max": 53520}, "austria_5": {"place_id": "austria_5", "place_name": "Bregenz", "place_lat": "47.503001", "place_lon": "9.739623", "journeys": [5220, 5220, 5220, 5220, 5220, 5220], "duration_median": 5220.0, "duration_min": 5220, "duration_max": 5220}, "switzerland_2": {"place_id": "switzerland_2", "place_name": "Bern", "place_lat": "46.948834", "place_lon": "7.439131", "journeys": [4380, 4380, 4380, 4380, 4380, 4380], "duration_median": 4380.0, "duration_min": 4380, "duration_max": 4380}, "switzerland_3": {"place_id": "switzerland_3", "place_name": "Geneva", "place_lat": "46.210209", "place_lon": "6.142455", "journeys": [12540, 9900, 12420, 12540, 9900, 12420], "duration_median": 12420.0, "duration_min": 9900, "duration_max": 12540}, "switzerland_4": {"place_id": "switzerland_4", "place_name": "Lucerne", "place_lat": "47.050179", "place_lon": "8.310186", "journeys": [2460, 3000, 2460, 2460, 3000, 2460], "duration_median": 2460.0, "duration_min": 2460, "duration_max": 3000}, "france_19": {"place_id": "france_19", "place_name": "Paris", "place_lat": "48.861496", "place_lon": "2.333681", "journeys": [15360, 14640, 14880, 15360, 14640, 14880, 15360, 14640, 14880, 15360, 14640, 14880], "duration_median": 14880.0, "duration_min": 14640, "duration_max": 15360}}, "france_2": {"france_4": {"place_id": "france_4", "place_name": "Chartres", "place_lat": "48.448388", "place_lon": "1.480874", "journeys": [3720, 2760, 3720], "duration_median": 3720, "duration_min": 2760, "duration_max": 3720}, "france_19": {"place_id": "france_19", "place_name": "Paris", "place_lat": "48.861496", "place_lon": "2.333681", "journeys": [840, 1500, 1500, 840, 1500, 1500], "duration_median": 1500.0, "duration_min": 840, "duration_max": 1500}}, "france_4": {"france_2": {"place_id": "france_2", "place_name": "Versailles", "place_lat": "48.795183", "place_lon": "2.136107", "journeys": [2760, 3720, 3720], "duration_median": 3720, "duration_min": 2760, "duration_max": 3720}, "france_19": {"place_id": "france_19", "place_name": "Paris", "place_lat": "48.861496", "place_lon": "2.333681", "journeys": [3660, 4500, 4500, 3660, 4500, 4500], "duration_median": 4500.0, "duration_min": 3660, "duration_max": 4500}}, "france_6": {"france_19": {"place_id": "france_19", "place_name": "Paris", "place_lat": "48.861496", "place_lon": "2.333681", "journeys": [6060, 5400, 6060, 6060, 5400, 6060], "duration_median": 6060.0, "duration_min": 5400, "duration_max": 6060}, "france_93": {"place_id": "france_93", "place_name": "Lyon", "place_lat": "45.702255", "place_lon": "4.863811", "journeys": [12960, 13380, 13320, 12960, 13380, 13320], "duration_median": 13320.0, "duration_min": 12960, "duration_max": 13380}, "france_105": {"place_id": "france_105", "place_name": "Marseille", "place_lat": "43.303816", "place_lon": "5.38195", "journeys": [19800, 19800, 21180], "duration_median": 19800, "duration_min": 19800, "duration_max": 21180}, "france_123": {"place_id": "france_123", "place_name": "Montpellier", "place_lat": "43.599651", "place_lon": "3.899979", "journeys": [21960], "duration_median": 21960, "duration_min": 21960, "duration_max": 21960}, "france_125": {"place_id": "france_125", "place_name": "Nimes", "place_lat": "43.821397", "place_lon": "4.441912", "journeys": [19440, 19440], "duration_median": 19440.0, "duration_min": 19440, "duration_max": 19440}, "france_162": {"place_id": "france_162", "place_name": "Strasbourg", "place_lat": "48.585339", "place_lon": "7.734067", "journeys": [16800, 18060, 18060], "duration_median": 18060, "duration_min": 16800, "duration_max": 18060}}, "france_10": {"france_15": {"place_id": "france_15", "place_name": "Saintes", "place_lat": "45.748918", "place_lon": "-0.617406", "journeys": [3000, 3000, 2940], "duration_median": 3000, "duration_min": 2940, "duration_max": 3000}, "france_19": {"place_id": "france_19", "place_name": "Paris", "place_lat": "48.861496", "place_lon": "2.333681", "journeys": [10980, 10440, 10500, 10980, 10440, 10500], "duration_median": 10500.0, "duration_min": 10440, "duration_max": 10980}, "france_24": {"place_id": "france_24", "place_name": "Bordeaux", "place_lat": "44.82649", "place_lon": "-0.55592", "journeys": [9540, 9600, 8880], "duration_median": 9540, "duration_min": 8880, "duration_max": 9600}}, "france_15": {"france_10": {"place_id": "france_10", "place_name": "La Rochelle", "place_lat": "46.152426", "place_lon": "-1.145118", "journeys": [3900, 3000, 3060], "duration_median": 3060, "duration_min": 3000, "duration_max": 3900}, "france_24": {"place_id": "france_24", "place_name": "Bordeaux", "place_lat": "44.82649", "place_lon": "-0.55592", "journeys": [6360, 6420, 5820], "duration_median": 6360, "duration_min": 5820, "duration_max": 6420}}, "france_19": {"Germany_4": {"place_id": "Germany_4", "place_name": "Munich", "place_lat": "48.140364", "place_lon": "11.558744", "journeys": [20040, 20580, 40800, 20040, 20580, 40800, 21840, 22380, 42600], "duration_median": 21840, "duration_min": 20040, "duration_max": 42600}, "Germany_5": {"place_id": "Germany_5", "place_name": "Cologne", "place_lat": "50.941312", "place_lon": "6.967206", "journeys": [12600, 12420, 12180, 14400, 14220, 13980, 12600, 12420, 12180], "duration_median": 12600, "duration_min": 12180, "duration_max": 14400}, "Germany_6": {"place_id": "Germany_6", "place_name": "Freiburg", "place_lat": "47.997974", "place_lon": "7.841344", "journeys": [13440, 11280, 13500, 13440, 11280, 13500, 15240, 13080, 15300], "duration_median": 13440, "duration_min": 11280, "duration_max": 15300}, "Germany_9": {"place_id": "Germany_9", "place_name": "Aachen", "place_lat": "50.767641", "place_lon": "6.09119", "journeys": [10140, 10020, 9780, 11940, 11820, 11580, 10140, 10020, 9780], "duration_median": 10140, "duration_min": 9780, "duration_max": 11940}, "austria_1": {"place_id": "austria_1", "place_name": "Vienna", "place_lat": "48.207037", "place_lon": "16.341553", "journeys": [54900, 54900, 54900, 54900, 56700, 56700], "duration_median": 54900.0, "duration_min": 54900, "duration_max": 56700}, "austria_2": {"place_id": "austria_2", "place_name": "Salzburg", "place_lat": "47.813848", "place_lon": "13.045514", "journeys": [44880, 44880, 46680], "duration_median": 44880, "duration_min": 44880, "duration_max": 46680}, "switzerland_3": {"place_id": "switzerland_3", "place_name": "Geneva", "place_lat": "46.210209", "place_lon": "6.142455", "journeys": [11460, 11460, 11520, 11460, 11460, 11520], "duration_median": 11460.0, "duration_min": 11460, "duration_max": 11520}, "switzerland_6": {"place_id": "switzerland_6", "place_name": "Zurich", "place_lat": "47.378968", "place_lon": "8.540534", "journeys": [14640, 14640, 14640, 14640, 14640, 14640, 14640, 14640, 14640, 14640, 14640, 14640], "duration_median": 14640.0, "duration_min": 14640, "duration_max": 14640}, "france_2": {"place_id": "france_2", "place_name": "Versailles", "place_lat": "48.795183", "place_lon": "2.136107", "journeys": [1500, 1560, 1500, 1500, 1560, 1500], "duration_median": 1500.0, "duration_min": 1500, "duration_max": 1560}, "france_4": {"place_id": "france_4", "place_name": "Chartres", "place_lat": "48.448388", "place_lon": "1.480874", "journeys": [4500, 3660, 4500, 4500, 3660, 4500], "duration_median": 4500.0, "duration_min": 3660, "duration_max": 4500}, "france_6": {"place_id": "france_6", "place_name": "Rennes", "place_lat": "48.103175", "place_lon": "-1.672335", "journeys": [5640, 6960, 5520, 5640, 6960, 5520], "duration_median": 5640.0, "duration_min": 5520, "duration_max": 6960}, "france_10": {"place_id": "france_10", "place_name": "La Rochelle", "place_lat": "46.152426", "place_lon": "-1.145118", "journeys": [10680, 11220, 10920, 10680, 11220, 10920], "duration_median": 10920.0, "duration_min": 10680, "duration_max": 11220}, "france_24": {"place_id": "france_24", "place_name": "Bordeaux", "place_lat": "44.82649", "place_lon": "-0.55592", "journeys": [8220, 7860, 8640, 8220, 7860, 8640], "duration_median": 8220.0, "duration_min": 7860, "duration_max": 8640}, "france_28": {"place_id": "france_28", "place_name": "Limoges", "place_lat": "45.836419", "place_lon": "1.267245", "journeys": [12000, 12300, 11940], "duration_median": 12000, "duration_min": 11940, "duration_max": 12300}, "france_38": {"place_id": "france_38", "place_name": "Toulouse", "place_lat": "43.611409", "place_lon": "1.453942", "journeys": [15840, 16020, 15960, 15840, 16020, 15960], "duration_median": 15960.0, "duration_min": 15840, "duration_max": 16020}, "france_45": {"place_id": "france_45", "place_name": "Latour-de-Carol - Enveitg", "place_lat": "42.458732", "place_lon": "1.904778", "journeys": [43500, 39900], "duration_median": 41700.0, "duration_min": 39900, "duration_max": 43500}, "france_72": {"place_id": "france_72", "place_name": "Carcassonne", "place_lat": "43.218185", "place_lon": "2.351794", "journeys": [38460, 34860], "duration_median": 36660.0, "duration_min": 34860, "duration_max": 38460}, "france_80": {"place_id": "france_80", "place_name": "Lourdes", "place_lat": "43.100382", "place_lon": "-0.042159", "journeys": [17220, 17700, 17940, 17220, 17700, 17940], "duration_median": 17700.0, "duration_min": 17220, "duration_max": 17940}, "france_83": {"place_id": "france_83", "place_name": "Bayonne", "place_lat": "43.497084", "place_lon": "-1.470384", "journeys": [14520, 14460, 14400, 14520, 14460, 14400], "duration_median": 14460.0, "duration_min": 14400, "duration_max": 14520}, "france_85": {"place_id": "france_85", "place_name": "Hendaye", "place_lat": "43.353149", "place_lon": "-1.781959", "journeys": [17040, 16980, 16920, 17040, 16980, 16920], "duration_median": 16980.0, "duration_min": 16920, "duration_max": 17040}, "france_93": {"place_id": "france_93", "place_name": "Lyon", "place_lat": "45.702255", "place_lon": "4.863811", "journeys": [6960, 6960, 6660, 6960, 6960, 6960, 6960, 6960, 6660, 6960, 6960, 6960], "duration_median": 6960.0, "duration_min": 6660, "duration_max": 6960}, "france_97": {"place_id": "france_97", "place_name": "Vichy", "place_lat": "46.127014", "place_lon": "3.430679", "journeys": [10500, 10500, 10500], "duration_median": 10500, "duration_min": 10500, "duration_max": 10500}, "france_105": {"place_id": "france_105", "place_name": "Marseille", "place_lat": "43.303816", "place_lon": "5.38195", "journeys": [12300, 11880, 11100, 12300, 11880, 11100], "duration_median": 11880.0, "duration_min": 11100, "duration_max": 12300}, "france_106": {"place_id": "france_106", "place_name": "Arles", "place_lat": "43.685004", "place_lon": "4.632429", "journeys": [14520, 14520, 14640, 14520, 14520, 14640], "duration_median": 14520.0, "duration_min": 14520, "duration_max": 14640}, "france_123": {"place_id": "france_123", "place_name": "Montpellier", "place_lat": "43.599651", "place_lon": "3.899979", "journeys": [12540, 11520, 12600, 12540, 11520, 12600], "duration_median": 12540.0, "duration_min": 11520, "duration_max": 12600}, "france_124": {"place_id": "france_124", "place_name": "Sete", "place_lat": "43.412811", "place_lon": "3.696535", "journeys": [13740, 12660, 13800, 13740, 12660, 13800], "duration_median": 13740.0, "duration_min": 12660, "duration_max": 13800}, "france_125": {"place_id": "france_125", "place_name": "Nimes", "place_lat": "43.821397", "place_lon": "4.441912", "journeys": [10800, 10140, 10800, 10800, 10800, 10740, 10140, 10200, 10200, 10800, 10140, 10800, 10800, 10800, 10740, 10140, 10200, 10200], "duration_median": 10740.0, "duration_min": 10140, "duration_max": 10800}, "france_127": {"place_id": "france_127", "place_name": "Narbonne", "place_lat": "43.1904", "place_lon": "3.006011", "journeys": [16680, 15600, 16920, 16680, 15600, 16920], "duration_median": 16680.0, "duration_min": 15600, "duration_max": 16920}, "france_145": {"place_id": "france_145", "place_name": "Perpignan", "place_lat": "42.695939", "place_lon": "2.879398", "journeys": [18840, 17880, 18960, 18840, 17880, 18960], "duration_median": 18840.0, "duration_min": 17880, "duration_max": 18960}, "france_148": {"place_id": "france_148", "place_name": "Collioure", "place_lat": "42.526906", "place_lon": "3.078077", "journeys": [47880, 44280], "duration_median": 46080.0, "duration_min": 44280, "duration_max": 47880}, "france_151": {"place_id": "france_151", "place_name": "Cerbere", "place_lat": "42.441661", "place_lon": "3.163187", "journeys": [49200, 45600], "duration_median": 47400.0, "duration_min": 45600, "duration_max": 49200}, "france_160": {"place_id": "france_160", "place_name": "Orange", "place_lat": "44.137557", "place_lon": "4.819396", "journeys": [12240, 12240, 12240, 12240, 12240, 12240], "duration_median": 12240.0, "duration_min": 12240, "duration_max": 12240}, "france_161": {"place_id": "france_161", "place_name": "Nice", "place_lat": "43.704825", "place_lon": "7.261765", "journeys": [20520, 20160, 20880, 20520, 20160, 20880], "duration_median": 20520.0, "duration_min": 20160, "duration_max": 20880}, "france_162": {"place_id": "france_162", "place_name": "Strasbourg", "place_lat": "48.585339", "place_lon": "7.734067", "journeys": [6480, 6480, 7320, 6480, 6480, 7320, 8280, 8280, 9120], "duration_median": 7320, "duration_min": 6480, "duration_max": 9120}, "france_163": {"place_id": "france_163", "place_name": "Arras", "place_lat": "50.286889", "place_lon": "2.781829", "journeys": [2940, 2940, 2940, 4740, 4740, 4740, 2940, 2940, 2940], "duration_median": 2940, "duration_min": 2940, "duration_max": 4740}, "spain_1": {"place_id": "spain_1", "place_name": "Barcelona", "place_lat": "41.378911", "place_lon": "2.140368", "journeys": [24720, 23340, 24720, 24720, 23340, 24720], "duration_median": 24720.0, "duration_min": 23340, "duration_max": 24720}, "spain_104": {"place_id": "spain_104", "place_name": "Figueres", "place_lat": "42.26478", "place_lon": "2.943023", "journeys": [20700, 19860, 20700, 20700, 19860, 20700], "duration_median": 20700.0, "duration_min": 19860, "duration_max": 20700}, "spain_105": {"place_id": "spain_105", "place_name": "Girona", "place_lat": "41.979517", "place_lon": "2.816482", "journeys": [21840, 20880, 21840, 21840, 20880, 21840], "duration_median": 21840.0, "duration_min": 20880, "duration_max": 21840}}, "france_24": {"Germany_6": {"place_id": "Germany_6", "place_name": "Freiburg", "place_lat": "47.997974", "place_lon": "7.841344", "journeys": [26580], "duration_median": 26580, "duration_min": 26580, "duration_max": 26580}, "france_10": {"place_id": "france_10", "place_name": "La Rochelle", "place_lat": "46.152426", "place_lon": "-1.145118", "journeys": [8520, 9480, 8520], "duration_median": 8520, "duration_min": 8520, "duration_max": 9480}, "france_15": {"place_id": "france_15", "place_name": "Saintes", "place_lat": "45.748918", "place_lon": "-0.617406", "journeys": [5400, 6120, 5400], "duration_median": 5400, "duration_min": 5400, "duration_max": 6120}, "france_19": {"place_id": "france_19", "place_name": "Paris", "place_lat": "48.861496", "place_lon": "2.333681", "journeys": [12240, 7680, 10440, 12240, 7680, 10440], "duration_median": 10440.0, "duration_min": 7680, "duration_max": 12240}, "france_38": {"place_id": "france_38", "place_name": "Toulouse", "place_lat": "43.611409", "place_lon": "1.453942", "journeys": [7740, 7740, 7320], "duration_median": 7740, "duration_min": 7320, "duration_max": 7740}, "france_72": {"place_id": "france_72", "place_name": "Carcassonne", "place_lat": "43.218185", "place_lon": "2.351794", "journeys": [10740, 10740, 10800], "duration_median": 10740, "duration_min": 10740, "duration_max": 10800}, "france_80": {"place_id": "france_80", "place_name": "Lourdes", "place_lat": "43.100382", "place_lon": "-0.042159", "journeys": [8700, 9660, 10500], "duration_median": 9660, "duration_min": 8700, "duration_max": 10500}, "france_83": {"place_id": "france_83", "place_name": "Bayonne", "place_lat": "43.497084", "place_lon": "-1.470384", "journeys": [7680, 6300, 7020], "duration_median": 7020, "duration_min": 6300, "duration_max": 7680}, "france_85": {"place_id": "france_85", "place_name": "Hendaye", "place_lat": "43.353149", "place_lon": "-1.781959", "journeys": [10260, 8820, 9420, 10020, 9120, 9780], "duration_median": 9600.0, "duration_min": 8820, "duration_max": 10260}, "france_105": {"place_id": "france_105", "place_name": "Marseille", "place_lat": "43.303816", "place_lon": "5.38195", "journeys": [21900, 22140, 22200], "duration_median": 22140, "duration_min": 21900, "duration_max": 22200}, "france_106": {"place_id": "france_106", "place_name": "Arles", "place_lat": "43.685004", "place_lon": "4.632429", "journeys": [19320, 19200, 19320], "duration_median": 19320, "duration_min": 19200, "duration_max": 19320}, "france_123": {"place_id": "france_123", "place_name": "Montpellier", "place_lat": "43.599651", "place_lon": "3.899979", "journeys": [15960, 15960, 16020], "duration_median": 15960, "duration_min": 15960, "duration_max": 16020}, "france_124": {"place_id": "france_124", "place_name": "Sete", "place_lat": "43.412811", "place_lon": "3.696535", "journeys": [14760, 14760, 14760], "duration_median": 14760, "duration_min": 14760, "duration_max": 14760}, "france_125": {"place_id": "france_125", "place_name": "Nimes", "place_lat": "43.821397", "place_lon": "4.441912", "journeys": [17640, 17640, 17700, 17640, 17640, 17700], "duration_median": 17640.0, "duration_min": 17640, "duration_max": 17700}, "france_127": {"place_id": "france_127", "place_name": "Narbonne", "place_lat": "43.1904", "place_lon": "3.006011", "journeys": [12600, 12600, 12660], "duration_median": 12600, "duration_min": 12600, "duration_max": 12660}, "france_162": {"place_id": "france_162", "place_name": "Strasbourg", "place_lat": "48.585339", "place_lon": "7.734067", "journeys": [20100, 21480, 20100], "duration_median": 20100, "duration_min": 20100, "duration_max": 21480}}, "france_28": {"france_19": {"place_id": "france_19", "place_name": "Paris", "place_lat": "48.861496", "place_lon": "2.333681", "journeys": [11940, 11880, 11940], "duration_median": 11940, "duration_min": 11880, "duration_max": 11940}, "france_38": {"place_id": "france_38", "place_name": "Toulouse", "place_lat": "43.611409", "place_lon": "1.453942", "journeys": [12300, 12300, 12180], "duration_median": 12300, "duration_min": 12180, "duration_max": 12300}}, "france_38": {"france_19": {"place_id": "france_19", "place_name": "Paris", "place_lat": "48.861496", "place_lon": "2.333681", "journeys": [16020, 16200, 16860, 16020, 16200, 16860], "duration_median": 16200.0, "duration_min": 16020, "duration_max": 16860}, "france_24": {"place_id": "france_24", "place_name": "Bordeaux", "place_lat": "44.82649", "place_lon": "-0.55592", "journeys": [7920, 7920, 7680], "duration_median": 7920, "duration_min": 7680, "duration_max": 7920}, "france_28": {"place_id": "france_28", "place_name": "Limoges", "place_lat": "45.836419", "place_lon": "1.267245", "journeys": [12900, 12060, 12360], "duration_median": 12360, "duration_min": 12060, "duration_max": 12900}, "france_45": {"place_id": "france_45", "place_name": "Latour-de-Carol - Enveitg", "place_lat": "42.458732", "place_lon": "1.904778", "journeys": [9660, 9720, 10080], "duration_median": 9720, "duration_min": 9660, "duration_max": 10080}, "france_72": {"place_id": "france_72", "place_name": "Carcassonne", "place_lat": "43.218185", "place_lon": "2.351794", "journeys": [3780, 2460, 2520], "duration_median": 2520, "duration_min": 2460, "duration_max": 3780}, "france_80": {"place_id": "france_80", "place_name": "Lourdes", "place_lat": "43.100382", "place_lon": "-0.042159", "journeys": [7740, 6660, 6540], "duration_median": 6660, "duration_min": 6540, "duration_max": 7740}, "france_83": {"place_id": "france_83", "place_name": "Bayonne", "place_lat": "43.497084", "place_lon": "-1.470384", "journeys": [12480, 12420, 14160], "duration_median": 12480, "duration_min": 12420, "duration_max": 14160}, "france_85": {"place_id": "france_85", "place_name": "Hendaye", "place_lat": "43.353149", "place_lon": "-1.781959", "journeys": [15420, 15900, 15660], "duration_median": 15660, "duration_min": 15420, "duration_max": 15900}, "france_93": {"place_id": "france_93", "place_name": "Lyon", "place_lat": "45.702255", "place_lon": "4.863811", "journeys": [14820, 14700, 14820, 14820, 14700, 14820], "duration_median": 14820.0, "duration_min": 14700, "duration_max": 14820}, "france_105": {"place_id": "france_105", "place_name": "Marseille", "place_lat": "43.303816", "place_lon": "5.38195", "journeys": [13680, 13920, 13920], "duration_median": 13920, "duration_min": 13680, "duration_max": 13920}, "france_106": {"place_id": "france_106", "place_name": "Arles", "place_lat": "43.685004", "place_lon": "4.632429", "journeys": [11100, 10980, 11100], "duration_median": 11100, "duration_min": 10980, "duration_max": 11100}, "france_123": {"place_id": "france_123", "place_name": "Montpellier", "place_lat": "43.599651", "place_lon": "3.899979", "journeys": [7920, 7740, 7740], "duration_median": 7740, "duration_min": 7740, "duration_max": 7920}, "france_124": {"place_id": "france_124", "place_name": "Sete", "place_lat": "43.412811", "place_lon": "3.696535", "journeys": [6780, 6540, 6780], "duration_median": 6780, "duration_min": 6540, "duration_max": 6780}, "france_125": {"place_id": "france_125", "place_name": "Nimes", "place_lat": "43.821397", "place_lon": "4.441912", "journeys": [9780, 9420, 9420, 9420, 9420, 9420, 9780, 10020, 9780], "duration_median": 9420, "duration_min": 9420, "duration_max": 10020}, "france_127": {"place_id": "france_127", "place_name": "Narbonne", "place_lat": "43.1904", "place_lon": "3.006011", "journeys": [5820, 4380, 4380], "duration_median": 4380, "duration_min": 4380, "duration_max": 5820}, "france_145": {"place_id": "france_145", "place_name": "Perpignan", "place_lat": "42.695939", "place_lon": "2.879398", "journeys": [8940, 9060, 9300], "duration_median": 9060, "duration_min": 8940, "duration_max": 9300}, "france_148": {"place_id": "france_148", "place_name": "Collioure", "place_lat": "42.526906", "place_lon": "3.078077", "journeys": [10560, 10560, 10860], "duration_median": 10560, "duration_min": 10560, "duration_max": 10860}, "france_151": {"place_id": "france_151", "place_name": "Cerbere", "place_lat": "42.441661", "place_lon": "3.163187", "journeys": [11700, 11640, 11940], "duration_median": 11700, "duration_min": 11640, "duration_max": 11940}, "spain_806": {"place_id": "spain_806", "place_name": "Portbou", "place_lat": "42.424725", "place_lon": "3.157848", "journeys": [12420, 12240, 12720], "duration_median": 12420, "duration_min": 12240, "duration_max": 12720}}, "france_45": {"france_19": {"place_id": "france_19", "place_name": "Paris", "place_lat": "48.861496", "place_lon": "2.333681", "journeys": [48960, 43680], "duration_median": 46320.0, "duration_min": 43680, "duration_max": 48960}, "france_38": {"place_id": "france_38", "place_name": "Toulouse", "place_lat": "43.611409", "place_lon": "1.453942", "journeys": [10140, 9660, 9600], "duration_median": 9660, "duration_min": 9600, "duration_max": 10140}}, "france_72": {"france_19": {"place_id": "france_19", "place_name": "Paris", "place_lat": "48.861496", "place_lon": "2.333681", "journeys": [39600, 34320], "duration_median": 36960.0, "duration_min": 34320, "duration_max": 39600}, "france_24": {"place_id": "france_24", "place_name": "Bordeaux", "place_lat": "44.82649", "place_lon": "-0.55592", "journeys": [10620, 10620, 10620], "duration_median": 10620, "duration_min": 10620, "duration_max": 10620}, "france_38": {"place_id": "france_38", "place_name": "Toulouse", "place_lat": "43.611409", "place_lon": "1.453942", "journeys": [3660, 4260, 2580], "duration_median": 3660, "duration_min": 2580, "duration_max": 4260}, "france_93": {"place_id": "france_93", "place_name": "Lyon", "place_lat": "45.702255", "place_lon": "4.863811", "journeys": [12180, 12060, 12180, 12180, 12060, 12180], "duration_median": 12180.0, "duration_min": 12060, "duration_max": 12180}, "france_105": {"place_id": "france_105", "place_name": "Marseille", "place_lat": "43.303816", "place_lon": "5.38195", "journeys": [11040, 11280, 11280], "duration_median": 11280, "duration_min": 11040, "duration_max": 11280}, "france_106": {"place_id": "france_106", "place_name": "Arles", "place_lat": "43.685004", "place_lon": "4.632429", "journeys": [8460, 8280, 8460], "duration_median": 8460, "duration_min": 8280, "duration_max": 8460}, "france_123": {"place_id": "france_123", "place_name": "Montpellier", "place_lat": "43.599651", "place_lon": "3.899979", "journeys": [5280, 5100, 5100], "duration_median": 5100, "duration_min": 5100, "duration_max": 5280}, "france_124": {"place_id": "france_124", "place_name": "Sete", "place_lat": "43.412811", "place_lon": "3.696535", "journeys": [4140, 3900, 4140], "duration_median": 4140, "duration_min": 3900, "duration_max": 4140}, "france_125": {"place_id": "france_125", "place_name": "Nimes", "place_lat": "43.821397", "place_lon": "4.441912", "journeys": [7140, 6780, 6780, 6780, 6780, 6780, 7140, 7380, 7140], "duration_median": 6780, "duration_min": 6780, "duration_max": 7380}, "france_127": {"place_id": "france_127", "place_name": "Narbonne", "place_lat": "43.1904", "place_lon": "3.006011", "journeys": [1920, 1740, 1740], "duration_median": 1740, "duration_min": 1740, "duration_max": 1920}, "france_145": {"place_id": "france_145", "place_name": "Perpignan", "place_lat": "42.695939", "place_lon": "2.879398", "journeys": [5040, 5340, 5280], "duration_median": 5280, "duration_min": 5040, "duration_max": 5340}, "france_148": {"place_id": "france_148", "place_name": "Collioure", "place_lat": "42.526906", "place_lon": "3.078077", "journeys": [6660, 6840, 6840], "duration_median": 6840, "duration_min": 6660, "duration_max": 6840}, "france_151": {"place_id": "france_151", "place_name": "Cerbere", "place_lat": "42.441661", "place_lon": "3.163187", "journeys": [7800, 7920, 7920], "duration_median": 7920, "duration_min": 7800, "duration_max": 7920}, "spain_806": {"place_id": "spain_806", "place_name": "Portbou", "place_lat": "42.424725", "place_lon": "3.157848", "journeys": [8520, 8520, 8700], "duration_median": 8520, "duration_min": 8520, "duration_max": 8700}}, "france_80": {"france_19": {"place_id": "france_19", "place_name": "Paris", "place_lat": "48.861496", "place_lon": "2.333681", "journeys": [18420, 17940, 18420, 18420, 17940, 18420], "duration_median": 18420.0, "duration_min": 17940, "duration_max": 18420}, "france_24": {"place_id": "france_24", "place_name": "Bordeaux", "place_lat": "44.82649", "place_lon": "-0.55592", "journeys": [9840, 10080, 9780], "duration_median": 9840, "duration_min": 9780, "duration_max": 10080}, "france_38": {"place_id": "france_38", "place_name": "Toulouse", "place_lat": "43.611409", "place_lon": "1.453942", "journeys": [7320, 6660, 7260], "duration_median": 7260, "duration_min": 6660, "duration_max": 7320}, "france_83": {"place_id": "france_83", "place_name": "Bayonne", "place_lat": "43.497084", "place_lon": "-1.470384", "journeys": [6900, 5640, 5700], "duration_median": 5700, "duration_min": 5640, "duration_max": 6900}, "france_85": {"place_id": "france_85", "place_name": "Hendaye", "place_lat": "43.353149", "place_lon": "-1.781959", "journeys": [8700, 9180, 9000], "duration_median": 9000, "duration_min": 8700, "duration_max": 9180}}, "france_83": {"france_19": {"place_id": "france_19", "place_name": "Paris", "place_lat": "48.861496", "place_lon": "2.333681", "journeys": [15300, 14700, 15060, 15300, 14700, 15060], "duration_median": 15060.0, "duration_min": 14700, "duration_max": 15300}, "france_24": {"place_id": "france_24", "place_name": "Bordeaux", "place_lat": "44.82649", "place_lon": "-0.55592", "journeys": [7980, 6720, 6540], "duration_median": 6720, "duration_min": 6540, "duration_max": 7980}, "france_38": {"place_id": "france_38", "place_name": "Toulouse", "place_lat": "43.611409", "place_lon": "1.453942", "journeys": [12600, 12300, 12240], "duration_median": 12300, "duration_min": 12240, "duration_max": 12600}, "france_80": {"place_id": "france_80", "place_name": "Lourdes", "place_lat": "43.100382", "place_lon": "-0.042159", "journeys": [5760, 5700, 5580], "duration_median": 5700, "duration_min": 5580, "duration_max": 5760}, "france_85": {"place_id": "france_85", "place_name": "Hendaye", "place_lat": "43.353149", "place_lon": "-1.781959", "journeys": [2280, 2460, 2340, 2040, 2220, 2040], "duration_median": 2250.0, "duration_min": 2040, "duration_max": 2460}}, "france_85": {"france_19": {"place_id": "france_19", "place_name": "Paris", "place_lat": "48.861496", "place_lon": "2.333681", "journeys": [17700, 17160, 17460, 17700, 17160, 17460], "duration_median": 17460.0, "duration_min": 17160, "duration_max": 17700}, "france_24": {"place_id": "france_24", "place_name": "Bordeaux", "place_lat": "44.82649", "place_lon": "-0.55592", "journeys": [10200, 9120, 9000, 9960, 9000, 9660], "duration_median": 9390.0, "duration_min": 9000, "duration_max": 10200}, "france_38": {"place_id": "france_38", "place_name": "Toulouse", "place_lat": "43.611409", "place_lon": "1.453942", "journeys": [14880, 14880, 14880], "duration_median": 14880, "duration_min": 14880, "duration_max": 14880}, "france_80": {"place_id": "france_80", "place_name": "Lourdes", "place_lat": "43.100382", "place_lon": "-0.042159", "journeys": [8280, 8280, 9420, 9180], "duration_median": 8730.0, "duration_min": 8280, "duration_max": 9420}, "france_83": {"place_id": "france_83", "place_name": "Bayonne", "place_lat": "43.497084", "place_lon": "-1.470384", "journeys": [2100, 2220, 2160, 1860, 1920, 1920], "duration_median": 2010.0, "duration_min": 1860, "duration_max": 2220}}, "france_93": {"switzerland_3": {"place_id": "switzerland_3", "place_name": "Geneva", "place_lat": "46.210209", "place_lon": "6.142455", "journeys": [7020, 7020, 7020, 7020, 7020, 7020], "duration_median": 7020.0, "duration_min": 7020, "duration_max": 7020}, "france_6": {"place_id": "france_6", "place_name": "Rennes", "place_lat": "48.103175", "place_lon": "-1.672335", "journeys": [13440, 13140, 13440, 13440, 13140, 13440], "duration_median": 13440.0, "duration_min": 13140, "duration_max": 13440}, "france_19": {"place_id": "france_19", "place_name": "Paris", "place_lat": "48.861496", "place_lon": "2.333681", "journeys": [6900, 7320, 6960, 6900, 7320, 6960, 6900, 7320, 6960, 6900, 7320, 6960], "duration_median": 6960.0, "duration_min": 6900, "duration_max": 7320}, "france_38": {"place_id": "france_38", "place_name": "Toulouse", "place_lat": "43.611409", "place_lon": "1.453942", "journeys": [15720, 14700, 14940, 15720, 14700, 14940], "duration_median": 14940.0, "duration_min": 14700, "duration_max": 15720}, "france_72": {"place_id": "france_72", "place_name": "Carcassonne", "place_lat": "43.218185", "place_lon": "2.351794", "journeys": [13020, 12000, 12180, 13020, 12000, 12180], "duration_median": 12180.0, "duration_min": 12000, "duration_max": 13020}, "france_97": {"place_id": "france_97", "place_name": "Vichy", "place_lat": "46.127014", "place_lon": "3.430679", "journeys": [6600, 6660, 6600, 6600, 6660, 6600], "duration_median": 6600.0, "duration_min": 6600, "duration_max": 6660}, "france_105": {"place_id": "france_105", "place_name": "Marseille", "place_lat": "43.303816", "place_lon": "5.38195", "journeys": [6300, 6960, 6000, 6300, 6960, 6000], "duration_median": 6300.0, "duration_min": 6000, "duration_max": 6960}, "france_106": {"place_id": "france_106", "place_name": "Arles", "place_lat": "43.685004", "place_lon": "4.632429", "journeys": [10200, 10140, 7320, 10200, 10140, 10140], "duration_median": 10140.0, "duration_min": 7320, "duration_max": 10200}, "france_123": {"place_id": "france_123", "place_name": "Montpellier", "place_lat": "43.599651", "place_lon": "3.899979", "journeys": [7020, 6900, 6000, 7020, 6000, 6720], "duration_median": 6810.0, "duration_min": 6000, "duration_max": 7020}, "france_124": {"place_id": "france_124", "place_name": "Sete", "place_lat": "43.412811", "place_lon": "3.696535", "journeys": [8400, 7860, 7860, 8400, 7860, 7860], "duration_median": 7860.0, "duration_min": 7860, "duration_max": 8400}, "france_125": {"place_id": "france_125", "place_name": "Nimes", "place_lat": "43.821397", "place_lon": "4.441912", "journeys": [5040, 5100, 4560, 5040, 5100, 4980, 4560, 4740, 4620, 5040, 4560, 4980, 5040, 4980, 4680, 4560, 4740, 4620], "duration_median": 4860.0, "duration_min": 4560, "duration_max": 5100}, "france_127": {"place_id": "france_127", "place_name": "Narbonne", "place_lat": "43.1904", "place_lon": "3.006011", "journeys": [11040, 10140, 10560, 11040, 10140, 10560], "duration_median": 10560.0, "duration_min": 10140, "duration_max": 11040}, "france_145": {"place_id": "france_145", "place_name": "Perpignan", "place_lat": "42.695939", "place_lon": "2.879398", "journeys": [12660, 12900, 12660, 12660, 12900, 12660], "duration_median": 12660.0, "duration_min": 12660, "duration_max": 12900}, "france_160": {"place_id": "france_160", "place_name": "Orange", "place_lat": "44.137557", "place_lon": "4.819396", "journeys": [7920, 5040, 7800, 7920, 7800, 7800], "duration_median": 7800.0, "duration_min": 5040, "duration_max": 7920}, "france_161": {"place_id": "france_161", "place_name": "Nice", "place_lat": "43.704825", "place_lon": "7.261765", "journeys": [16680, 17520, 15840, 16680, 17520, 15840], "duration_median": 16680.0, "duration_min": 15840, "duration_max": 17520}, "france_162": {"place_id": "france_162", "place_name": "Strasbourg", "place_lat": "48.585339", "place_lon": "7.734067", "journeys": [14040, 13020, 15720, 14040, 13020, 15720], "duration_median": 14040.0, "duration_min": 13020, "duration_max": 15720}, "france_163": {"place_id": "france_163", "place_name": "Arras", "place_lat": "50.286889", "place_lon": "2.781829", "journeys": [10500, 10800, 10500, 10500, 10800, 10500], "duration_median": 10500.0, "duration_min": 10500, "duration_max": 10800}, "spain_1": {"place_id": "spain_1", "place_name": "Barcelona", "place_lat": "41.378911", "place_lon": "2.140368", "journeys": [17940, 17940, 17940, 17940, 17940, 17940], "duration_median": 17940.0, "duration_min": 17940, "duration_max": 17940}, "spain_104": {"place_id": "spain_104", "place_name": "Figueres", "place_lat": "42.26478", "place_lon": "2.943023", "journeys": [14460, 14460, 14460, 14460, 14460, 14460], "duration_median": 14460.0, "duration_min": 14460, "duration_max": 14460}, "spain_105": {"place_id": "spain_105", "place_name": "Girona", "place_lat": "41.979517", "place_lon": "2.816482", "journeys": [15480, 15480, 15480, 15480, 15480, 15480], "duration_median": 15480.0, "duration_min": 15480, "duration_max": 15480}}, "france_97": {"france_19": {"place_id": "france_19", "place_name": "Paris", "place_lat": "48.861496", "place_lon": "2.333681", "journeys": [10320, 10260, 10260], "duration_median": 10260, "duration_min": 10260, "duration_max": 10320}, "france_93": {"place_id": "france_93", "place_name": "Lyon", "place_lat": "45.702255", "place_lon": "4.863811", "journeys": [7020, 6660, 6660, 7020, 6660, 6660], "duration_median": 6660.0, "duration_min": 6660, "duration_max": 7020}}, "france_105": {"france_6": {"place_id": "france_6", "place_name": "Rennes", "place_lat": "48.103175", "place_lon": "-1.672335", "journeys": [19740, 20280, 21360], "duration_median": 20280, "duration_min": 19740, "duration_max": 21360}, "france_19": {"place_id": "france_19", "place_name": "Paris", "place_lat": "48.861496", "place_lon": "2.333681", "journeys": [11880, 11880, 11700, 11880, 11880, 11700], "duration_median": 11880.0, "duration_min": 11700, "duration_max": 11880}, "france_24": {"place_id": "france_24", "place_name": "Bordeaux", "place_lat": "44.82649", "place_lon": "-0.55592", "journeys": [22200, 21960, 22140], "duration_median": 22140, "duration_min": 21960, "duration_max": 22200}, "france_38": {"place_id": "france_38", "place_name": "Toulouse", "place_lat": "43.611409", "place_lon": "1.453942", "journeys": [14160, 13920, 14040], "duration_median": 14040, "duration_min": 13920, "duration_max": 14160}, "france_72": {"place_id": "france_72", "place_name": "Carcassonne", "place_lat": "43.218185", "place_lon": "2.351794", "journeys": [11460, 11220, 11400], "duration_median": 11400, "duration_min": 11220, "duration_max": 11460}, "france_93": {"place_id": "france_93", "place_name": "Lyon", "place_lat": "45.702255", "place_lon": "4.863811", "journeys": [5520, 6240, 6180, 6240, 6180, 6420], "duration_median": 6210.0, "duration_min": 5520, "duration_max": 6420}, "france_106": {"place_id": "france_106", "place_name": "Arles", "place_lat": "43.685004", "place_lon": "4.632429", "journeys": [3240, 2820, 3120], "duration_median": 3120, "duration_min": 2820, "duration_max": 3240}, "france_123": {"place_id": "france_123", "place_name": "Montpellier", "place_lat": "43.599651", "place_lon": "3.899979", "journeys": [6060, 4980, 7320], "duration_median": 6060, "duration_min": 4980, "duration_max": 7320}, "france_124": {"place_id": "france_124", "place_name": "Sete", "place_lat": "43.412811", "place_lon": "3.696535", "journeys": [7140, 6960, 8940], "duration_median": 7140, "duration_min": 6960, "duration_max": 8940}, "france_125": {"place_id": "france_125", "place_name": "Nimes", "place_lat": "43.821397", "place_lon": "4.441912", "journeys": [4380, 3240, 4440, 4380, 3240, 5040, 4440, 4500, 4560], "duration_median": 4440, "duration_min": 3240, "duration_max": 5040}, "france_127": {"place_id": "france_127", "place_name": "Narbonne", "place_lat": "43.1904", "place_lon": "3.006011", "journeys": [9540, 9300, 9240], "duration_median": 9300, "duration_min": 9240, "duration_max": 9540}, "france_145": {"place_id": "france_145", "place_name": "Perpignan", "place_lat": "42.695939", "place_lon": "2.879398", "journeys": [11520, 11520, 11520], "duration_median": 11520, "duration_min": 11520, "duration_max": 11520}, "france_160": {"place_id": "france_160", "place_name": "Orange", "place_lat": "44.137557", "place_lon": "4.819396", "journeys": [5460, 7080, 7680], "duration_median": 7080, "duration_min": 5460, "duration_max": 7680}, "france_161": {"place_id": "france_161", "place_name": "Nice", "place_lat": "43.704825", "place_lon": "7.261765", "journeys": [9600, 9600, 9540], "duration_median": 9600, "duration_min": 9540, "duration_max": 9600}, "france_162": {"place_id": "france_162", "place_name": "Strasbourg", "place_lat": "48.585339", "place_lon": "7.734067", "journeys": [19800, 22080, 22260], "duration_median": 22080, "duration_min": 19800, "duration_max": 22260}, "france_163": {"place_id": "france_163", "place_name": "Arras", "place_lat": "50.286889", "place_lon": "2.781829", "journeys": [17220], "duration_median": 17220, "duration_min": 17220, "duration_max": 17220}, "spain_1": {"place_id": "spain_1", "place_name": "Barcelona", "place_lat": "41.378911", "place_lon": "2.140368", "journeys": [16500, 16500, 16500], "duration_median": 16500, "duration_min": 16500, "duration_max": 16500}, "spain_19": {"place_id": "spain_19", "place_name": "Tarragona", "place_lat": "41.192026", "place_lon": "1.271587", "journeys": [19020, 19020, 19020], "duration_median": 19020, "duration_min": 19020, "duration_max": 19020}, "spain_20": {"place_id": "spain_20", "place_name": "Madrid", "place_lat": "40.472151", "place_lon": "-3.68235", "journeys": [28320, 28320, 28320, 27720, 27720, 27720], "duration_median": 28020.0, "duration_min": 27720, "duration_max": 28320}, "spain_55": {"place_id": "spain_55", "place_name": "Zaragoza", "place_lat": "41.65844", "place_lon": "-0.909906", "journeys": [22740, 22740, 22740], "duration_median": 22740, "duration_min": 22740, "duration_max": 22740}, "spain_104": {"place_id": "spain_104", "place_name": "Figueres", "place_lat": "42.26478", "place_lon": "2.943023", "journeys": [13020, 13020, 13020], "duration_median": 13020, "duration_min": 13020, "duration_max": 13020}, "spain_105": {"place_id": "spain_105", "place_name": "Girona", "place_lat": "41.979517", "place_lon": "2.816482", "journeys": [14040, 14040, 14040], "duration_median": 14040, "duration_min": 14040, "duration_max": 14040}}, "france_106": {"france_19": {"place_id": "france_19", "place_name": "Paris", "place_lat": "48.861496", "place_lon": "2.333681", "journeys": [14580, 15000, 15000, 14580, 15000, 15000], "duration_median": 15000.0, "duration_min": 14580, "duration_max": 15000}, "france_24": {"place_id": "france_24", "place_name": "Bordeaux", "place_lat": "44.82649", "place_lon": "-0.55592", "journeys": [19260, 19440, 19260], "duration_median": 19260, "duration_min": 19260, "duration_max": 19440}, "france_38": {"place_id": "france_38", "place_name": "Toulouse", "place_lat": "43.611409", "place_lon": "1.453942", "journeys": [11220, 11340, 11220], "duration_median": 11220, "duration_min": 11220, "duration_max": 11340}, "france_72": {"place_id": "france_72", "place_name": "Carcassonne", "place_lat": "43.218185", "place_lon": "2.351794", "journeys": [8520, 8700, 8520], "duration_median": 8520, "duration_min": 8520, "duration_max": 8700}, "france_93": {"place_id": "france_93", "place_name": "Lyon", "place_lat": "45.702255", "place_lon": "4.863811", "journeys": [7080, 10140, 10080, 10140, 10080, 10140], "duration_median": 10110.0, "duration_min": 7080, "duration_max": 10140}, "france_105": {"place_id": "france_105", "place_name": "Marseille", "place_lat": "43.303816", "place_lon": "5.38195", "journeys": [4080, 3180, 4080], "duration_median": 4080, "duration_min": 3180, "duration_max": 4080}, "france_123": {"place_id": "france_123", "place_name": "Montpellier", "place_lat": "43.599651", "place_lon": "3.899979", "journeys": [3120, 4140, 3180], "duration_median": 3180, "duration_min": 3120, "duration_max": 4140}, "france_124": {"place_id": "france_124", "place_name": "Sete", "place_lat": "43.412811", "place_lon": "3.696535", "journeys": [4200, 4260, 5700], "duration_median": 4260, "duration_min": 4200, "duration_max": 5700}, "france_125": {"place_id": "france_125", "place_name": "Nimes", "place_lat": "43.821397", "place_lon": "4.441912", "journeys": [1440, 1260, 1560, 1440, 1860, 1560, 1260, 1260, 1320], "duration_median": 1440, "duration_min": 1260, "duration_max": 1860}, "france_127": {"place_id": "france_127", "place_name": "Narbonne", "place_lat": "43.1904", "place_lon": "3.006011", "journeys": [6600, 6720, 8760], "duration_median": 6720, "duration_min": 6600, "duration_max": 8760}, "france_160": {"place_id": "france_160", "place_name": "Orange", "place_lat": "44.137557", "place_lon": "4.819396", "journeys": [2100, 2100, 2700], "duration_median": 2100, "duration_min": 2100, "duration_max": 2700}}, "france_123": {"france_19": {"place_id": "france_19", "place_name": "Paris", "place_lat": "48.861496", "place_lon": "2.333681", "journeys": [11520, 12480, 12600, 11520, 12480, 12600], "duration_median": 12480.0, "duration_min": 11520, "duration_max": 12600}, "france_24": {"place_id": "france_24", "place_name": "Bordeaux", "place_lat": "44.82649", "place_lon": "-0.55592", "journeys": [15960, 15900, 15960], "duration_median": 15960, "duration_min": 15900, "duration_max": 15960}, "france_38": {"place_id": "france_38", "place_name": "Toulouse", "place_lat": "43.611409", "place_lon": "1.453942", "journeys": [10740, 7920, 8280], "duration_median": 8280, "duration_min": 7920, "duration_max": 10740}, "france_72": {"place_id": "france_72", "place_name": "Carcassonne", "place_lat": "43.218185", "place_lon": "2.351794", "journeys": [6360, 5220, 5580], "duration_median": 5580, "duration_min": 5220, "duration_max": 6360}, "france_93": {"place_id": "france_93", "place_name": "Lyon", "place_lat": "45.702255", "place_lon": "4.863811", "journeys": [6900, 6660, 6300, 6900, 6660, 6300], "duration_median": 6660.0, "duration_min": 6300, "duration_max": 6900}, "france_105": {"place_id": "france_105", "place_name": "Marseille", "place_lat": "43.303816", "place_lon": "5.38195", "journeys": [7320, 7620, 5700], "duration_median": 7320, "duration_min": 5700, "duration_max": 7620}, "france_106": {"place_id": "france_106", "place_name": "Arles", "place_lat": "43.685004", "place_lon": "4.632429", "journeys": [4080, 4320, 3120], "duration_median": 4080, "duration_min": 3120, "duration_max": 4320}, "france_124": {"place_id": "france_124", "place_name": "Sete", "place_lat": "43.412811", "place_lon": "3.696535", "journeys": [1320, 960, 960], "duration_median": 960, "duration_min": 960, "duration_max": 1320}, "france_125": {"place_id": "france_125", "place_name": "Nimes", "place_lat": "43.821397", "place_lon": "4.441912", "journeys": [1680, 2100, 1080, 1680, 2100, 2760, 2700, 1080, 2640], "duration_median": 2100, "duration_min": 1080, "duration_max": 2760}, "france_127": {"place_id": "france_127", "place_name": "Narbonne", "place_lat": "43.1904", "place_lon": "3.006011", "journeys": [4260, 3180, 3540], "duration_median": 3540, "duration_min": 3180, "duration_max": 4260}, "france_145": {"place_id": "france_145", "place_name": "Perpignan", "place_lat": "42.695939", "place_lon": "2.879398", "journeys": [6960, 6240, 5940], "duration_median": 6240, "duration_min": 5940, "duration_max": 6960}, "france_148": {"place_id": "france_148", "place_name": "Collioure", "place_lat": "42.526906", "place_lon": "3.078077", "journeys": [8520, 8520, 8580], "duration_median": 8520, "duration_min": 8520, "duration_max": 8580}, "france_151": {"place_id": "france_151", "place_name": "Cerbere", "place_lat": "42.441661", "place_lon": "3.163187", "journeys": [9660, 9660, 9720], "duration_median": 9660, "duration_min": 9660, "duration_max": 9720}, "france_162": {"place_id": "france_162", "place_name": "Strasbourg", "place_lat": "48.585339", "place_lon": "7.734067", "journeys": [21300, 22500, 21300], "duration_median": 21300, "duration_min": 21300, "duration_max": 22500}, "france_163": {"place_id": "france_163", "place_name": "Arras", "place_lat": "50.286889", "place_lon": "2.781829", "journeys": [17760, 17760, 16980], "duration_median": 17760, "duration_min": 16980, "duration_max": 17760}, "spain_1": {"place_id": "spain_1", "place_name": "Barcelona", "place_lat": "41.378911", "place_lon": "2.140368", "journeys": [11220, 11760, 10980], "duration_median": 11220, "duration_min": 10980, "duration_max": 11760}, "spain_19": {"place_id": "spain_19", "place_name": "Tarragona", "place_lat": "41.192026", "place_lon": "1.271587", "journeys": [13740, 13740, 13740], "duration_median": 13740, "duration_min": 13740, "duration_max": 13740}, "spain_20": {"place_id": "spain_20", "place_name": "Madrid", "place_lat": "40.472151", "place_lon": "-3.68235", "journeys": [23040, 23040, 23040, 22440, 22440, 22440], "duration_median": 22740.0, "duration_min": 22440, "duration_max": 23040}, "spain_55": {"place_id": "spain_55", "place_name": "Zaragoza", "place_lat": "41.65844", "place_lon": "-0.909906", "journeys": [17460, 17460, 17460], "duration_median": 17460, "duration_min": 17460, "duration_max": 17460}, "spain_104": {"place_id": "spain_104", "place_name": "Figueres", "place_lat": "42.26478", "place_lon": "2.943023", "journeys": [7740, 7740, 7500], "duration_median": 7740, "duration_min": 7500, "duration_max": 7740}, "spain_105": {"place_id": "spain_105", "place_name": "Girona", "place_lat": "41.979517", "place_lon": "2.816482", "journeys": [8760, 8880, 8520], "duration_median": 8760, "duration_min": 8520, "duration_max": 8880}, "spain_806": {"place_id": "spain_806", "place_name": "Portbou", "place_lat": "42.424725", "place_lon": "3.157848", "journeys": [10500, 10500, 10560], "duration_median": 10500, "duration_min": 10500, "duration_max": 10560}}, "france_124": {"france_19": {"place_id": "france_19", "place_name": "Paris", "place_lat": "48.861496", "place_lon": "2.333681", "journeys": [13860, 13740, 13680, 13860, 13740, 13680], "duration_median": 13740.0, "duration_min": 13680, "duration_max": 13860}, "france_24": {"place_id": "france_24", "place_name": "Bordeaux", "place_lat": "44.82649", "place_lon": "-0.55592", "journeys": [14940, 15060, 14940], "duration_median": 14940, "duration_min": 14940, "duration_max": 15060}, "france_38": {"place_id": "france_38", "place_name": "Toulouse", "place_lat": "43.611409", "place_lon": "1.453942", "journeys": [9300, 7140, 6900], "duration_median": 7140, "duration_min": 6900, "duration_max": 9300}, "france_72": {"place_id": "france_72", "place_name": "Carcassonne", "place_lat": "43.218185", "place_lon": "2.351794", "journeys": [4920, 4440, 4200], "duration_median": 4440, "duration_min": 4200, "duration_max": 4920}, "france_93": {"place_id": "france_93", "place_name": "Lyon", "place_lat": "45.702255", "place_lon": "4.863811", "journeys": [8040, 7860, 7740, 8040, 7860, 7740], "duration_median": 7860.0, "duration_min": 7740, "duration_max": 8040}, "france_105": {"place_id": "france_105", "place_name": "Marseille", "place_lat": "43.303816", "place_lon": "5.38195", "journeys": [8580, 8940, 7260], "duration_median": 8580, "duration_min": 7260, "duration_max": 8940}, "france_106": {"place_id": "france_106", "place_name": "Arles", "place_lat": "43.685004", "place_lon": "4.632429", "journeys": [5340, 5640, 4440], "duration_median": 5340, "duration_min": 4440, "duration_max": 5640}, "france_123": {"place_id": "france_123", "place_name": "Montpellier", "place_lat": "43.599651", "place_lon": "3.899979", "journeys": [1020, 960, 1320], "duration_median": 1020, "duration_min": 960, "duration_max": 1320}, "france_125": {"place_id": "france_125", "place_name": "Nimes", "place_lat": "43.821397", "place_lon": "4.441912", "journeys": [3360, 4020, 3480, 3360, 4020, 3480, 3960, 4620, 4140], "duration_median": 3960, "duration_min": 3360, "duration_max": 4620}, "france_127": {"place_id": "france_127", "place_name": "Narbonne", "place_lat": "43.1904", "place_lon": "3.006011", "journeys": [2820, 2460, 2460], "duration_median": 2460, "duration_min": 2460, "duration_max": 2820}, "france_145": {"place_id": "france_145", "place_name": "Perpignan", "place_lat": "42.695939", "place_lon": "2.879398", "journeys": [5820, 4920, 5820], "duration_median": 5820, "duration_min": 4920, "duration_max": 5820}, "france_148": {"place_id": "france_148", "place_name": "Collioure", "place_lat": "42.526906", "place_lon": "3.078077", "journeys": [7380, 7380, 7380], "duration_median": 7380, "duration_min": 7380, "duration_max": 7380}, "france_151": {"place_id": "france_151", "place_name": "Cerbere", "place_lat": "42.441661", "place_lon": "3.163187", "journeys": [8520, 8520, 8520], "duration_median": 8520, "duration_min": 8520, "duration_max": 8520}, "france_163": {"place_id": "france_163", "place_name": "Arras", "place_lat": "50.286889", "place_lon": "2.781829", "journeys": [19140, 19140], "duration_median": 19140.0, "duration_min": 19140, "duration_max": 19140}, "spain_1": {"place_id": "spain_1", "place_name": "Barcelona", "place_lat": "41.378911", "place_lon": "2.140368", "journeys": [10740, 10260, 10740], "duration_median": 10740, "duration_min": 10260, "duration_max": 10740}, "spain_104": {"place_id": "spain_104", "place_name": "Figueres", "place_lat": "42.26478", "place_lon": "2.943023", "journeys": [6720, 6780, 6720], "duration_median": 6720, "duration_min": 6720, "duration_max": 6780}, "spain_105": {"place_id": "spain_105", "place_name": "Girona", "place_lat": "41.979517", "place_lon": "2.816482", "journeys": [7860, 7800, 7860], "duration_median": 7860, "duration_min": 7800, "duration_max": 7860}, "spain_806": {"place_id": "spain_806", "place_name": "Portbou", "place_lat": "42.424725", "place_lon": "3.157848", "journeys": [9360, 9360, 9360], "duration_median": 9360, "duration_min": 9360, "duration_max": 9360}}, "france_125": {"france_19": {"place_id": "france_19", "place_name": "Paris", "place_lat": "48.861496", "place_lon": "2.333681", "journeys": [10260, 10740, 10860, 10260, 10740, 10860, 10740, 10860, 10740, 10740, 10860, 10740, 10260, 10200, 10680, 10260, 10200, 10680], "duration_median": 10740.0, "duration_min": 10200, "duration_max": 10860}, "france_24": {"place_id": "france_24", "place_name": "Bordeaux", "place_lat": "44.82649", "place_lon": "-0.55592", "journeys": [17640, 17640, 17700, 17640, 17640, 17700], "duration_median": 17640.0, "duration_min": 17640, "duration_max": 17700}, "france_38": {"place_id": "france_38", "place_name": "Toulouse", "place_lat": "43.611409", "place_lon": "1.453942", "journeys": [12840, 9600, 10500, 12840, 9600, 10500], "duration_median": 10500.0, "duration_min": 9600, "duration_max": 12840}, "france_72": {"place_id": "france_72", "place_name": "Carcassonne", "place_lat": "43.218185", "place_lon": "2.351794", "journeys": [8460, 6900, 7800, 8460, 6900, 7800], "duration_median": 7800.0, "duration_min": 6900, "duration_max": 8460}, "france_93": {"place_id": "france_93", "place_name": "Lyon", "place_lat": "45.702255", "place_lon": "4.863811", "journeys": [5040, 4980, 4860, 5040, 4980, 4860, 5040, 4980, 3840, 5040, 4980, 4800, 4860, 3780, 4680, 4860, 4680, 4620], "duration_median": 4860.0, "duration_min": 3780, "duration_max": 5040}, "france_105": {"place_id": "france_105", "place_name": "Marseille", "place_lat": "43.303816", "place_lon": "5.38195", "journeys": [4500, 4560, 4080, 5040, 5340, 4080, 4500, 4560, 5040], "duration_median": 4560, "duration_min": 4080, "duration_max": 5340}, "france_106": {"place_id": "france_106", "place_name": "Arles", "place_lat": "43.685004", "place_lon": "4.632429", "journeys": [1260, 1260, 1500, 1800, 2040, 1500, 1260, 1260, 1260], "duration_median": 1260, "duration_min": 1260, "duration_max": 2040}, "france_123": {"place_id": "france_123", "place_name": "Montpellier", "place_lat": "43.599651", "place_lon": "3.899979", "journeys": [1920, 1440, 2580, 1920, 1440, 2580, 2640, 2760, 2700], "duration_median": 2580, "duration_min": 1440, "duration_max": 2760}, "france_124": {"place_id": "france_124", "place_name": "Sete", "place_lat": "43.412811", "place_lon": "3.696535", "journeys": [3420, 3180, 3360, 3420, 3180, 3360, 4020, 4020, 2280], "duration_median": 3360, "duration_min": 2280, "duration_max": 4020}, "france_127": {"place_id": "france_127", "place_name": "Narbonne", "place_lat": "43.1904", "place_lon": "3.006011", "journeys": [6360, 4860, 5820, 6360, 4860, 5820, 6540, 6600, 5220], "duration_median": 5820, "duration_min": 4860, "duration_max": 6600}, "france_145": {"place_id": "france_145", "place_name": "Perpignan", "place_lat": "42.695939", "place_lon": "2.879398", "journeys": [9300, 8100, 7800, 9300, 8100, 7800, 9960, 7500, 9900], "duration_median": 8100, "duration_min": 7500, "duration_max": 9960}, "france_148": {"place_id": "france_148", "place_name": "Collioure", "place_lat": "42.526906", "place_lon": "3.078077", "journeys": [10800, 10800, 10800, 10800, 10800, 10800, 11460, 11460, 11520], "duration_median": 10800, "duration_min": 10800, "duration_max": 11520}, "france_151": {"place_id": "france_151", "place_name": "Cerbere", "place_lat": "42.441661", "place_lon": "3.163187", "journeys": [11940, 11940, 11940, 11940, 11940, 11940, 12600, 12600, 12660], "duration_median": 11940, "duration_min": 11940, "duration_max": 12660}, "france_162": {"place_id": "france_162", "place_name": "Strasbourg", "place_lat": "48.585339", "place_lon": "7.734067", "journeys": [19440, 20760, 19440, 19440, 20760, 19440], "duration_median": 19440.0, "duration_min": 19440, "duration_max": 20760}, "france_163": {"place_id": "france_163", "place_name": "Arras", "place_lat": "50.286889", "place_lon": "2.781829", "journeys": [16080, 16080, 15720, 16080, 16080], "duration_median": 16080, "duration_min": 15720, "duration_max": 16080}, "spain_1": {"place_id": "spain_1", "place_name": "Barcelona", "place_lat": "41.378911", "place_lon": "2.140368", "journeys": [13080, 13680, 12660, 13080, 13680, 12660, 12960, 12960, 12960], "duration_median": 12960, "duration_min": 12660, "duration_max": 13680}, "spain_19": {"place_id": "spain_19", "place_name": "Tarragona", "place_lat": "41.192026", "place_lon": "1.271587", "journeys": [15600, 15600, 15600, 15600, 15600, 15600], "duration_median": 15600.0, "duration_min": 15600, "duration_max": 15600}, "spain_20": {"place_id": "spain_20", "place_name": "Madrid", "place_lat": "40.472151", "place_lon": "-3.68235", "journeys": [24900, 24900, 24900, 24300, 24300, 24300, 24900, 24900, 24900, 24300, 24300, 24300], "duration_median": 24600.0, "duration_min": 24300, "duration_max": 24900}, "spain_55": {"place_id": "spain_55", "place_name": "Zaragoza", "place_lat": "41.65844", "place_lon": "-0.909906", "journeys": [19320, 19320, 19320, 19320, 19320, 19320], "duration_median": 19320.0, "duration_min": 19320, "duration_max": 19320}, "spain_104": {"place_id": "spain_104", "place_name": "Figueres", "place_lat": "42.26478", "place_lon": "2.943023", "journeys": [9600, 9660, 9180, 9600, 9660, 9180, 9480, 9480, 9480], "duration_median": 9480, "duration_min": 9180, "duration_max": 9660}, "spain_105": {"place_id": "spain_105", "place_name": "Girona", "place_lat": "41.979517", "place_lon": "2.816482", "journeys": [10620, 10800, 10200, 10620, 10800, 10200, 10500, 10500, 10500], "duration_median": 10500, "duration_min": 10200, "duration_max": 10800}, "spain_806": {"place_id": "spain_806", "place_name": "Portbou", "place_lat": "42.424725", "place_lon": "3.157848", "journeys": [12780, 12780, 12780, 12780, 12780, 12780, 13440, 13440, 13500], "duration_median": 12780, "duration_min": 12780, "duration_max": 13500}}, "france_127": {"france_19": {"place_id": "france_19", "place_name": "Paris", "place_lat": "48.861496", "place_lon": "2.333681", "journeys": [16560, 16560, 16560, 16560, 16560, 16560], "duration_median": 16560.0, "duration_min": 16560, "duration_max": 16560}, "france_24": {"place_id": "france_24", "place_name": "Bordeaux", "place_lat": "44.82649", "place_lon": "-0.55592", "journeys": [12600, 12480, 12540], "duration_median": 12540, "duration_min": 12480, "duration_max": 12600}, "france_38": {"place_id": "france_38", "place_name": "Toulouse", "place_lat": "43.611409", "place_lon": "1.453942", "journeys": [5580, 6300, 4560], "duration_median": 5580, "duration_min": 4560, "duration_max": 6300}, "france_72": {"place_id": "france_72", "place_name": "Carcassonne", "place_lat": "43.218185", "place_lon": "2.351794", "journeys": [1800, 1920, 1860], "duration_median": 1860, "duration_min": 1800, "duration_max": 1920}, "france_93": {"place_id": "france_93", "place_name": "Lyon", "place_lat": "45.702255", "place_lon": "4.863811", "journeys": [10860, 10260, 10200, 10860, 10260, 10200], "duration_median": 10260.0, "duration_min": 10200, "duration_max": 10860}, "france_105": {"place_id": "france_105", "place_name": "Marseille", "place_lat": "43.303816", "place_lon": "5.38195", "journeys": [11100, 11460, 9120], "duration_median": 11100, "duration_min": 9120, "duration_max": 11460}, "france_106": {"place_id": "france_106", "place_name": "Arles", "place_lat": "43.685004", "place_lon": "4.632429", "journeys": [7860, 8160, 6540], "duration_median": 7860, "duration_min": 6540, "duration_max": 8160}, "france_123": {"place_id": "france_123", "place_name": "Montpellier", "place_lat": "43.599651", "place_lon": "3.899979", "journeys": [3540, 4080, 4980], "duration_median": 4080, "duration_min": 3540, "duration_max": 4980}, "france_124": {"place_id": "france_124", "place_name": "Sete", "place_lat": "43.412811", "place_lon": "3.696535", "journeys": [2400, 3000, 3540], "duration_median": 3000, "duration_min": 2400, "duration_max": 3540}, "france_125": {"place_id": "france_125", "place_name": "Nimes", "place_lat": "43.821397", "place_lon": "4.441912", "journeys": [5880, 7140, 7140, 5880, 7140, 7140, 6480, 7740, 7800], "duration_median": 7140, "duration_min": 5880, "duration_max": 7800}, "france_145": {"place_id": "france_145", "place_name": "Perpignan", "place_lat": "42.695939", "place_lon": "2.879398", "journeys": [2460, 2640, 2580], "duration_median": 2580, "duration_min": 2460, "duration_max": 2640}, "france_148": {"place_id": "france_148", "place_name": "Collioure", "place_lat": "42.526906", "place_lon": "3.078077", "journeys": [3900, 4260, 4080], "duration_median": 4080, "duration_min": 3900, "duration_max": 4260}, "france_151": {"place_id": "france_151", "place_name": "Cerbere", "place_lat": "42.441661", "place_lon": "3.163187", "journeys": [4980, 5400, 5160], "duration_median": 5160, "duration_min": 4980, "duration_max": 5400}, "france_163": {"place_id": "france_163", "place_name": "Arras", "place_lat": "50.286889", "place_lon": "2.781829", "journeys": [21960, 21960], "duration_median": 21960.0, "duration_min": 21960, "duration_max": 21960}, "spain_1": {"place_id": "spain_1", "place_name": "Barcelona", "place_lat": "41.378911", "place_lon": "2.140368", "journeys": [7020, 7620, 7200], "duration_median": 7200, "duration_min": 7020, "duration_max": 7620}, "spain_19": {"place_id": "spain_19", "place_name": "Tarragona", "place_lat": "41.192026", "place_lon": "1.271587", "journeys": [9540, 9540, 9540], "duration_median": 9540, "duration_min": 9540, "duration_max": 9540}, "spain_20": {"place_id": "spain_20", "place_name": "Madrid", "place_lat": "40.472151", "place_lon": "-3.68235", "journeys": [18840, 18840, 18840, 18240, 18240, 18240], "duration_median": 18540.0, "duration_min": 18240, "duration_max": 18840}, "spain_55": {"place_id": "spain_55", "place_name": "Zaragoza", "place_lat": "41.65844", "place_lon": "-0.909906", "journeys": [13260, 13260, 13260], "duration_median": 13260, "duration_min": 13260, "duration_max": 13260}, "spain_104": {"place_id": "spain_104", "place_name": "Figueres", "place_lat": "42.26478", "place_lon": "2.943023", "journeys": [3540, 3600, 3720], "duration_median": 3600, "duration_min": 3540, "duration_max": 3720}, "spain_105": {"place_id": "spain_105", "place_name": "Girona", "place_lat": "41.979517", "place_lon": "2.816482", "journeys": [4560, 4740, 4740], "duration_median": 4740, "duration_min": 4560, "duration_max": 4740}, "spain_806": {"place_id": "spain_806", "place_name": "Portbou", "place_lat": "42.424725", "place_lon": "3.157848", "journeys": [5820, 6120, 5760], "duration_median": 5820, "duration_min": 5760, "duration_max": 6120}}, "france_145": {"france_19": {"place_id": "france_19", "place_name": "Paris", "place_lat": "48.861496", "place_lon": "2.333681", "journeys": [18840, 18840, 18840, 18840, 18840, 18840], "duration_median": 18840.0, "duration_min": 18840, "duration_max": 18840}, "france_38": {"place_id": "france_38", "place_name": "Toulouse", "place_lat": "43.611409", "place_lon": "1.453942", "journeys": [8700, 9960, 9240], "duration_median": 9240, "duration_min": 8700, "duration_max": 9960}, "france_72": {"place_id": "france_72", "place_name": "Carcassonne", "place_lat": "43.218185", "place_lon": "2.351794", "journeys": [4920, 6000, 5520], "duration_median": 5520, "duration_min": 4920, "duration_max": 6000}, "france_93": {"place_id": "france_93", "place_name": "Lyon", "place_lat": "45.702255", "place_lon": "4.863811", "journeys": [13320, 12480, 13320, 13320, 12480, 13320], "duration_median": 13320.0, "duration_min": 12480, "duration_max": 13320}, "france_105": {"place_id": "france_105", "place_name": "Marseille", "place_lat": "43.303816", "place_lon": "5.38195", "journeys": [12720, 12720, 12720], "duration_median": 12720, "duration_min": 12720, "duration_max": 12720}, "france_123": {"place_id": "france_123", "place_name": "Montpellier", "place_lat": "43.599651", "place_lon": "3.899979", "journeys": [5940, 6360, 6840], "duration_median": 6360, "duration_min": 5940, "duration_max": 6840}, "france_124": {"place_id": "france_124", "place_name": "Sete", "place_lat": "43.412811", "place_lon": "3.696535", "journeys": [4800, 5100, 5700], "duration_median": 5100, "duration_min": 4800, "duration_max": 5700}, "france_125": {"place_id": "france_125", "place_name": "Nimes", "place_lat": "43.821397", "place_lon": "4.441912", "journeys": [7860, 8160, 9180, 7860, 8160, 9180, 9840, 7620, 10020], "duration_median": 8160, "duration_min": 7620, "duration_max": 10020}, "france_127": {"place_id": "france_127", "place_name": "Narbonne", "place_lat": "43.1904", "place_lon": "3.006011", "journeys": [2520, 2100, 2280], "duration_median": 2280, "duration_min": 2100, "duration_max": 2520}, "france_148": {"place_id": "france_148", "place_name": "Collioure", "place_lat": "42.526906", "place_lon": "3.078077", "journeys": [1140, 1260, 1140], "duration_median": 1140, "duration_min": 1140, "duration_max": 1260}, "france_151": {"place_id": "france_151", "place_name": "Cerbere", "place_lat": "42.441661", "place_lon": "3.163187", "journeys": [2220, 2400, 2220], "duration_median": 2220, "duration_min": 2220, "duration_max": 2400}, "france_163": {"place_id": "france_163", "place_name": "Arras", "place_lat": "50.286889", "place_lon": "2.781829", "journeys": [24420, 24420], "duration_median": 24420.0, "duration_min": 24420, "duration_max": 24420}, "spain_1": {"place_id": "spain_1", "place_name": "Barcelona", "place_lat": "41.378911", "place_lon": "2.140368", "journeys": [4740, 5400, 4980], "duration_median": 4980, "duration_min": 4740, "duration_max": 5400}, "spain_19": {"place_id": "spain_19", "place_name": "Tarragona", "place_lat": "41.192026", "place_lon": "1.271587", "journeys": [7260, 7260, 7260], "duration_median": 7260, "duration_min": 7260, "duration_max": 7260}, "spain_20": {"place_id": "spain_20", "place_name": "Madrid", "place_lat": "40.472151", "place_lon": "-3.68235", "journeys": [16560, 16560, 16560, 15960, 15960, 15960], "duration_median": 16260.0, "duration_min": 15960, "duration_max": 16560}, "spain_55": {"place_id": "spain_55", "place_name": "Zaragoza", "place_lat": "41.65844", "place_lon": "-0.909906", "journeys": [10980, 10980, 10980], "duration_median": 10980, "duration_min": 10980, "duration_max": 10980}, "spain_104": {"place_id": "spain_104", "place_name": "Figueres", "place_lat": "42.26478", "place_lon": "2.943023", "journeys": [1260, 1380, 1500], "duration_median": 1380, "duration_min": 1260, "duration_max": 1500}, "spain_105": {"place_id": "spain_105", "place_name": "Girona", "place_lat": "41.979517", "place_lon": "2.816482", "journeys": [2280, 2520, 2520], "duration_median": 2520, "duration_min": 2280, "duration_max": 2520}, "spain_806": {"place_id": "spain_806", "place_name": "Portbou", "place_lat": "42.424725", "place_lon": "3.157848", "journeys": [3060, 3120, 2820], "duration_median": 3060, "duration_min": 2820, "duration_max": 3120}}, "france_148": {"france_19": {"place_id": "france_19", "place_name": "Paris", "place_lat": "48.861496", "place_lon": "2.333681", "journeys": [48360, 43140], "duration_median": 45750.0, "duration_min": 43140, "duration_max": 48360}, "france_38": {"place_id": "france_38", "place_name": "Toulouse", "place_lat": "43.611409", "place_lon": "1.453942", "journeys": [11640, 10920, 10980], "duration_median": 10980, "duration_min": 10920, "duration_max": 11640}, "france_72": {"place_id": "france_72", "place_name": "Carcassonne", "place_lat": "43.218185", "place_lon": "2.351794", "journeys": [7680, 7200, 7260], "duration_median": 7260, "duration_min": 7200, "duration_max": 7680}, "france_123": {"place_id": "france_123", "place_name": "Montpellier", "place_lat": "43.599651", "place_lon": "3.899979", "journeys": [8580, 8880, 8820], "duration_median": 8820, "duration_min": 8580, "duration_max": 8880}, "france_124": {"place_id": "france_124", "place_name": "Sete", "place_lat": "43.412811", "place_lon": "3.696535", "journeys": [7440, 7680, 7620], "duration_median": 7620, "duration_min": 7440, "duration_max": 7680}, "france_125": {"place_id": "france_125", "place_name": "Nimes", "place_lat": "43.821397", "place_lon": "4.441912", "journeys": [10920, 11100, 11160, 10920, 11100, 11160, 11580, 11700, 11580], "duration_median": 11160, "duration_min": 10920, "duration_max": 11700}, "france_127": {"place_id": "france_127", "place_name": "Narbonne", "place_lat": "43.1904", "place_lon": "3.006011", "journeys": [4380, 4320, 4380], "duration_median": 4380, "duration_min": 4320, "duration_max": 4380}, "france_145": {"place_id": "france_145", "place_name": "Perpignan", "place_lat": "42.695939", "place_lon": "2.879398", "journeys": [1380, 1380, 1440], "duration_median": 1380, "duration_min": 1380, "duration_max": 1440}, "france_151": {"place_id": "france_151", "place_name": "Cerbere", "place_lat": "42.441661", "place_lon": "3.163187", "journeys": [1020, 1080, 1020], "duration_median": 1020, "duration_min": 1020, "duration_max": 1080}, "spain_806": {"place_id": "spain_806", "place_name": "Portbou", "place_lat": "42.424725", "place_lon": "3.157848", "journeys": [1860, 1800, 1620], "duration_median": 1800, "duration_min": 1620, "duration_max": 1860}}, "france_151": {"france_19": {"place_id": "france_19", "place_name": "Paris", "place_lat": "48.861496", "place_lon": "2.333681", "journeys": [49560, 44280], "duration_median": 46920.0, "duration_min": 44280, "duration_max": 49560}, "france_38": {"place_id": "france_38", "place_name": "Toulouse", "place_lat": "43.611409", "place_lon": "1.453942", "journeys": [12540, 11820, 11880], "duration_median": 11880, "duration_min": 11820, "duration_max": 12540}, "france_72": {"place_id": "france_72", "place_name": "Carcassonne", "place_lat": "43.218185", "place_lon": "2.351794", "journeys": [8580, 8100, 8160], "duration_median": 8160, "duration_min": 8100, "duration_max": 8580}, "france_123": {"place_id": "france_123", "place_name": "Montpellier", "place_lat": "43.599651", "place_lon": "3.899979", "journeys": [9480, 9780, 9780], "duration_median": 9780, "duration_min": 9480, "duration_max": 9780}, "france_124": {"place_id": "france_124", "place_name": "Sete", "place_lat": "43.412811", "place_lon": "3.696535", "journeys": [8340, 8580, 8580], "duration_median": 8580, "duration_min": 8340, "duration_max": 8580}, "france_125": {"place_id": "france_125", "place_name": "Nimes", "place_lat": "43.821397", "place_lon": "4.441912", "journeys": [11820, 12060, 12060, 11820, 12060, 12060, 12480, 12660, 12480], "duration_median": 12060, "duration_min": 11820, "duration_max": 12660}, "france_127": {"place_id": "france_127", "place_name": "Narbonne", "place_lat": "43.1904", "place_lon": "3.006011", "journeys": [5280, 5220, 5280], "duration_median": 5280, "duration_min": 5220, "duration_max": 5280}, "france_145": {"place_id": "france_145", "place_name": "Perpignan", "place_lat": "42.695939", "place_lon": "2.879398", "journeys": [2280, 2280, 2340], "duration_median": 2280, "duration_min": 2280, "duration_max": 2340}, "france_148": {"place_id": "france_148", "place_name": "Collioure", "place_lat": "42.526906", "place_lon": "3.078077", "journeys": [840, 840, 840], "duration_median": 840, "duration_min": 840, "duration_max": 840}, "spain_806": {"place_id": "spain_806", "place_name": "Portbou", "place_lat": "42.424725", "place_lon": "3.157848", "journeys": [240, 240, 240], "duration_median": 240, "duration_min": 240, "duration_max": 240}}, "france_160": {"france_19": {"place_id": "france_19", "place_name": "Paris", "place_lat": "48.861496", "place_lon": "2.333681", "journeys": [12300, 12300, 12300, 12300, 12300, 12300], "duration_median": 12300.0, "duration_min": 12300, "duration_max": 12300}, "france_93": {"place_id": "france_93", "place_name": "Lyon", "place_lat": "45.702255", "place_lon": "4.863811", "journeys": [8640, 7980, 4800, 7980, 8160, 7980], "duration_median": 7980.0, "duration_min": 4800, "duration_max": 8640}, "france_105": {"place_id": "france_105", "place_name": "Marseille", "place_lat": "43.303816", "place_lon": "5.38195", "journeys": [7680, 7140, 5640], "duration_median": 7140, "duration_min": 5640, "duration_max": 7680}, "france_106": {"place_id": "france_106", "place_name": "Arles", "place_lat": "43.685004", "place_lon": "4.632429", "journeys": [3480, 3420, 2160], "duration_median": 3420, "duration_min": 2160, "duration_max": 3480}}, "france_161": {"france_19": {"place_id": "france_19", "place_name": "Paris", "place_lat": "48.861496", "place_lon": "2.333681", "journeys": [20700, 21180, 21180, 20700, 21180, 21180], "duration_median": 21180.0, "duration_min": 20700, "duration_max": 21180}, "france_93": {"place_id": "france_93", "place_name": "Lyon", "place_lat": "45.702255", "place_lon": "4.863811", "journeys": [13620, 15960, 16800, 15960, 16800, 16500], "duration_median": 16230.0, "duration_min": 13620, "duration_max": 16800}, "france_105": {"place_id": "france_105", "place_name": "Marseille", "place_lat": "43.303816", "place_lon": "5.38195", "journeys": [9480, 9180, 9360], "duration_median": 9360, "duration_min": 9180, "duration_max": 9480}, "france_162": {"place_id": "france_162", "place_name": "Strasbourg", "place_lat": "48.585339", "place_lon": "7.734067", "journeys": [32040, 32040, 32220], "duration_median": 32040, "duration_min": 32040, "duration_max": 32220}}, "france_162": {"Germany_4": {"place_id": "Germany_4", "place_name": "Munich", "place_lat": "48.140364", "place_lon": "11.558744", "journeys": [13320, 13920, 20520], "duration_median": 13920, "duration_min": 13320, "duration_max": 20520}, "Germany_6": {"place_id": "Germany_6", "place_name": "Freiburg", "place_lat": "47.997974", "place_lon": "7.841344", "journeys": [5640, 4740, 4380], "duration_median": 4740, "duration_min": 4380, "duration_max": 5640}, "france_6": {"place_id": "france_6", "place_name": "Rennes", "place_lat": "48.103175", "place_lon": "-1.672335", "journeys": [16500, 17160, 17160], "duration_median": 17160, "duration_min": 16500, "duration_max": 17160}, "france_19": {"place_id": "france_19", "place_name": "Paris", "place_lat": "48.861496", "place_lon": "2.333681", "journeys": [7200, 7080, 7080, 6540, 6540, 7200, 7080, 7080, 6540, 6540, 9000, 8880, 8880, 8340, 8340], "duration_median": 7080, "duration_min": 6540, "duration_max": 9000}, "france_24": {"place_id": "france_24", "place_name": "Bordeaux", "place_lat": "44.82649", "place_lon": "-0.55592", "journeys": [21960, 21660, 21660], "duration_median": 21660, "duration_min": 21660, "duration_max": 21960}, "france_93": {"place_id": "france_93", "place_name": "Lyon", "place_lat": "45.702255", "place_lon": "4.863811", "journeys": [14940, 14220, 13800, 14940, 14220, 13800], "duration_median": 14220.0, "duration_min": 13800, "duration_max": 14940}, "france_105": {"place_id": "france_105", "place_name": "Marseille", "place_lat": "43.303816", "place_lon": "5.38195", "journeys": [21780, 22020, 19920], "duration_median": 21780, "duration_min": 19920, "duration_max": 22020}, "france_123": {"place_id": "france_123", "place_name": "Montpellier", "place_lat": "43.599651", "place_lon": "3.899979", "journeys": [22020, 20640, 22020], "duration_median": 22020, "duration_min": 20640, "duration_max": 22020}, "france_125": {"place_id": "france_125", "place_name": "Nimes", "place_lat": "43.821397", "place_lon": "4.441912", "journeys": [20220, 19200, 20220, 20220, 20220, 20220, 19200, 19200, 19200], "duration_median": 20220, "duration_min": 19200, "duration_max": 20220}, "france_161": {"place_id": "france_161", "place_name": "Nice", "place_lat": "43.704825", "place_lon": "7.261765", "journeys": [31980, 31980, 32160], "duration_median": 31980, "duration_min": 31980, "duration_max": 32160}}, "france_163": {"france_19": {"place_id": "france_19", "place_name": "Paris", "place_lat": "48.861496", "place_lon": "2.333681", "journeys": [3060, 5820, 3060, 4860, 7620, 4860, 3060, 5820, 3060], "duration_median": 4860, "duration_min": 3060, "duration_max": 7620}, "france_24": {"place_id": "france_24", "place_name": "Bordeaux", "place_lat": "44.82649", "place_lon": "-0.55592", "journeys": [18120, 18120, 18120], "duration_median": 18120, "duration_min": 18120, "duration_max": 18120}, "france_93": {"place_id": "france_93", "place_name": "Lyon", "place_lat": "45.702255", "place_lon": "4.863811", "journeys": [11640, 11640, 11640, 11640, 11640, 11640], "duration_median": 11640.0, "duration_min": 11640, "duration_max": 11640}, "france_105": {"place_id": "france_105", "place_name": "Marseille", "place_lat": "43.303816", "place_lon": "5.38195", "journeys": [18060, 18060, 18060], "duration_median": 18060, "duration_min": 18060, "duration_max": 18060}}, "spain_1": {"france_19": {"place_id": "france_19", "place_name": "Paris", "place_lat": "48.861496", "place_lon": "2.333681", "journeys": [24300, 24360, 24300, 24300, 24360, 24300], "duration_median": 24300.0, "duration_min": 24300, "duration_max": 24360}, "france_93": {"place_id": "france_93", "place_name": "Lyon", "place_lat": "45.702255", "place_lon": "4.863811", "journeys": [17880, 17880, 17880, 17880, 17880, 17880], "duration_median": 17880.0, "duration_min": 17880, "duration_max": 17880}, "france_105": {"place_id": "france_105", "place_name": "Marseille", "place_lat": "43.303816", "place_lon": "5.38195", "journeys": [17760, 17760, 17760], "duration_median": 17760, "duration_min": 17760, "duration_max": 17760}, "france_123": {"place_id": "france_123", "place_name": "Montpellier", "place_lat": "43.599651", "place_lon": "3.899979", "journeys": [11040, 11460, 11460], "duration_median": 11460, "duration_min": 11040, "duration_max": 11460}, "france_124": {"place_id": "france_124", "place_name": "Sete", "place_lat": "43.412811", "place_lon": "3.696535", "journeys": [10380, 10320, 10380], "duration_median": 10380, "duration_min": 10320, "duration_max": 10380}, "france_125": {"place_id": "france_125", "place_name": "Nimes", "place_lat": "43.821397", "place_lon": "4.441912", "journeys": [12840, 13320, 13560, 12840, 13320, 13560], "duration_median": 13320.0, "duration_min": 12840, "duration_max": 13560}, "france_127": {"place_id": "france_127", "place_name": "Narbonne", "place_lat": "43.1904", "place_lon": "3.006011", "journeys": [7500, 7560, 7620], "duration_median": 7560, "duration_min": 7500, "duration_max": 7620}, "france_145": {"place_id": "france_145", "place_name": "Perpignan", "place_lat": "42.695939", "place_lon": "2.879398", "journeys": [5160, 4920, 4800], "duration_median": 4920, "duration_min": 4800, "duration_max": 5160}, "france_151": {"place_id": "france_151", "place_name": "Cerbere", "place_lat": "42.441661", "place_lon": "3.163187", "journeys": [9600, 9600, 9600], "duration_median": 9600, "duration_min": 9600, "duration_max": 9600}, "spain_19": {"place_id": "spain_19", "place_name": "Tarragona", "place_lat": "41.111213", "place_lon": "1.253528", "journeys": [4620, 4620, 4020, 1980, 1920, 2040], "duration_median": 3030.0, "duration_min": 1920, "duration_max": 4620}, "spain_20": {"place_id": "spain_20", "place_name": "Madrid", "place_lat": "40.472151", "place_lon": "-3.68235", "journeys": [12600, 10500, 10500, 12000, 9900, 9900], "duration_median": 10500.0, "duration_min": 9900, "duration_max": 12600}, "spain_44": {"place_id": "spain_44", "place_name": "San Sebastian", "place_lat": "43.317669", "place_lon": "-1.976782", "journeys": [21780, 21780, 20760], "duration_median": 21780, "duration_min": 20760, "duration_max": 21780}, "spain_55": {"place_id": "spain_55", "place_name": "Zaragoza", "place_lat": "41.65844", "place_lon": "-0.909906", "journeys": [6180, 4980, 4980], "duration_median": 4980, "duration_min": 4980, "duration_max": 6180}, "spain_56": {"place_id": "spain_56", "place_name": "Tudela de Navarra", "place_lat": "42.059521", "place_lon": "-1.597554", "journeys": [10080, 10320, 9840], "duration_median": 10080, "duration_min": 9840, "duration_max": 10320}, "spain_61": {"place_id": "spain_61", "place_name": "Pamplona", "place_lat": "42.825123", "place_lon": "-1.66189", "journeys": [14400, 14100, 14400], "duration_median": 14400, "duration_min": 14100, "duration_max": 14400}, "spain_96": {"place_id": "spain_96", "place_name": "Cordoba", "place_lat": "37.888589", "place_lon": "-4.789596", "journeys": [17820, 18420, 19020], "duration_median": 18420, "duration_min": 17820, "duration_max": 19020}, "spain_97": {"place_id": "spain_97", "place_name": "Seville", "place_lat": "37.391926", "place_lon": "-5.975265", "journeys": [21420, 22200, 21420], "duration_median": 21420, "duration_min": 21420, "duration_max": 22200}, "spain_104": {"place_id": "spain_104", "place_name": "Figueres", "place_lat": "42.264951", "place_lon": "2.969272", "journeys": [7800, 6600, 7800, 3300, 3420, 3420], "duration_median": 5010.0, "duration_min": 3300, "duration_max": 7800}, "spain_105": {"place_id": "spain_105", "place_name": "Girona", "place_lat": "41.979517", "place_lon": "2.816482", "journeys": [2340, 2340, 2280], "duration_median": 2340, "duration_min": 2280, "duration_max": 2340}, "spain_805": {"place_id": "spain_805", "place_name": "Llanca", "place_lat": "42.366691", "place_lon": "3.149101", "journeys": [8700, 7500, 8700], "duration_median": 8700, "duration_min": 7500, "duration_max": 8700}, "spain_806": {"place_id": "spain_806", "place_name": "Portbou", "place_lat": "42.424725", "place_lon": "3.157848", "journeys": [9300, 7980, 9300], "duration_median": 9300, "duration_min": 7980, "duration_max": 9300}}, "spain_19": {"spain_1": {"place_id": "spain_1", "place_name": "Barcelona", "place_lat": "41.378911", "place_lon": "2.140368", "journeys": [5220, 4440, 4500, 2040, 2160, 2700], "duration_median": 3570.0, "duration_min": 2040, "duration_max": 5220}, "spain_20": {"place_id": "spain_20", "place_name": "Madrid", "place_lat": "40.472151", "place_lon": "-3.68235", "journeys": [28680, 28680, 28680, 31380, 31380, 31380, 10500, 10080, 10380, 9900, 9480, 9780], "duration_median": 19590.0, "duration_min": 9480, "duration_max": 31380}, "spain_55": {"place_id": "spain_55", "place_name": "Zaragoza", "place_lat": "41.65844", "place_lon": "-0.909906", "journeys": [14160, 14640, 14160, 4080, 4560, 4080], "duration_median": 9360.0, "duration_min": 4080, "duration_max": 14640}, "france_105": {"place_id": "france_105", "place_name": "Marseille", "place_lat": "43.303816", "place_lon": "5.38195", "journeys": [20640, 20640, 20640], "duration_median": 20640, "duration_min": 20640, "duration_max": 20640}, "france_123": {"place_id": "france_123", "place_name": "Montpellier", "place_lat": "43.599651", "place_lon": "3.899979", "journeys": [14220, 14220, 14220], "duration_median": 14220, "duration_min": 14220, "duration_max": 14220}, "france_125": {"place_id": "france_125", "place_name": "Nimes", "place_lat": "43.821397", "place_lon": "4.441912", "journeys": [16560, 16560, 16560, 16560, 16560, 16560], "duration_median": 16560.0, "duration_min": 16560, "duration_max": 16560}, "france_127": {"place_id": "france_127", "place_name": "Narbonne", "place_lat": "43.1904", "place_lon": "3.006011", "journeys": [10020, 10020, 10020], "duration_median": 10020, "duration_min": 10020, "duration_max": 10020}, "france_145": {"place_id": "france_145", "place_name": "Perpignan", "place_lat": "42.695939", "place_lon": "2.879398", "journeys": [7680, 7680, 7680], "duration_median": 7680, "duration_min": 7680, "duration_max": 7680}, "spain_44": {"place_id": "spain_44", "place_name": "San Sebastian", "place_lat": "43.317669", "place_lon": "-1.976782", "journeys": [19500, 19500, 18480], "duration_median": 19500, "duration_min": 18480, "duration_max": 19500}, "spain_56": {"place_id": "spain_56", "place_name": "Tudela de Navarra", "place_lat": "42.059521", "place_lon": "-1.597554", "journeys": [7860, 8160, 7560], "duration_median": 7860, "duration_min": 7560, "duration_max": 8160}, "spain_61": {"place_id": "spain_61", "place_name": "Pamplona", "place_lat": "42.825123", "place_lon": "-1.66189", "journeys": [12240, 11820, 12240], "duration_median": 12240, "duration_min": 11820, "duration_max": 12240}, "spain_96": {"place_id": "spain_96", "place_name": "Cordoba", "place_lat": "37.888589", "place_lon": "-4.789596", "journeys": [15780, 16320, 17040], "duration_median": 16320, "duration_min": 15780, "duration_max": 17040}, "spain_97": {"place_id": "spain_97", "place_name": "Seville", "place_lat": "37.391926", "place_lon": "-5.975265", "journeys": [19320, 20220, 19320], "duration_median": 19320, "duration_min": 19320, "duration_max": 20220}, "spain_104": {"place_id": "spain_104", "place_name": "Figueres", "place_lat": "42.26478", "place_lon": "2.943023", "journeys": [5940, 6000, 6180], "duration_median": 6000, "duration_min": 5940, "duration_max": 6180}, "spain_105": {"place_id": "spain_105", "place_name": "Girona", "place_lat": "41.979517", "place_lon": "2.816482", "journeys": [4920, 4980, 5160], "duration_median": 4980, "duration_min": 4920, "duration_max": 5160}}, "spain_20": {"france_105": {"place_id": "france_105", "place_name": "Marseille", "place_lat": "43.303816", "place_lon": "5.38195", "journeys": [29700, 29700, 29700, 29100, 29100, 29100], "duration_median": 29400.0, "duration_min": 29100, "duration_max": 29700}, "france_123": {"place_id": "france_123", "place_name": "Montpellier", "place_lat": "43.599651", "place_lon": "3.899979", "journeys": [23280, 23280, 23280, 22680, 22680, 22680], "duration_median": 22980.0, "duration_min": 22680, "duration_max": 23280}, "france_125": {"place_id": "france_125", "place_name": "Nimes", "place_lat": "43.821397", "place_lon": "4.441912", "journeys": [25620, 25620, 25620, 25620, 25620, 25620, 25020, 25020, 25020, 25020, 25020, 25020], "duration_median": 25320.0, "duration_min": 25020, "duration_max": 25620}, "france_127": {"place_id": "france_127", "place_name": "Narbonne", "place_lat": "43.1904", "place_lon": "3.006011", "journeys": [19080, 19080, 19080, 18480, 18480, 18480], "duration_median": 18780.0, "duration_min": 18480, "duration_max": 19080}, "france_145": {"place_id": "france_145", "place_name": "Perpignan", "place_lat": "42.695939", "place_lon": "2.879398", "journeys": [16740, 16740, 16740, 16140, 16140, 16140], "duration_median": 16440.0, "duration_min": 16140, "duration_max": 16740}, "spain_1": {"place_id": "spain_1", "place_name": "Barcelona", "place_lat": "41.378911", "place_lon": "2.140368", "journeys": [9600, 10500, 12120, 9000, 9900, 11520], "duration_median": 10200.0, "duration_min": 9000, "duration_max": 12120}, "spain_19": {"place_id": "spain_19", "place_name": "Tarragona", "place_lat": "41.192026", "place_lon": "1.271587", "journeys": [9840, 9480, 8760, 9240, 8880, 8160], "duration_median": 9060.0, "duration_min": 8160, "duration_max": 9840}, "spain_44": {"place_id": "spain_44", "place_name": "San Sebastian", "place_lat": "43.317669", "place_lon": "-1.976782", "journeys": [17640, 18120, 17640, 20340, 20820, 20340], "duration_median": 19230.0, "duration_min": 17640, "duration_max": 20820}, "spain_55": {"place_id": "spain_55", "place_name": "Zaragoza", "place_lat": "41.65844", "place_lon": "-0.909906", "journeys": [5100, 5460, 5100, 4500, 4860, 4500], "duration_median": 4980.0, "duration_min": 4500, "duration_max": 5460}, "spain_56": {"place_id": "spain_56", "place_name": "Tudela de Navarra", "place_lat": "42.059521", "place_lon": "-1.597554", "journeys": [9120, 8460, 8640, 8520, 7860, 8040], "duration_median": 8490.0, "duration_min": 7860, "duration_max": 9120}, "spain_61": {"place_id": "spain_61", "place_name": "Pamplona", "place_lat": "42.825123", "place_lon": "-1.66189", "journeys": [12480, 13320, 12060, 11880, 12720, 11460], "duration_median": 12270.0, "duration_min": 11460, "duration_max": 13320}, "spain_96": {"place_id": "spain_96", "place_name": "Cordoba", "place_lat": "37.888589", "place_lon": "-4.789596", "journeys": [7860, 7320, 8460, 7260, 6720, 7860], "duration_median": 7590.0, "duration_min": 6720, "duration_max": 8460}, "spain_97": {"place_id": "spain_97", "place_name": "Seville", "place_lat": "37.391926", "place_lon": "-5.975265", "journeys": [10920, 10380, 10380, 10320, 9780, 9780], "duration_median": 10350.0, "duration_min": 9780, "duration_max": 10920}, "spain_104": {"place_id": "spain_104", "place_name": "Figueres", "place_lat": "42.26478", "place_lon": "2.943023", "journeys": [15900, 15600, 15240, 15300, 15000, 14640], "duration_median": 15270.0, "duration_min": 14640, "duration_max": 15900}, "spain_105": {"place_id": "spain_105", "place_name": "Girona", "place_lat": "41.979517", "place_lon": "2.816482", "journeys": [14880, 14580, 14220, 14280, 13980, 13620], "duration_median": 14250.0, "duration_min": 13620, "duration_max": 14880}, "spain_139": {"place_id": "spain_139", "place_name": "Tolosa", "place_lat": "43.135592", "place_lon": "-2.079205", "journeys": [16740, 16200, 16740, 19440, 18900, 19440], "duration_median": 17820.0, "duration_min": 16200, "duration_max": 19440}, "spain_162": {"place_id": "spain_162", "place_name": "Algeciras", "place_lat": "36.126721", "place_lon": "-5.450996", "journeys": [20820, 20820, 20820, 20220, 20220, 20220], "duration_median": 20520.0, "duration_min": 20220, "duration_max": 20820}}, "spain_44": {"spain_1": {"place_id": "spain_1", "place_name": "Barcelona", "place_lat": "41.378911", "place_lon": "2.140368", "journeys": [23520, 23520, 23520], "duration_median": 23520, "duration_min": 23520, "duration_max": 23520}, "spain_19": {"place_id": "spain_19", "place_name": "Tarragona", "place_lat": "41.192026", "place_lon": "1.271587", "journeys": [21240, 21240, 21240], "duration_median": 21240, "duration_min": 21240, "duration_max": 21240}, "spain_20": {"place_id": "spain_20", "place_name": "Madrid", "place_lat": "40.472151", "place_lon": "-3.68235", "journeys": [18360, 18300, 18360, 21060, 21000, 21060], "duration_median": 19680.0, "duration_min": 18300, "duration_max": 21060}, "spain_55": {"place_id": "spain_55", "place_name": "Zaragoza", "place_lat": "41.65844", "place_lon": "-0.909906", "journeys": [16140, 16140, 16140], "duration_median": 16140, "duration_min": 16140, "duration_max": 16140}, "spain_56": {"place_id": "spain_56", "place_name": "Tudela de Navarra", "place_lat": "42.059521", "place_lon": "-1.597554", "journeys": [13260, 13260, 13260], "duration_median": 13260, "duration_min": 13260, "duration_max": 13260}, "spain_61": {"place_id": "spain_61", "place_name": "Pamplona", "place_lat": "42.825123", "place_lon": "-1.66189", "journeys": [7800, 7800, 7800], "duration_median": 7800, "duration_min": 7800, "duration_max": 7800}, "spain_139": {"place_id": "spain_139", "place_name": "Tolosa", "place_lat": "43.135592", "place_lon": "-2.079205", "journeys": [1560, 1980, 1560, 1440, 1440, 1440], "duration_median": 1500.0, "duration_min": 1440, "duration_max": 1980}}, "spain_55": {"france_105": {"place_id": "france_105", "place_name": "Marseille", "place_lat": "43.303816", "place_lon": "5.38195", "journeys": [24000, 24000, 24000], "duration_median": 24000, "duration_min": 24000, "duration_max": 24000}, "france_123": {"place_id": "france_123", "place_name": "Montpellier", "place_lat": "43.599651", "place_lon": "3.899979", "journeys": [17580, 17580, 17580], "duration_median": 17580, "duration_min": 17580, "duration_max": 17580}, "france_125": {"place_id": "france_125", "place_name": "Nimes", "place_lat": "43.821397", "place_lon": "4.441912", "journeys": [19920, 19920, 19920, 19920, 19920, 19920], "duration_median": 19920.0, "duration_min": 19920, "duration_max": 19920}, "france_127": {"place_id": "france_127", "place_name": "Narbonne", "place_lat": "43.1904", "place_lon": "3.006011", "journeys": [13380, 13380, 13380], "duration_median": 13380, "duration_min": 13380, "duration_max": 13380}, "france_145": {"place_id": "france_145", "place_name": "Perpignan", "place_lat": "42.695939", "place_lon": "2.879398", "journeys": [11040, 11040, 11040], "duration_median": 11040, "duration_min": 11040, "duration_max": 11040}, "spain_1": {"place_id": "spain_1", "place_name": "Barcelona", "place_lat": "41.378911", "place_lon": "2.140368", "journeys": [5220, 6600, 5340], "duration_median": 5340, "duration_min": 5220, "duration_max": 6600}, "spain_19": {"place_id": "spain_19", "place_name": "Tarragona", "place_lat": "41.111213", "place_lon": "1.253528", "journeys": [13800, 14100, 13800, 4320, 4320, 3360], "duration_median": 9060.0, "duration_min": 3360, "duration_max": 14100}, "spain_20": {"place_id": "spain_20", "place_name": "Madrid", "place_lat": "40.472151", "place_lon": "-3.68235", "journeys": [6240, 5340, 5340, 5640, 4740, 4740], "duration_median": 5340.0, "duration_min": 4740, "duration_max": 6240}, "spain_44": {"place_id": "spain_44", "place_name": "San Sebastian", "place_lat": "43.317669", "place_lon": "-1.976782", "journeys": [14640, 14640, 13620], "duration_median": 14640, "duration_min": 13620, "duration_max": 14640}, "spain_56": {"place_id": "spain_56", "place_name": "Tudela de Navarra", "place_lat": "42.059521", "place_lon": "-1.597554", "journeys": [3360, 2700, 3060], "duration_median": 3060, "duration_min": 2700, "duration_max": 3360}, "spain_61": {"place_id": "spain_61", "place_name": "Pamplona", "place_lat": "42.825123", "place_lon": "-1.66189", "journeys": [8520, 7140, 8280], "duration_median": 8280, "duration_min": 7140, "duration_max": 8520}, "spain_96": {"place_id": "spain_96", "place_name": "Cordoba", "place_lat": "37.888589", "place_lon": "-4.789596", "journeys": [11040, 11400, 12060], "duration_median": 11400, "duration_min": 11040, "duration_max": 12060}, "spain_97": {"place_id": "spain_97", "place_name": "Seville", "place_lat": "37.391926", "place_lon": "-5.975265", "journeys": [14400, 15240, 14400], "duration_median": 14400, "duration_min": 14400, "duration_max": 15240}, "spain_104": {"place_id": "spain_104", "place_name": "Figueres", "place_lat": "42.26478", "place_lon": "2.943023", "journeys": [10380, 10440, 9540], "duration_median": 10380, "duration_min": 9540, "duration_max": 10440}, "spain_105": {"place_id": "spain_105", "place_name": "Girona", "place_lat": "41.979517", "place_lon": "2.816482", "journeys": [9360, 9420, 8520], "duration_median": 9360, "duration_min": 8520, "duration_max": 9420}, "spain_742": {"place_id": "spain_742", "place_name": "Teruel", "place_lat": "40.340999", "place_lon": "-1.110195", "journeys": [9120, 8100, 9240], "duration_median": 9120, "duration_min": 8100, "duration_max": 9240}}, "spain_56": {"spain_1": {"place_id": "spain_1", "place_name": "Barcelona", "place_lat": "41.378911", "place_lon": "2.140368", "journeys": [10200, 10740, 11520], "duration_median": 10740, "duration_min": 10200, "duration_max": 11520}, "spain_19": {"place_id": "spain_19", "place_name": "Tarragona", "place_lat": "41.192026", "place_lon": "1.271587", "journeys": [7920, 8160, 8520], "duration_median": 8160, "duration_min": 7920, "duration_max": 8520}, "spain_20": {"place_id": "spain_20", "place_name": "Madrid", "place_lat": "40.472151", "place_lon": "-3.68235", "journeys": [9240, 9360, 8340, 8640, 8760, 7740], "duration_median": 8700.0, "duration_min": 7740, "duration_max": 9360}, "spain_44": {"place_id": "spain_44", "place_name": "San Sebastian", "place_lat": "43.317669", "place_lon": "-1.976782", "journeys": [11880, 11880, 10860], "duration_median": 11880, "duration_min": 10860, "duration_max": 11880}, "spain_55": {"place_id": "spain_55", "place_name": "Zaragoza", "place_lat": "41.65844", "place_lon": "-0.909906", "journeys": [3420, 2820, 3480], "duration_median": 3420, "duration_min": 2820, "duration_max": 3480}, "spain_61": {"place_id": "spain_61", "place_name": "Pamplona", "place_lat": "42.825123", "place_lon": "-1.66189", "journeys": [5160, 4020, 3960], "duration_median": 4020, "duration_min": 3960, "duration_max": 5160}}, "spain_61": {"spain_1": {"place_id": "spain_1", "place_name": "Barcelona", "place_lat": "41.378911", "place_lon": "2.140368", "journeys": [14640, 15000, 14640], "duration_median": 14640, "duration_min": 14640, "duration_max": 15000}, "spain_19": {"place_id": "spain_19", "place_name": "Tarragona", "place_lat": "41.192026", "place_lon": "1.271587", "journeys": [12360, 12420, 12360], "duration_median": 12360, "duration_min": 12360, "duration_max": 12420}, "spain_20": {"place_id": "spain_20", "place_name": "Madrid", "place_lat": "40.472151", "place_lon": "-3.68235", "journeys": [13200, 12000, 12060, 12600, 11400, 11460], "duration_median": 12030.0, "duration_min": 11400, "duration_max": 13200}, "spain_44": {"place_id": "spain_44", "place_name": "San Sebastian", "place_lat": "43.317669", "place_lon": "-1.976782", "journeys": [6780, 6780, 6360], "duration_median": 6780, "duration_min": 6360, "duration_max": 6780}, "spain_55": {"place_id": "spain_55", "place_name": "Zaragoza", "place_lat": "41.65844", "place_lon": "-0.909906", "journeys": [7260, 7980, 7860], "duration_median": 7860, "duration_min": 7260, "duration_max": 7980}, "spain_56": {"place_id": "spain_56", "place_name": "Tudela de Navarra", "place_lat": "42.059521", "place_lon": "-1.597554", "journeys": [3780, 4380, 4500], "duration_median": 4380, "duration_min": 3780, "duration_max": 4500}}, "spain_96": {"spain_1": {"place_id": "spain_1", "place_name": "Barcelona", "place_lat": "41.378911", "place_lon": "2.140368", "journeys": [17040, 36360, 17220], "duration_median": 17220, "duration_min": 17040, "duration_max": 36360}, "spain_19": {"place_id": "spain_19", "place_name": "Tarragona", "place_lat": "41.192026", "place_lon": "1.271587", "journeys": [14880, 33600, 15180], "duration_median": 15180, "duration_min": 14880, "duration_max": 33600}, "spain_20": {"place_id": "spain_20", "place_name": "Madrid", "place_lat": "40.472151", "place_lon": "-3.68235", "journeys": [8220, 7920, 7920, 7620, 7320, 7320], "duration_median": 7770.0, "duration_min": 7320, "duration_max": 8220}, "spain_55": {"place_id": "spain_55", "place_name": "Zaragoza", "place_lat": "41.65844", "place_lon": "-0.909906", "journeys": [10740, 10560, 11880], "duration_median": 10740, "duration_min": 10560, "duration_max": 11880}, "spain_97": {"place_id": "spain_97", "place_name": "Seville", "place_lat": "37.391926", "place_lon": "-5.975265", "journeys": [3060, 2940, 5040], "duration_median": 3060, "duration_min": 2940, "duration_max": 5040}, "spain_162": {"place_id": "spain_162", "place_name": "Algeciras", "place_lat": "36.126721", "place_lon": "-5.450996", "journeys": [12060, 12060, 12060], "duration_median": 12060, "duration_min": 12060, "duration_max": 12060}}, "spain_97": {"spain_1": {"place_id": "spain_1", "place_name": "Barcelona", "place_lat": "41.378911", "place_lon": "2.140368", "journeys": [20520, 39900, 21960], "duration_median": 21960, "duration_min": 20520, "duration_max": 39900}, "spain_19": {"place_id": "spain_19", "place_name": "Tarragona", "place_lat": "41.192026", "place_lon": "1.271587", "journeys": [18360, 37140, 19440], "duration_median": 19440, "duration_min": 18360, "duration_max": 37140}, "spain_20": {"place_id": "spain_20", "place_name": "Madrid", "place_lat": "40.472151", "place_lon": "-3.68235", "journeys": [11220, 10920, 11940, 10620, 10320, 11340], "duration_median": 11070.0, "duration_min": 10320, "duration_max": 11940}, "spain_55": {"place_id": "spain_55", "place_name": "Zaragoza", "place_lat": "41.65844", "place_lon": "-0.909906", "journeys": [14220, 15360, 14220], "duration_median": 14220, "duration_min": 14220, "duration_max": 15360}, "spain_96": {"place_id": "spain_96", "place_name": "Cordoba", "place_lat": "37.888589", "place_lon": "-4.789596", "journeys": [2880, 2880, 2880], "duration_median": 2880, "duration_min": 2880, "duration_max": 2880}}, "spain_104": {"france_151": {"place_id": "france_151", "place_name": "Cerbere", "place_lat": "42.441661", "place_lon": "3.163187", "journeys": [1740, 1740, 1740], "duration_median": 1740, "duration_min": 1740, "duration_max": 1740}, "spain_1": {"place_id": "spain_1", "place_name": "Barcelona", "place_lat": "41.378911", "place_lon": "2.140368", "journeys": [7320, 7140, 7860, 3300, 3300, 3300], "duration_median": 5220.0, "duration_min": 3300, "duration_max": 7860}, "spain_105": {"place_id": "spain_105", "place_name": "Girona", "place_lat": "41.979517", "place_lon": "2.816482", "journeys": [1980, 1860, 2340, 840, 840, 840], "duration_median": 1350.0, "duration_min": 840, "duration_max": 2340}, "spain_805": {"place_id": "spain_805", "place_name": "Llanca", "place_lat": "42.366691", "place_lon": "3.149101", "journeys": [840, 840, 840], "duration_median": 840, "duration_min": 840, "duration_max": 840}, "spain_806": {"place_id": "spain_806", "place_name": "Portbou", "place_lat": "42.424725", "place_lon": "3.157848", "journeys": [1440, 1320, 1440], "duration_median": 1440, "duration_min": 1320, "duration_max": 1440}, "france_19": {"place_id": "france_19", "place_name": "Paris", "place_lat": "48.861496", "place_lon": "2.333681", "journeys": [20820, 20880, 20820, 20820, 20880, 20820], "duration_median": 20820.0, "duration_min": 20820, "duration_max": 20880}, "france_93": {"place_id": "france_93", "place_name": "Lyon", "place_lat": "45.702255", "place_lon": "4.863811", "journeys": [14280, 14280, 14280, 14280, 14280, 14280], "duration_median": 14280.0, "duration_min": 14280, "duration_max": 14280}, "france_105": {"place_id": "france_105", "place_name": "Marseille", "place_lat": "43.303816", "place_lon": "5.38195", "journeys": [14280, 14280, 14280], "duration_median": 14280, "duration_min": 14280, "duration_max": 14280}, "france_123": {"place_id": "france_123", "place_name": "Montpellier", "place_lat": "43.599651", "place_lon": "3.899979", "journeys": [7440, 7980, 7980], "duration_median": 7980, "duration_min": 7440, "duration_max": 7980}, "france_124": {"place_id": "france_124", "place_name": "Sete", "place_lat": "43.412811", "place_lon": "3.696535", "journeys": [6900, 6840, 6900], "duration_median": 6900, "duration_min": 6840, "duration_max": 6900}, "france_125": {"place_id": "france_125", "place_name": "Nimes", "place_lat": "43.821397", "place_lon": "4.441912", "journeys": [9240, 9840, 10080, 9240, 9840, 10080], "duration_median": 9840.0, "duration_min": 9240, "duration_max": 10080}, "france_127": {"place_id": "france_127", "place_name": "Narbonne", "place_lat": "43.1904", "place_lon": "3.006011", "journeys": [3900, 4080, 4140], "duration_median": 4080, "duration_min": 3900, "duration_max": 4140}, "france_145": {"place_id": "france_145", "place_name": "Perpignan", "place_lat": "42.695939", "place_lon": "2.879398", "journeys": [1560, 1440, 1320], "duration_median": 1440, "duration_min": 1320, "duration_max": 1560}, "spain_19": {"place_id": "spain_19", "place_name": "Tarragona", "place_lat": "41.192026", "place_lon": "1.271587", "journeys": [5940, 5820, 5820], "duration_median": 5820, "duration_min": 5820, "duration_max": 5940}, "spain_20": {"place_id": "spain_20", "place_name": "Madrid", "place_lat": "40.472151", "place_lon": "-3.68235", "journeys": [14400, 14400, 15120, 13800, 13800, 14520], "duration_median": 14400.0, "duration_min": 13800, "duration_max": 15120}, "spain_55": {"place_id": "spain_55", "place_name": "Zaragoza", "place_lat": "41.65844", "place_lon": "-0.909906", "journeys": [8880, 8880, 9540], "duration_median": 8880, "duration_min": 8880, "duration_max": 9540}}, "spain_105": {"france_19": {"place_id": "france_19", "place_name": "Paris", "place_lat": "48.861496", "place_lon": "2.333681", "journeys": [21840, 21900, 21840, 21840, 21900, 21840], "duration_median": 21840.0, "duration_min": 21840, "duration_max": 21900}, "france_93": {"place_id": "france_93", "place_name": "Lyon", "place_lat": "45.702255", "place_lon": "4.863811", "journeys": [15420, 15420, 15420, 15420, 15420, 15420], "duration_median": 15420.0, "duration_min": 15420, "duration_max": 15420}, "france_105": {"place_id": "france_105", "place_name": "Marseille", "place_lat": "43.303816", "place_lon": "5.38195", "journeys": [15300, 15300, 15300], "duration_median": 15300, "duration_min": 15300, "duration_max": 15300}, "france_123": {"place_id": "france_123", "place_name": "Montpellier", "place_lat": "43.599651", "place_lon": "3.899979", "journeys": [8580, 9000, 9000], "duration_median": 9000, "duration_min": 8580, "duration_max": 9000}, "france_124": {"place_id": "france_124", "place_name": "Sete", "place_lat": "43.412811", "place_lon": "3.696535", "journeys": [7920, 7860, 7920], "duration_median": 7920, "duration_min": 7860, "duration_max": 7920}, "france_125": {"place_id": "france_125", "place_name": "Nimes", "place_lat": "43.821397", "place_lon": "4.441912", "journeys": [10380, 10860, 11100, 10380, 10860, 11100], "duration_median": 10860.0, "duration_min": 10380, "duration_max": 11100}, "france_127": {"place_id": "france_127", "place_name": "Narbonne", "place_lat": "43.1904", "place_lon": "3.006011", "journeys": [5040, 5100, 5160], "duration_median": 5100, "duration_min": 5040, "duration_max": 5160}, "france_145": {"place_id": "france_145", "place_name": "Perpignan", "place_lat": "42.695939", "place_lon": "2.879398", "journeys": [2700, 2460, 2340], "duration_median": 2460, "duration_min": 2340, "duration_max": 2700}, "france_151": {"place_id": "france_151", "place_name": "Cerbere", "place_lat": "42.441661", "place_lon": "3.163187", "journeys": [4080, 4080, 4080], "duration_median": 4080, "duration_min": 4080, "duration_max": 4080}, "spain_1": {"place_id": "spain_1", "place_name": "Barcelona", "place_lat": "41.378911", "place_lon": "2.140368", "journeys": [2340, 5220, 5160], "duration_median": 5160, "duration_min": 2340, "duration_max": 5220}, "spain_19": {"place_id": "spain_19", "place_name": "Tarragona", "place_lat": "41.192026", "place_lon": "1.271587", "journeys": [4980, 4800, 4860], "duration_median": 4860, "duration_min": 4800, "duration_max": 4980}, "spain_20": {"place_id": "spain_20", "place_name": "Madrid", "place_lat": "40.472151", "place_lon": "-3.68235", "journeys": [13440, 13440, 14100, 12840, 12840, 13500], "duration_median": 13440.0, "duration_min": 12840, "duration_max": 14100}, "spain_55": {"place_id": "spain_55", "place_name": "Zaragoza", "place_lat": "41.65844", "place_lon": "-0.909906", "journeys": [7920, 7920, 8520], "duration_median": 7920, "duration_min": 7920, "duration_max": 8520}, "spain_104": {"place_id": "spain_104", "place_name": "Figueres", "place_lat": "42.264951", "place_lon": "2.969272", "journeys": [2280, 1740, 2280, 840, 900, 960], "duration_median": 1350.0, "duration_min": 840, "duration_max": 2280}, "spain_805": {"place_id": "spain_805", "place_name": "Llanca", "place_lat": "42.366691", "place_lon": "3.149101", "journeys": [3180, 2640, 3180], "duration_median": 3180, "duration_min": 2640, "duration_max": 3180}, "spain_806": {"place_id": "spain_806", "place_name": "Portbou", "place_lat": "42.424725", "place_lon": "3.157848", "journeys": [3780, 3120, 3780], "duration_median": 3780, "duration_min": 3120, "duration_max": 3780}}, "spain_139": {"spain_20": {"place_id": "spain_20", "place_name": "Madrid", "place_lat": "40.472151", "place_lon": "-3.68235", "journeys": [16320, 16260, 16320, 19020, 18960, 19020], "duration_median": 17640.0, "duration_min": 16260, "duration_max": 19020}, "spain_44": {"place_id": "spain_44", "place_name": "San Sebastian", "place_lat": "43.317669", "place_lon": "-1.976782", "journeys": [1680, 1620, 1500], "duration_median": 1620, "duration_min": 1500, "duration_max": 1680}}, "spain_162": {"spain_20": {"place_id": "spain_20", "place_name": "Madrid", "place_lat": "40.472151", "place_lon": "-3.68235", "journeys": [21960, 21960, 21960, 21360, 21360, 21360], "duration_median": 21660.0, "duration_min": 21360, "duration_max": 21960}, "spain_96": {"place_id": "spain_96", "place_name": "Cordoba", "place_lat": "37.888589", "place_lon": "-4.789596", "journeys": [11940, 11940, 11940], "duration_median": 11940, "duration_min": 11940, "duration_max": 11940}}, "spain_742": {"spain_55": {"place_id": "spain_55", "place_name": "Zaragoza", "place_lat": "41.65844", "place_lon": "-0.909906", "journeys": [8400, 8160, 7800], "duration_median": 8160, "duration_min": 7800, "duration_max": 8400}}, "spain_805": {"france_151": {"place_id": "france_151", "place_name": "Cerbere", "place_lat": "42.441661", "place_lon": "3.163187", "journeys": [900, 900, 900], "duration_median": 900, "duration_min": 900, "duration_max": 900}, "spain_1": {"place_id": "spain_1", "place_name": "Barcelona", "place_lat": "41.378911", "place_lon": "2.140368", "journeys": [8760, 8760, 8760], "duration_median": 8760, "duration_min": 8760, "duration_max": 8760}, "spain_104": {"place_id": "spain_104", "place_name": "Figueres", "place_lat": "42.264951", "place_lon": "2.969272", "journeys": [840, 840, 840], "duration_median": 840, "duration_min": 840, "duration_max": 840}, "spain_105": {"place_id": "spain_105", "place_name": "Girona", "place_lat": "41.979517", "place_lon": "2.816482", "journeys": [3240, 3240, 3240], "duration_median": 3240, "duration_min": 3240, "duration_max": 3240}, "spain_806": {"place_id": "spain_806", "place_name": "Portbou", "place_lat": "42.424725", "place_lon": "3.157848", "journeys": [600, 480, 600], "duration_median": 600, "duration_min": 480, "duration_max": 600}}, "spain_806": {"france_38": {"place_id": "france_38", "place_name": "Toulouse", "place_lat": "43.611409", "place_lon": "1.453942", "journeys": [13860, 13140, 13200], "duration_median": 13200, "duration_min": 13140, "duration_max": 13860}, "france_72": {"place_id": "france_72", "place_name": "Carcassonne", "place_lat": "43.218185", "place_lon": "2.351794", "journeys": [9900, 9420, 9480], "duration_median": 9480, "duration_min": 9420, "duration_max": 9900}, "france_123": {"place_id": "france_123", "place_name": "Montpellier", "place_lat": "43.599651", "place_lon": "3.899979", "journeys": [11040, 11040, 11100], "duration_median": 11040, "duration_min": 11040, "duration_max": 11100}, "france_124": {"place_id": "france_124", "place_name": "Sete", "place_lat": "43.412811", "place_lon": "3.696535", "journeys": [9840, 9840, 9900], "duration_median": 9840, "duration_min": 9840, "duration_max": 9900}, "france_125": {"place_id": "france_125", "place_name": "Nimes", "place_lat": "43.821397", "place_lon": "4.441912", "journeys": [13320, 13380, 13320, 13320, 13380, 13320, 13920, 14040, 13920], "duration_median": 13380, "duration_min": 13320, "duration_max": 14040}, "france_127": {"place_id": "france_127", "place_name": "Narbonne", "place_lat": "43.1904", "place_lon": "3.006011", "journeys": [6540, 6540, 6600], "duration_median": 6540, "duration_min": 6540, "duration_max": 6600}, "france_145": {"place_id": "france_145", "place_name": "Perpignan", "place_lat": "42.695939", "place_lon": "2.879398", "journeys": [3600, 3600, 3600], "duration_median": 3600, "duration_min": 3600, "duration_max": 3600}, "france_148": {"place_id": "france_148", "place_name": "Collioure", "place_lat": "42.526906", "place_lon": "3.078077", "journeys": [2160, 2100, 2160], "duration_median": 2160, "duration_min": 2100, "duration_max": 2160}, "france_151": {"place_id": "france_151", "place_name": "Cerbere", "place_lat": "42.441661", "place_lon": "3.163187", "journeys": [420, 240, 360], "duration_median": 360, "duration_min": 240, "duration_max": 420}, "spain_1": {"place_id": "spain_1", "place_name": "Barcelona", "place_lat": "41.378911", "place_lon": "2.140368", "journeys": [9300, 9300, 9300], "duration_median": 9300, "duration_min": 9300, "duration_max": 9300}, "spain_104": {"place_id": "spain_104", "place_name": "Figueres", "place_lat": "42.264951", "place_lon": "2.969272", "journeys": [1380, 1380, 1380], "duration_median": 1380, "duration_min": 1380, "duration_max": 1380}, "spain_105": {"place_id": "spain_105", "place_name": "Girona", "place_lat": "41.979517", "place_lon": "2.816482", "journeys": [3780, 3780, 3780], "duration_median": 3780, "duration_min": 3780, "duration_max": 3780}, "spain_805": {"place_id": "spain_805", "place_name": "Llanca", "place_lat": "42.366691", "place_lon": "3.149101", "journeys": [540, 540, 540], "duration_median": 540, "duration_min": 540, "duration_max": 540}}}