{"place_id": "austria_2", "place_name": "Salzburg", "place_lat": "47.813848", "place_lon": "13.045514", "place_brief_desc": "The birthplace of Mozart and the setting of The Sound of Music, Salzburg is a charming city with a baroque flair. You can explore the historic Old Town, which is a UNESCO World Heritage Site, or visit the Hohensalzburg Fortress, which offers panoramic views of the city and the surrounding mountains. You can also take a day trip to the nearby Salzkammergut region, where you can enjoy the crystal-clear lakes and picturesque villages.", "place_longer_desc": "../static/places/salzburg.html", "place_image": "../static/images/salzburg.png", "place_tags": "history", "place_links": "https://www.lonelyplanet.com/search?q=Salzburg", "place_country": "Austria", "hops": {"Germany_4": {"place_id": "Germany_4", "place_name": "Munich", "place_lat": "48.140364", "place_lon": "11.558744", "journeys": [6000, 8520, 6660], "duration_median": 6660, "duration_min": 6000, "duration_max": 8520}, "Germany_8": {"place_id": "Germany_8", "place_name": "Heidelberg", "place_lat": "49.403582", "place_lon": "8.67548", "journeys": [18060, 17040, 17040], "duration_median": 17040, "duration_min": 17040, "duration_max": 18060}, "austria_1": {"place_id": "austria_1", "place_name": "Vienna", "place_lat": "48.207037", "place_lon": "16.341553", "journeys": [10440, 10260, 10260, 10440, 10260, 10260], "duration_median": 10260.0, "duration_min": 10260, "duration_max": 10440}, "austria_3": {"place_id": "austria_3", "place_name": "Graz", "place_lat": "47.072301", "place_lon": "15.416437", "journeys": [14700, 14700, 14700], "duration_median": 14700, "duration_min": 14700, "duration_max": 14700}, "austria_4": {"place_id": "austria_4", "place_name": "Innsbruck", "place_lat": "47.263331", "place_lon": "11.400506", "journeys": [10860, 6480, 8400], "duration_median": 8400, "duration_min": 6480, "duration_max": 10860}, "austria_5": {"place_id": "austria_5", "place_name": "Bregenz", "place_lat": "47.503001", "place_lon": "9.739623", "journeys": [15000, 16620, 21420], "duration_median": 16620, "duration_min": 15000, "duration_max": 21420}, "switzerland_6": {"place_id": "switzerland_6", "place_name": "Zurich", "place_lat": "47.378968", "place_lon": "8.540534", "journeys": [25980, 35940, 32340, 25980, 35940, 32340], "duration_median": 32340.0, "duration_min": 25980, "duration_max": 35940}, "france_19": {"place_id": "france_19", "place_name": "Paris", "place_lat": "48.861496", "place_lon": "2.333681", "journeys": [44100, 44100, 45900], "duration_median": 44100, "duration_min": 44100, "duration_max": 45900}, "france_162": {"place_id": "france_162", "place_name": "Strasbourg", "place_lat": "48.585339", "place_lon": "7.734067", "journeys": [27300], "duration_median": 27300, "duration_min": 27300, "duration_max": 27300}}}