{"place_id": "austria_1", "place_name": "Vienna", "place_lat": "48.207037", "place_lon": "16.341553", "place_brief_desc": "The capital of Austria is a must-see for any visitor. Vienna has something for everyone, from art and music to architecture and cuisine. You can admire the majestic Sch\u00c3\u00b6nbrunn Palace, the former residence of the Habsburgs, or visit the Belvedere Palace, which houses the largest collection of Gustav Klimt's paintings. You can also enjoy the green spaces of Vienna, such as the Prater park or the Gardens of Mirabell Palace.", "place_longer_desc": "./static/places/vienna.html", "place_image": "./static/images/vienna.png", "place_tags": "history", "place_links": "https://www.lonelyplanet.com/search?q=Vienna", "place_country": "Austria", "hops": {"Germany_1": {"place_id": "Germany_1", "place_name": "Berlin", "place_lat": "52.524924", "place_lon": "13.369629", "journeys": [27600, 31560, 44340, 27600, 31560, 44340, 27600, 31560, 44340, 27600, 31560, 44340], "duration_median": 31560.0, "duration_min": 27600, "duration_max": 44340}, "Germany_2": {"place_id": "Germany_2", "place_name": "Dresden", "place_lat": "51.040221", "place_lon": "13.731409", "journeys": [24180, 24180, 24180, 24180, 24180, 24180], "duration_median": 24180.0, "duration_min": 24180, "duration_max": 24180}, "Germany_3": {"place_id": "Germany_3", "place_name": "Nuremberg", "place_lat": "49.450748", "place_lon": "11.077955", "journeys": [16680, 15240, 15300, 16680, 15240, 15300, 16680, 15240, 15300, 16680, 15240, 15300], "duration_median": 15300.0, "duration_min": 15240, "duration_max": 16680}, "Germany_4": {"place_id": "Germany_4", "place_name": "Munich", "place_lat": "48.140364", "place_lon": "11.558744", "journeys": [25200, 14700, 14700, 25200, 14700, 14580], "duration_median": 14700.0, "duration_min": 14580, "duration_max": 25200}, "Germany_5": {"place_id": "Germany_5", "place_name": "Cologne", "place_lat": "50.941312", "place_lon": "6.967206", "journeys": [34200, 32460, 32520, 34200, 32460, 32520], "duration_median": 32520.0, "duration_min": 32460, "duration_max": 34200}, "Germany_7": {"place_id": "Germany_7", "place_name": "Hamburg", "place_lat": "53.55711", "place_lon": "9.997434", "journeys": [34680, 51060, 34680, 34680, 51060, 34680, 34680, 51060, 34680, 34680, 51060, 34680], "duration_median": 34680.0, "duration_min": 34680, "duration_max": 51060}, "Germany_9": {"place_id": "Germany_9", "place_name": "Aachen", "place_lat": "50.767641", "place_lon": "6.09119", "journeys": [40260, 40260, 40260, 40260, 40260, 40260], "duration_median": 40260.0, "duration_min": 40260, "duration_max": 40260}, "czechia_1": {"place_id": "czechia_1", "place_name": "Prague", "place_lat": "50.081926", "place_lon": "14.451481", "journeys": [14940, 14460, 14460, 14940, 14460, 14460, 14940, 14460, 14460, 14940, 14460, 14460], "duration_median": 14460.0, "duration_min": 14460, "duration_max": 14940}, "czechia_5": {"place_id": "czechia_5", "place_name": "Brno", "place_lat": "49.190537", "place_lon": "16.612776", "journeys": [5280, 5160, 5160, 5280, 5160, 5160], "duration_median": 5160.0, "duration_min": 5160, "duration_max": 5280}, "austria_2": {"place_id": "austria_2", "place_name": "Salzburg", "place_lat": "47.813848", "place_lon": "13.045514", "journeys": [9900, 9900, 8700, 9900, 9900, 8700], "duration_median": 9900.0, "duration_min": 8700, "duration_max": 9900}, "austria_3": {"place_id": "austria_3", "place_name": "Graz", "place_lat": "47.072301", "place_lon": "15.416437", "journeys": [9660, 9660, 10620, 10620, 9660, 9660, 10620, 10620], "duration_median": 10140.0, "duration_min": 9660, "duration_max": 10620}, "austria_4": {"place_id": "austria_4", "place_name": "Innsbruck", "place_lat": "47.263331", "place_lon": "11.400506", "journeys": [15660, 15360, 15660, 15360, 15360, 21540], "duration_median": 15510.0, "duration_min": 15360, "duration_max": 21540}, "austria_5": {"place_id": "austria_5", "place_name": "Bregenz", "place_lat": "47.503001", "place_lon": "9.739623", "journeys": [25980, 36780, 33180, 25980, 36780, 33180], "duration_median": 33180.0, "duration_min": 25980, "duration_max": 36780}, "switzerland_6": {"place_id": "switzerland_6", "place_name": "Zurich", "place_lat": "47.378968", "place_lon": "8.540534", "journeys": [36960, 46920, 43320, 36960, 46920, 43320, 36960, 46920, 43320, 36960, 46920, 43320], "duration_median": 43320.0, "duration_min": 36960, "duration_max": 46920}, "france_19": {"place_id": "france_19", "place_name": "Paris", "place_lat": "48.861496", "place_lon": "2.333681", "journeys": [53820, 53820, 55620, 53820, 53820, 55620], "duration_median": 53820.0, "duration_min": 53820, "duration_max": 55620}, "france_162": {"place_id": "france_162", "place_name": "Strasbourg", "place_lat": "48.585339", "place_lon": "7.734067", "journeys": [37020, 37020], "duration_median": 37020.0, "duration_min": 37020, "duration_max": 37020}}}