{"place_id": "austria_4", "place_name": "Innsbruck", "place_lat": "47.263331", "place_lon": "11.400506", "place_brief_desc": "The capital of Tyrol, Innsbruck is a paradise for outdoor enthusiasts and winter sports lovers. You can ski or snowboard on the slopes of the Nordkette mountain range, or hike and bike in the summer. You can also visit the Golden Roof, the landmark of Innsbruck that was built by Emperor Maximilian I, or enjoy the cultural attractions of the city, such as the Hofburg palace or the Tyrolean Folk Art Museum.", "place_longer_desc": "../static/places/innsbruck.html", "place_image": "../static/images/innsbruck.png", "place_tags": "history", "place_links": "https://www.lonelyplanet.com/search?q=Innsbruck", "place_country": "Austria", "hops": {"Germany_3": {"place_id": "Germany_3", "place_name": "Nuremberg", "place_lat": "49.450748", "place_lon": "11.077955", "journeys": [15000, 15000, 15000, 15000, 15000, 15000], "duration_median": 15000.0, "duration_min": 15000, "duration_max": 15000}, "Germany_4": {"place_id": "Germany_4", "place_name": "Munich", "place_lat": "48.140364", "place_lon": "11.558744", "journeys": [6300, 6540, 6420], "duration_median": 6420, "duration_min": 6300, "duration_max": 6540}, "Germany_5": {"place_id": "Germany_5", "place_name": "Cologne", "place_lat": "50.941312", "place_lon": "6.967206", "journeys": [40440, 39120, 36420], "duration_median": 39120, "duration_min": 36420, "duration_max": 40440}, "Germany_7": {"place_id": "Germany_7", "place_name": "Hamburg", "place_lat": "53.55711", "place_lon": "9.997434", "journeys": [35760, 49080, 35760, 35760, 49080, 35760], "duration_median": 35760.0, "duration_min": 35760, "duration_max": 49080}, "austria_1": {"place_id": "austria_1", "place_name": "Vienna", "place_lat": "48.207037", "place_lon": "16.341553", "journeys": [19920, 15960, 15660, 19920, 19920, 22500], "duration_median": 19920.0, "duration_min": 15660, "duration_max": 22500}, "austria_2": {"place_id": "austria_2", "place_name": "Salzburg", "place_lat": "47.813848", "place_lon": "13.045514", "journeys": [11280, 10800, 6900], "duration_median": 10800, "duration_min": 6900, "duration_max": 11280}, "austria_3": {"place_id": "austria_3", "place_name": "Graz", "place_lat": "47.072301", "place_lon": "15.416437", "journeys": [21600, 21600, 21600], "duration_median": 21600, "duration_min": 21600, "duration_max": 21600}}}