{"place_id": "czechia_5", "place_name": "Brno", "place_lat": "49.190537", "place_lon": "16.612776", "place_brief_desc": "The second largest city and the cultural hub of the Czech Republic, Brno is located in the southeast of the country. Brno has a vibrant nightlife, a modern art scene, and a variety of museums and galleries. You can also visit the nearby Moravian Karst, a natural wonder with caves and gorges. You can take a direct train from Prague to Brno in about two and a half hours.", "place_longer_desc": "../static/places/brno.html", "place_image": "../static/images/brno.png", "place_tags": "history", "place_links": "https://www.lonelyplanet.com/search?q=Brno", "place_country": "Czechia", "hops": {"Germany_1": {"place_id": "Germany_1", "place_name": "Berlin", "place_lat": "52.524924", "place_lon": "13.369629", "journeys": [26640, 26280, 26640, 26640, 26280, 26640], "duration_median": 26640.0, "duration_min": 26280, "duration_max": 26640}, "Germany_2": {"place_id": "Germany_2", "place_name": "Dresden", "place_lat": "51.040221", "place_lon": "13.731409", "journeys": [18840, 18900, 18840], "duration_median": 18840, "duration_min": 18840, "duration_max": 18900}, "Germany_7": {"place_id": "Germany_7", "place_name": "Hamburg", "place_lat": "53.55711", "place_lon": "9.997434", "journeys": [34740, 34740, 34740, 34740, 34740, 34740], "duration_median": 34740.0, "duration_min": 34740, "duration_max": 34740}, "czechia_1": {"place_id": "czechia_1", "place_name": "Prague", "place_lat": "50.081926", "place_lon": "14.451481", "journeys": [10500, 9900, 9180, 10500, 9900, 9180], "duration_median": 9900.0, "duration_min": 9180, "duration_max": 10500}, "czechia_4": {"place_id": "czechia_4", "place_name": "Kutna Hora", "place_lat": "49.961839", "place_lon": "15.300854", "journeys": [9540, 9540, 9540], "duration_median": 9540, "duration_min": 9540, "duration_max": 9540}, "czechia_7": {"place_id": "czechia_7", "place_name": "Olomouc", "place_lat": "49.593128", "place_lon": "17.277932", "journeys": [5460, 8160, 5700], "duration_median": 5700, "duration_min": 5460, "duration_max": 8160}, "austria_1": {"place_id": "austria_1", "place_name": "Vienna", "place_lat": "48.207037", "place_lon": "16.341553", "journeys": [5220, 5580, 5220, 5220, 5580, 5220], "duration_median": 5220.0, "duration_min": 5220, "duration_max": 5580}, "austria_3": {"place_id": "austria_3", "place_name": "Graz", "place_lat": "47.072301", "place_lon": "15.416437", "journeys": [15420, 15420, 15420], "duration_median": 15420, "duration_min": 15420, "duration_max": 15420}}}