{"place_id": "france_106", "place_name": "Arles", "place_lat": "43.6853590", "place_lon": "4.63210900", "place_brief_desc": "Arles, spiritual capital of Provence, is located where the mighty Rh\u00c3\u00b4ne meets the Camargue and was founded by the veterans of Julius Caesar's crack Sixth legion. And while it has world class Roman buildings (that are still in active use today), it's probably more famous for being the place where Vincent Van Gogh came in search of light - the art world hasn't been the same since.", "place_longer_desc": "../static/places/arles.html", "place_image": "../static/images/arles.png", "place_tags": "history|art", "place_links": "https://www.lonelyplanet.com/search?q=Arles", "place_country": "France", "hops": {"france_19": {"place_id": "france_19", "place_name": "Paris", "place_lat": "48.861496", "place_lon": "2.333681", "journeys": [14580, 15000, 15000, 14580, 15000, 15000], "duration_median": 15000.0, "duration_min": 14580, "duration_max": 15000}, "france_24": {"place_id": "france_24", "place_name": "Bordeaux", "place_lat": "44.82649", "place_lon": "-0.55592", "journeys": [19260, 19440, 19260], "duration_median": 19260, "duration_min": 19260, "duration_max": 19440}, "france_38": {"place_id": "france_38", "place_name": "Toulouse", "place_lat": "43.611409", "place_lon": "1.453942", "journeys": [11220, 11340, 11220], "duration_median": 11220, "duration_min": 11220, "duration_max": 11340}, "france_72": {"place_id": "france_72", "place_name": "Carcassonne", "place_lat": "43.218185", "place_lon": "2.351794", "journeys": [8520, 8700, 8520], "duration_median": 8520, "duration_min": 8520, "duration_max": 8700}, "france_93": {"place_id": "france_93", "place_name": "Lyon", "place_lat": "45.702255", "place_lon": "4.863811", "journeys": [7080, 10140, 10080, 10140, 10080, 10140], "duration_median": 10110.0, "duration_min": 7080, "duration_max": 10140}, "france_105": {"place_id": "france_105", "place_name": "Marseille", "place_lat": "43.303816", "place_lon": "5.38195", "journeys": [4080, 3180, 4080], "duration_median": 4080, "duration_min": 3180, "duration_max": 4080}, "france_123": {"place_id": "france_123", "place_name": "Montpellier", "place_lat": "43.599651", "place_lon": "3.899979", "journeys": [3120, 4140, 3180], "duration_median": 3180, "duration_min": 3120, "duration_max": 4140}, "france_124": {"place_id": "france_124", "place_name": "Sete", "place_lat": "43.412811", "place_lon": "3.696535", "journeys": [4200, 4260, 5700], "duration_median": 4260, "duration_min": 4200, "duration_max": 5700}, "france_125": {"place_id": "france_125", "place_name": "Nimes", "place_lat": "43.821397", "place_lon": "4.441912", "journeys": [1440, 1260, 1560, 1440, 1860, 1560, 1260, 1260, 1320], "duration_median": 1440, "duration_min": 1260, "duration_max": 1860}, "france_127": {"place_id": "france_127", "place_name": "Narbonne", "place_lat": "43.1904", "place_lon": "3.006011", "journeys": [6600, 6720, 8760], "duration_median": 6720, "duration_min": 6600, "duration_max": 8760}, "france_160": {"place_id": "france_160", "place_name": "Orange", "place_lat": "44.137557", "place_lon": "4.819396", "journeys": [2100, 2100, 2700], "duration_median": 2100, "duration_min": 2100, "duration_max": 2700}}}