{"place_id": "france_19", "place_name": "Paris", "place_lat": "48.8404960", "place_lon": "2.36707900", "place_brief_desc": "We\u00e2\u20ac\u2122ll always have Paris' - Casablanca ", "place_longer_desc": "./static/places/paris.html", "place_image": "./static/images/paris.png", "place_tags": "history|kids|city break", "place_links": "https://www.lonelyplanet.com/search?q=Paris", "place_country": "France", "hops": {"Germany_4": {"place_id": "Germany_4", "place_name": "Munich", "place_lat": "48.140364", "place_lon": "11.558744", "journeys": [20040, 20580, 40800, 20040, 20580, 40800, 21840, 22380, 42600], "duration_median": 21840, "duration_min": 20040, "duration_max": 42600}, "Germany_5": {"place_id": "Germany_5", "place_name": "Cologne", "place_lat": "50.941312", "place_lon": "6.967206", "journeys": [12600, 12420, 12180, 14400, 14220, 13980, 12600, 12420, 12180], "duration_median": 12600, "duration_min": 12180, "duration_max": 14400}, "Germany_6": {"place_id": "Germany_6", "place_name": "Freiburg", "place_lat": "47.997974", "place_lon": "7.841344", "journeys": [13440, 11280, 13500, 13440, 11280, 13500, 15240, 13080, 15300], "duration_median": 13440, "duration_min": 11280, "duration_max": 15300}, "Germany_9": {"place_id": "Germany_9", "place_name": "Aachen", "place_lat": "50.767641", "place_lon": "6.09119", "journeys": [10140, 10020, 9780, 11940, 11820, 11580, 10140, 10020, 9780], "duration_median": 10140, "duration_min": 9780, "duration_max": 11940}, "austria_1": {"place_id": "austria_1", "place_name": "Vienna", "place_lat": "48.207037", "place_lon": "16.341553", "journeys": [54900, 54900, 54900, 54900, 56700, 56700], "duration_median": 54900.0, "duration_min": 54900, "duration_max": 56700}, "austria_2": {"place_id": "austria_2", "place_name": "Salzburg", "place_lat": "47.813848", "place_lon": "13.045514", "journeys": [44880, 44880, 46680], "duration_median": 44880, "duration_min": 44880, "duration_max": 46680}, "switzerland_3": {"place_id": "switzerland_3", "place_name": "Geneva", "place_lat": "46.210209", "place_lon": "6.142455", "journeys": [11460, 11460, 11520, 11460, 11460, 11520], "duration_median": 11460.0, "duration_min": 11460, "duration_max": 11520}, "switzerland_6": {"place_id": "switzerland_6", "place_name": "Zurich", "place_lat": "47.378968", "place_lon": "8.540534", "journeys": [14640, 14640, 14640, 14640, 14640, 14640, 14640, 14640, 14640, 14640, 14640, 14640], "duration_median": 14640.0, "duration_min": 14640, "duration_max": 14640}, "france_2": {"place_id": "france_2", "place_name": "Versailles", "place_lat": "48.795183", "place_lon": "2.136107", "journeys": [1500, 1560, 1500, 1500, 1560, 1500], "duration_median": 1500.0, "duration_min": 1500, "duration_max": 1560}, "france_4": {"place_id": "france_4", "place_name": "Chartres", "place_lat": "48.448388", "place_lon": "1.480874", "journeys": [4500, 3660, 4500, 4500, 3660, 4500], "duration_median": 4500.0, "duration_min": 3660, "duration_max": 4500}, "france_6": {"place_id": "france_6", "place_name": "Rennes", "place_lat": "48.103175", "place_lon": "-1.672335", "journeys": [5640, 6960, 5520, 5640, 6960, 5520], "duration_median": 5640.0, "duration_min": 5520, "duration_max": 6960}, "france_10": {"place_id": "france_10", "place_name": "La Rochelle", "place_lat": "46.152426", "place_lon": "-1.145118", "journeys": [10680, 11220, 10920, 10680, 11220, 10920], "duration_median": 10920.0, "duration_min": 10680, "duration_max": 11220}, "france_24": {"place_id": "france_24", "place_name": "Bordeaux", "place_lat": "44.82649", "place_lon": "-0.55592", "journeys": [8220, 7860, 8640, 8220, 7860, 8640], "duration_median": 8220.0, "duration_min": 7860, "duration_max": 8640}, "france_28": {"place_id": "france_28", "place_name": "Limoges", "place_lat": "45.836419", "place_lon": "1.267245", "journeys": [12000, 12300, 11940], "duration_median": 12000, "duration_min": 11940, "duration_max": 12300}, "france_38": {"place_id": "france_38", "place_name": "Toulouse", "place_lat": "43.611409", "place_lon": "1.453942", "journeys": [15840, 16020, 15960, 15840, 16020, 15960], "duration_median": 15960.0, "duration_min": 15840, "duration_max": 16020}, "france_45": {"place_id": "france_45", "place_name": "Latour-de-Carol - Enveitg", "place_lat": "42.458732", "place_lon": "1.904778", "journeys": [43500, 39900], "duration_median": 41700.0, "duration_min": 39900, "duration_max": 43500}, "france_72": {"place_id": "france_72", "place_name": "Carcassonne", "place_lat": "43.218185", "place_lon": "2.351794", "journeys": [38460, 34860], "duration_median": 36660.0, "duration_min": 34860, "duration_max": 38460}, "france_80": {"place_id": "france_80", "place_name": "Lourdes", "place_lat": "43.100382", "place_lon": "-0.042159", "journeys": [17220, 17700, 17940, 17220, 17700, 17940], "duration_median": 17700.0, "duration_min": 17220, "duration_max": 17940}, "france_83": {"place_id": "france_83", "place_name": "Bayonne", "place_lat": "43.497084", "place_lon": "-1.470384", "journeys": [14520, 14460, 14400, 14520, 14460, 14400], "duration_median": 14460.0, "duration_min": 14400, "duration_max": 14520}, "france_85": {"place_id": "france_85", "place_name": "Hendaye", "place_lat": "43.353149", "place_lon": "-1.781959", "journeys": [17040, 16980, 16920, 17040, 16980, 16920], "duration_median": 16980.0, "duration_min": 16920, "duration_max": 17040}, "france_93": {"place_id": "france_93", "place_name": "Lyon", "place_lat": "45.702255", "place_lon": "4.863811", "journeys": [6960, 6960, 6660, 6960, 6960, 6960, 6960, 6960, 6660, 6960, 6960, 6960], "duration_median": 6960.0, "duration_min": 6660, "duration_max": 6960}, "france_97": {"place_id": "france_97", "place_name": "Vichy", "place_lat": "46.127014", "place_lon": "3.430679", "journeys": [10500, 10500, 10500], "duration_median": 10500, "duration_min": 10500, "duration_max": 10500}, "france_105": {"place_id": "france_105", "place_name": "Marseille", "place_lat": "43.303816", "place_lon": "5.38195", "journeys": [12300, 11880, 11100, 12300, 11880, 11100], "duration_median": 11880.0, "duration_min": 11100, "duration_max": 12300}, "france_106": {"place_id": "france_106", "place_name": "Arles", "place_lat": "43.685004", "place_lon": "4.632429", "journeys": [14520, 14520, 14640, 14520, 14520, 14640], "duration_median": 14520.0, "duration_min": 14520, "duration_max": 14640}, "france_123": {"place_id": "france_123", "place_name": "Montpellier", "place_lat": "43.599651", "place_lon": "3.899979", "journeys": [12540, 11520, 12600, 12540, 11520, 12600], "duration_median": 12540.0, "duration_min": 11520, "duration_max": 12600}, "france_124": {"place_id": "france_124", "place_name": "Sete", "place_lat": "43.412811", "place_lon": "3.696535", "journeys": [13740, 12660, 13800, 13740, 12660, 13800], "duration_median": 13740.0, "duration_min": 12660, "duration_max": 13800}, "france_125": {"place_id": "france_125", "place_name": "Nimes", "place_lat": "43.821397", "place_lon": "4.441912", "journeys": [10800, 10140, 10800, 10800, 10800, 10740, 10140, 10200, 10200, 10800, 10140, 10800, 10800, 10800, 10740, 10140, 10200, 10200], "duration_median": 10740.0, "duration_min": 10140, "duration_max": 10800}, "france_127": {"place_id": "france_127", "place_name": "Narbonne", "place_lat": "43.1904", "place_lon": "3.006011", "journeys": [16680, 15600, 16920, 16680, 15600, 16920], "duration_median": 16680.0, "duration_min": 15600, "duration_max": 16920}, "france_145": {"place_id": "france_145", "place_name": "Perpignan", "place_lat": "42.695939", "place_lon": "2.879398", "journeys": [18840, 17880, 18960, 18840, 17880, 18960], "duration_median": 18840.0, "duration_min": 17880, "duration_max": 18960}, "france_148": {"place_id": "france_148", "place_name": "Collioure", "place_lat": "42.526906", "place_lon": "3.078077", "journeys": [47880, 44280], "duration_median": 46080.0, "duration_min": 44280, "duration_max": 47880}, "france_151": {"place_id": "france_151", "place_name": "Cerbere", "place_lat": "42.441661", "place_lon": "3.163187", "journeys": [49200, 45600], "duration_median": 47400.0, "duration_min": 45600, "duration_max": 49200}, "france_160": {"place_id": "france_160", "place_name": "Orange", "place_lat": "44.137557", "place_lon": "4.819396", "journeys": [12240, 12240, 12240, 12240, 12240, 12240], "duration_median": 12240.0, "duration_min": 12240, "duration_max": 12240}, "france_161": {"place_id": "france_161", "place_name": "Nice", "place_lat": "43.704825", "place_lon": "7.261765", "journeys": [20520, 20160, 20880, 20520, 20160, 20880], "duration_median": 20520.0, "duration_min": 20160, "duration_max": 20880}, "france_162": {"place_id": "france_162", "place_name": "Strasbourg", "place_lat": "48.585339", "place_lon": "7.734067", "journeys": [6480, 6480, 7320, 6480, 6480, 7320, 8280, 8280, 9120], "duration_median": 7320, "duration_min": 6480, "duration_max": 9120}, "france_163": {"place_id": "france_163", "place_name": "Arras", "place_lat": "50.286889", "place_lon": "2.781829", "journeys": [2940, 2940, 2940, 4740, 4740, 4740, 2940, 2940, 2940], "duration_median": 2940, "duration_min": 2940, "duration_max": 4740}, "spain_1": {"place_id": "spain_1", "place_name": "Barcelona", "place_lat": "41.378911", "place_lon": "2.140368", "journeys": [24720, 23340, 24720, 24720, 23340, 24720], "duration_median": 24720.0, "duration_min": 23340, "duration_max": 24720}, "spain_104": {"place_id": "spain_104", "place_name": "Figueres", "place_lat": "42.26478", "place_lon": "2.943023", "journeys": [20700, 19860, 20700, 20700, 19860, 20700], "duration_median": 20700.0, "duration_min": 19860, "duration_max": 20700}, "spain_105": {"place_id": "spain_105", "place_name": "Girona", "place_lat": "41.979517", "place_lon": "2.816482", "journeys": [21840, 20880, 21840, 21840, 20880, 21840], "duration_median": 21840.0, "duration_min": 20880, "duration_max": 21840}}}