{"place_id": "france_93", "place_name": "Lyon", "place_lat": "45.7605960", "place_lon": "4.85940900", "place_brief_desc": "Lyon, France\u00e2\u20ac\u2122s third largest city and reputed gastronomic capital of the world, sits at the junction of the Rh\u00c3\u00b4ne and Sa\u00c3\u00b4ne rivers. Founded by the Romans, Lyon flourished in the late Middle Ages and has been a major centre for industry, commerce and banking for the last 500 years. The legacy of this wealth is on show through the fine set of buildings.", "place_longer_desc": "./static/places/lyon.html", "place_image": "./static/images/lyon.png", "place_tags": "history|food|city break", "place_links": "https://www.lonelyplanet.com/search?q=Lyon", "place_country": "France", "hops": {"switzerland_3": {"place_id": "switzerland_3", "place_name": "Geneva", "place_lat": "46.210209", "place_lon": "6.142455", "journeys": [7020, 7020, 7020, 7020, 7020, 7020], "duration_median": 7020.0, "duration_min": 7020, "duration_max": 7020}, "france_6": {"place_id": "france_6", "place_name": "Rennes", "place_lat": "48.103175", "place_lon": "-1.672335", "journeys": [13440, 13140, 13440, 13440, 13140, 13440], "duration_median": 13440.0, "duration_min": 13140, "duration_max": 13440}, "france_19": {"place_id": "france_19", "place_name": "Paris", "place_lat": "48.861496", "place_lon": "2.333681", "journeys": [6900, 7320, 6960, 6900, 7320, 6960, 6900, 7320, 6960, 6900, 7320, 6960], "duration_median": 6960.0, "duration_min": 6900, "duration_max": 7320}, "france_38": {"place_id": "france_38", "place_name": "Toulouse", "place_lat": "43.611409", "place_lon": "1.453942", "journeys": [15720, 14700, 14940, 15720, 14700, 14940], "duration_median": 14940.0, "duration_min": 14700, "duration_max": 15720}, "france_72": {"place_id": "france_72", "place_name": "Carcassonne", "place_lat": "43.218185", "place_lon": "2.351794", "journeys": [13020, 12000, 12180, 13020, 12000, 12180], "duration_median": 12180.0, "duration_min": 12000, "duration_max": 13020}, "france_97": {"place_id": "france_97", "place_name": "Vichy", "place_lat": "46.127014", "place_lon": "3.430679", "journeys": [6600, 6660, 6600, 6600, 6660, 6600], "duration_median": 6600.0, "duration_min": 6600, "duration_max": 6660}, "france_105": {"place_id": "france_105", "place_name": "Marseille", "place_lat": "43.303816", "place_lon": "5.38195", "journeys": [6300, 6960, 6000, 6300, 6960, 6000], "duration_median": 6300.0, "duration_min": 6000, "duration_max": 6960}, "france_106": {"place_id": "france_106", "place_name": "Arles", "place_lat": "43.685004", "place_lon": "4.632429", "journeys": [10200, 10140, 7320, 10200, 10140, 10140], "duration_median": 10140.0, "duration_min": 7320, "duration_max": 10200}, "france_123": {"place_id": "france_123", "place_name": "Montpellier", "place_lat": "43.599651", "place_lon": "3.899979", "journeys": [7020, 6900, 6000, 7020, 6000, 6720], "duration_median": 6810.0, "duration_min": 6000, "duration_max": 7020}, "france_124": {"place_id": "france_124", "place_name": "Sete", "place_lat": "43.412811", "place_lon": "3.696535", "journeys": [8400, 7860, 7860, 8400, 7860, 7860], "duration_median": 7860.0, "duration_min": 7860, "duration_max": 8400}, "france_125": {"place_id": "france_125", "place_name": "Nimes", "place_lat": "43.821397", "place_lon": "4.441912", "journeys": [5040, 5100, 4560, 5040, 5100, 4980, 4560, 4740, 4620, 5040, 4560, 4980, 5040, 4980, 4680, 4560, 4740, 4620], "duration_median": 4860.0, "duration_min": 4560, "duration_max": 5100}, "france_127": {"place_id": "france_127", "place_name": "Narbonne", "place_lat": "43.1904", "place_lon": "3.006011", "journeys": [11040, 10140, 10560, 11040, 10140, 10560], "duration_median": 10560.0, "duration_min": 10140, "duration_max": 11040}, "france_145": {"place_id": "france_145", "place_name": "Perpignan", "place_lat": "42.695939", "place_lon": "2.879398", "journeys": [12660, 12900, 12660, 12660, 12900, 12660], "duration_median": 12660.0, "duration_min": 12660, "duration_max": 12900}, "france_160": {"place_id": "france_160", "place_name": "Orange", "place_lat": "44.137557", "place_lon": "4.819396", "journeys": [7920, 5040, 7800, 7920, 7800, 7800], "duration_median": 7800.0, "duration_min": 5040, "duration_max": 7920}, "france_161": {"place_id": "france_161", "place_name": "Nice", "place_lat": "43.704825", "place_lon": "7.261765", "journeys": [16680, 17520, 15840, 16680, 17520, 15840], "duration_median": 16680.0, "duration_min": 15840, "duration_max": 17520}, "france_162": {"place_id": "france_162", "place_name": "Strasbourg", "place_lat": "48.585339", "place_lon": "7.734067", "journeys": [14040, 13020, 15720, 14040, 13020, 15720], "duration_median": 14040.0, "duration_min": 13020, "duration_max": 15720}, "france_163": {"place_id": "france_163", "place_name": "Arras", "place_lat": "50.286889", "place_lon": "2.781829", "journeys": [10500, 10800, 10500, 10500, 10800, 10500], "duration_median": 10500.0, "duration_min": 10500, "duration_max": 10800}, "spain_1": {"place_id": "spain_1", "place_name": "Barcelona", "place_lat": "41.378911", "place_lon": "2.140368", "journeys": [17940, 17940, 17940, 17940, 17940, 17940], "duration_median": 17940.0, "duration_min": 17940, "duration_max": 17940}, "spain_104": {"place_id": "spain_104", "place_name": "Figueres", "place_lat": "42.26478", "place_lon": "2.943023", "journeys": [14460, 14460, 14460, 14460, 14460, 14460], "duration_median": 14460.0, "duration_min": 14460, "duration_max": 14460}, "spain_105": {"place_id": "spain_105", "place_name": "Girona", "place_lat": "41.979517", "place_lon": "2.816482", "journeys": [15480, 15480, 15480, 15480, 15480, 15480], "duration_median": 15480.0, "duration_min": 15480, "duration_max": 15480}}}