{"place_id": "france_124", "place_name": "Sete", "place_lat": "43.4128080", "place_lon": "3.69641000", "place_brief_desc": "Located between a lagoon and the Med and connecting the Canal du Midi to the sea, this southern French working port is a great place to get seafood and sea views. Throughout the summer you can also catch some water-jousting where old-style lifeboats (barque de sauvetage) with multiple oarsmen and one jouster charge at each other and try to unseat their opponent.", "place_longer_desc": "./static/places/sete.html", "place_image": "./static/images/sete.png", "place_tags": "history|art|sea", "place_links": "https://www.lonelyplanet.com/search?q=S\u00c3\u00a8te", "place_country": "France", "hops": {"france_19": {"place_id": "france_19", "place_name": "Paris", "place_lat": "48.861496", "place_lon": "2.333681", "journeys": [13860, 13740, 13680, 13860, 13740, 13680], "duration_median": 13740.0, "duration_min": 13680, "duration_max": 13860}, "france_24": {"place_id": "france_24", "place_name": "Bordeaux", "place_lat": "44.82649", "place_lon": "-0.55592", "journeys": [14940, 15060, 14940], "duration_median": 14940, "duration_min": 14940, "duration_max": 15060}, "france_38": {"place_id": "france_38", "place_name": "Toulouse", "place_lat": "43.611409", "place_lon": "1.453942", "journeys": [9300, 7140, 6900], "duration_median": 7140, "duration_min": 6900, "duration_max": 9300}, "france_72": {"place_id": "france_72", "place_name": "Carcassonne", "place_lat": "43.218185", "place_lon": "2.351794", "journeys": [4920, 4440, 4200], "duration_median": 4440, "duration_min": 4200, "duration_max": 4920}, "france_93": {"place_id": "france_93", "place_name": "Lyon", "place_lat": "45.702255", "place_lon": "4.863811", "journeys": [8040, 7860, 7740, 8040, 7860, 7740], "duration_median": 7860.0, "duration_min": 7740, "duration_max": 8040}, "france_105": {"place_id": "france_105", "place_name": "Marseille", "place_lat": "43.303816", "place_lon": "5.38195", "journeys": [8580, 8940, 7260], "duration_median": 8580, "duration_min": 7260, "duration_max": 8940}, "france_106": {"place_id": "france_106", "place_name": "Arles", "place_lat": "43.685004", "place_lon": "4.632429", "journeys": [5340, 5640, 4440], "duration_median": 5340, "duration_min": 4440, "duration_max": 5640}, "france_123": {"place_id": "france_123", "place_name": "Montpellier", "place_lat": "43.599651", "place_lon": "3.899979", "journeys": [1020, 960, 1320], "duration_median": 1020, "duration_min": 960, "duration_max": 1320}, "france_125": {"place_id": "france_125", "place_name": "Nimes", "place_lat": "43.821397", "place_lon": "4.441912", "journeys": [3360, 4020, 3480, 3360, 4020, 3480, 3960, 4620, 4140], "duration_median": 3960, "duration_min": 3360, "duration_max": 4620}, "france_127": {"place_id": "france_127", "place_name": "Narbonne", "place_lat": "43.1904", "place_lon": "3.006011", "journeys": [2820, 2460, 2460], "duration_median": 2460, "duration_min": 2460, "duration_max": 2820}, "france_145": {"place_id": "france_145", "place_name": "Perpignan", "place_lat": "42.695939", "place_lon": "2.879398", "journeys": [5820, 4920, 5820], "duration_median": 5820, "duration_min": 4920, "duration_max": 5820}, "france_148": {"place_id": "france_148", "place_name": "Collioure", "place_lat": "42.526906", "place_lon": "3.078077", "journeys": [7380, 7380, 7380], "duration_median": 7380, "duration_min": 7380, "duration_max": 7380}, "france_151": {"place_id": "france_151", "place_name": "Cerbere", "place_lat": "42.441661", "place_lon": "3.163187", "journeys": [8520, 8520, 8520], "duration_median": 8520, "duration_min": 8520, "duration_max": 8520}, "france_163": {"place_id": "france_163", "place_name": "Arras", "place_lat": "50.286889", "place_lon": "2.781829", "journeys": [19140, 19140], "duration_median": 19140.0, "duration_min": 19140, "duration_max": 19140}, "spain_1": {"place_id": "spain_1", "place_name": "Barcelona", "place_lat": "41.378911", "place_lon": "2.140368", "journeys": [10740, 10260, 10740], "duration_median": 10740, "duration_min": 10260, "duration_max": 10740}, "spain_104": {"place_id": "spain_104", "place_name": "Figueres", "place_lat": "42.26478", "place_lon": "2.943023", "journeys": [6720, 6780, 6720], "duration_median": 6720, "duration_min": 6720, "duration_max": 6780}, "spain_105": {"place_id": "spain_105", "place_name": "Girona", "place_lat": "41.979517", "place_lon": "2.816482", "journeys": [7860, 7800, 7860], "duration_median": 7860, "duration_min": 7800, "duration_max": 7860}, "spain_806": {"place_id": "spain_806", "place_name": "Portbou", "place_lat": "42.424725", "place_lon": "3.157848", "journeys": [9360, 9360, 9360], "duration_median": 9360, "duration_min": 9360, "duration_max": 9360}}}