{"place_id": "france_162", "place_name": "Strasbourg", "place_lat": "48.585339", "place_lon": "7.734067", "place_brief_desc": "Strasbourg is the perfect overture to all that is idiosyncratic about Alsace \u00e2\u20ac\u201c walking a fine tightrope between France and Germany and between a medieval past and a progressive future, it pulls off its act in inimitable Alsatian style.", "place_longer_desc": "../static/places/strasbourg.html", "place_image": "../static/images/strasbourg.png", "place_tags": "museums|history|kids| culture", "place_links": "https://www.lonelyplanet.com/search?q=avignon", "place_country": "France", "hops": {"Germany_4": {"place_id": "Germany_4", "place_name": "Munich", "place_lat": "48.140364", "place_lon": "11.558744", "journeys": [13320, 13920, 20520], "duration_median": 13920, "duration_min": 13320, "duration_max": 20520}, "Germany_6": {"place_id": "Germany_6", "place_name": "Freiburg", "place_lat": "47.997974", "place_lon": "7.841344", "journeys": [5640, 4740, 4380], "duration_median": 4740, "duration_min": 4380, "duration_max": 5640}, "france_6": {"place_id": "france_6", "place_name": "Rennes", "place_lat": "48.103175", "place_lon": "-1.672335", "journeys": [16500, 17160, 17160], "duration_median": 17160, "duration_min": 16500, "duration_max": 17160}, "france_19": {"place_id": "france_19", "place_name": "Paris", "place_lat": "48.861496", "place_lon": "2.333681", "journeys": [7200, 7080, 7080, 6540, 6540, 7200, 7080, 7080, 6540, 6540, 9000, 8880, 8880, 8340, 8340], "duration_median": 7080, "duration_min": 6540, "duration_max": 9000}, "france_24": {"place_id": "france_24", "place_name": "Bordeaux", "place_lat": "44.82649", "place_lon": "-0.55592", "journeys": [21960, 21660, 21660], "duration_median": 21660, "duration_min": 21660, "duration_max": 21960}, "france_93": {"place_id": "france_93", "place_name": "Lyon", "place_lat": "45.702255", "place_lon": "4.863811", "journeys": [14940, 14220, 13800, 14940, 14220, 13800], "duration_median": 14220.0, "duration_min": 13800, "duration_max": 14940}, "france_105": {"place_id": "france_105", "place_name": "Marseille", "place_lat": "43.303816", "place_lon": "5.38195", "journeys": [21780, 22020, 19920], "duration_median": 21780, "duration_min": 19920, "duration_max": 22020}, "france_123": {"place_id": "france_123", "place_name": "Montpellier", "place_lat": "43.599651", "place_lon": "3.899979", "journeys": [22020, 20640, 22020], "duration_median": 22020, "duration_min": 20640, "duration_max": 22020}, "france_125": {"place_id": "france_125", "place_name": "Nimes", "place_lat": "43.821397", "place_lon": "4.441912", "journeys": [20220, 19200, 20220, 20220, 20220, 20220, 19200, 19200, 19200], "duration_median": 20220, "duration_min": 19200, "duration_max": 20220}, "france_161": {"place_id": "france_161", "place_name": "Nice", "place_lat": "43.704825", "place_lon": "7.261765", "journeys": [31980, 31980, 32160], "duration_median": 31980, "duration_min": 31980, "duration_max": 32160}}}