{"place_id": "france_72", "place_name": "Carcassonne", "place_lat": "43.2181650", "place_lon": "2.35243000", "place_brief_desc": "Carcassonne, one of the best preserved medieval cities in the world, has something of a fairytale feel thanks to the restoration work of Eug\u00c3\u00a8ne Viollet-le-Duc.", "place_longer_desc": "../static/places/carcassonne.html", "place_image": "../static/images/carcassonne.png", "place_tags": "history|kids", "place_links": "https://www.lonelyplanet.com/search?q=Carcassonne", "place_country": "France", "hops": {"france_19": {"place_id": "france_19", "place_name": "Paris", "place_lat": "48.861496", "place_lon": "2.333681", "journeys": [39600, 34320], "duration_median": 36960.0, "duration_min": 34320, "duration_max": 39600}, "france_24": {"place_id": "france_24", "place_name": "Bordeaux", "place_lat": "44.82649", "place_lon": "-0.55592", "journeys": [10620, 10620, 10620], "duration_median": 10620, "duration_min": 10620, "duration_max": 10620}, "france_38": {"place_id": "france_38", "place_name": "Toulouse", "place_lat": "43.611409", "place_lon": "1.453942", "journeys": [3660, 4260, 2580], "duration_median": 3660, "duration_min": 2580, "duration_max": 4260}, "france_93": {"place_id": "france_93", "place_name": "Lyon", "place_lat": "45.702255", "place_lon": "4.863811", "journeys": [12180, 12060, 12180, 12180, 12060, 12180], "duration_median": 12180.0, "duration_min": 12060, "duration_max": 12180}, "france_105": {"place_id": "france_105", "place_name": "Marseille", "place_lat": "43.303816", "place_lon": "5.38195", "journeys": [11040, 11280, 11280], "duration_median": 11280, "duration_min": 11040, "duration_max": 11280}, "france_106": {"place_id": "france_106", "place_name": "Arles", "place_lat": "43.685004", "place_lon": "4.632429", "journeys": [8460, 8280, 8460], "duration_median": 8460, "duration_min": 8280, "duration_max": 8460}, "france_123": {"place_id": "france_123", "place_name": "Montpellier", "place_lat": "43.599651", "place_lon": "3.899979", "journeys": [5280, 5100, 5100], "duration_median": 5100, "duration_min": 5100, "duration_max": 5280}, "france_124": {"place_id": "france_124", "place_name": "Sete", "place_lat": "43.412811", "place_lon": "3.696535", "journeys": [4140, 3900, 4140], "duration_median": 4140, "duration_min": 3900, "duration_max": 4140}, "france_125": {"place_id": "france_125", "place_name": "Nimes", "place_lat": "43.821397", "place_lon": "4.441912", "journeys": [7140, 6780, 6780, 6780, 6780, 6780, 7140, 7380, 7140], "duration_median": 6780, "duration_min": 6780, "duration_max": 7380}, "france_127": {"place_id": "france_127", "place_name": "Narbonne", "place_lat": "43.1904", "place_lon": "3.006011", "journeys": [1920, 1740, 1740], "duration_median": 1740, "duration_min": 1740, "duration_max": 1920}, "france_145": {"place_id": "france_145", "place_name": "Perpignan", "place_lat": "42.695939", "place_lon": "2.879398", "journeys": [5040, 5340, 5280], "duration_median": 5280, "duration_min": 5040, "duration_max": 5340}, "france_148": {"place_id": "france_148", "place_name": "Collioure", "place_lat": "42.526906", "place_lon": "3.078077", "journeys": [6660, 6840, 6840], "duration_median": 6840, "duration_min": 6660, "duration_max": 6840}, "france_151": {"place_id": "france_151", "place_name": "Cerbere", "place_lat": "42.441661", "place_lon": "3.163187", "journeys": [7800, 7920, 7920], "duration_median": 7920, "duration_min": 7800, "duration_max": 7920}, "spain_806": {"place_id": "spain_806", "place_name": "Portbou", "place_lat": "42.424725", "place_lon": "3.157848", "journeys": [8520, 8520, 8700], "duration_median": 8520, "duration_min": 8520, "duration_max": 8700}}}