{"place_id": "france_123", "place_name": "Montpellier", "place_lat": "43.6047800", "place_lon": "3.88116800", "place_brief_desc": "Montpellier is the principal city in the Languedoc-Roussillon region in southwest France. It's been the one of the fastest growing cities in France since the 1990s. As a result, it has very modern districts on the outskirts that are in stark contrast to the old winding roads of the city centre. The town is home to a lot of students due to the presence of the University of Montpellier which has the oldest medical school in Europe, and, as such, Montpellier has a very young feel to it.", "place_longer_desc": "../static/places/montpellier.html", "place_image": "../static/images/montpellier.png", "place_tags": "history", "place_links": "https://www.lonelyplanet.com/search?q=Montpellier", "place_country": "France", "hops": {"france_19": {"place_id": "france_19", "place_name": "Paris", "place_lat": "48.861496", "place_lon": "2.333681", "journeys": [11520, 12480, 12600, 11520, 12480, 12600], "duration_median": 12480.0, "duration_min": 11520, "duration_max": 12600}, "france_24": {"place_id": "france_24", "place_name": "Bordeaux", "place_lat": "44.82649", "place_lon": "-0.55592", "journeys": [15960, 15900, 15960], "duration_median": 15960, "duration_min": 15900, "duration_max": 15960}, "france_38": {"place_id": "france_38", "place_name": "Toulouse", "place_lat": "43.611409", "place_lon": "1.453942", "journeys": [10740, 7920, 8280], "duration_median": 8280, "duration_min": 7920, "duration_max": 10740}, "france_72": {"place_id": "france_72", "place_name": "Carcassonne", "place_lat": "43.218185", "place_lon": "2.351794", "journeys": [6360, 5220, 5580], "duration_median": 5580, "duration_min": 5220, "duration_max": 6360}, "france_93": {"place_id": "france_93", "place_name": "Lyon", "place_lat": "45.702255", "place_lon": "4.863811", "journeys": [6900, 6660, 6300, 6900, 6660, 6300], "duration_median": 6660.0, "duration_min": 6300, "duration_max": 6900}, "france_105": {"place_id": "france_105", "place_name": "Marseille", "place_lat": "43.303816", "place_lon": "5.38195", "journeys": [7320, 7620, 5700], "duration_median": 7320, "duration_min": 5700, "duration_max": 7620}, "france_106": {"place_id": "france_106", "place_name": "Arles", "place_lat": "43.685004", "place_lon": "4.632429", "journeys": [4080, 4320, 3120], "duration_median": 4080, "duration_min": 3120, "duration_max": 4320}, "france_124": {"place_id": "france_124", "place_name": "Sete", "place_lat": "43.412811", "place_lon": "3.696535", "journeys": [1320, 960, 960], "duration_median": 960, "duration_min": 960, "duration_max": 1320}, "france_125": {"place_id": "france_125", "place_name": "Nimes", "place_lat": "43.821397", "place_lon": "4.441912", "journeys": [1680, 2100, 1080, 1680, 2100, 2760, 2700, 1080, 2640], "duration_median": 2100, "duration_min": 1080, "duration_max": 2760}, "france_127": {"place_id": "france_127", "place_name": "Narbonne", "place_lat": "43.1904", "place_lon": "3.006011", "journeys": [4260, 3180, 3540], "duration_median": 3540, "duration_min": 3180, "duration_max": 4260}, "france_145": {"place_id": "france_145", "place_name": "Perpignan", "place_lat": "42.695939", "place_lon": "2.879398", "journeys": [6960, 6240, 5940], "duration_median": 6240, "duration_min": 5940, "duration_max": 6960}, "france_148": {"place_id": "france_148", "place_name": "Collioure", "place_lat": "42.526906", "place_lon": "3.078077", "journeys": [8520, 8520, 8580], "duration_median": 8520, "duration_min": 8520, "duration_max": 8580}, "france_151": {"place_id": "france_151", "place_name": "Cerbere", "place_lat": "42.441661", "place_lon": "3.163187", "journeys": [9660, 9660, 9720], "duration_median": 9660, "duration_min": 9660, "duration_max": 9720}, "france_162": {"place_id": "france_162", "place_name": "Strasbourg", "place_lat": "48.585339", "place_lon": "7.734067", "journeys": [21300, 22500, 21300], "duration_median": 21300, "duration_min": 21300, "duration_max": 22500}, "france_163": {"place_id": "france_163", "place_name": "Arras", "place_lat": "50.286889", "place_lon": "2.781829", "journeys": [17760, 17760, 16980], "duration_median": 17760, "duration_min": 16980, "duration_max": 17760}, "spain_1": {"place_id": "spain_1", "place_name": "Barcelona", "place_lat": "41.378911", "place_lon": "2.140368", "journeys": [11220, 11760, 10980], "duration_median": 11220, "duration_min": 10980, "duration_max": 11760}, "spain_19": {"place_id": "spain_19", "place_name": "Tarragona", "place_lat": "41.192026", "place_lon": "1.271587", "journeys": [13740, 13740, 13740], "duration_median": 13740, "duration_min": 13740, "duration_max": 13740}, "spain_20": {"place_id": "spain_20", "place_name": "Madrid", "place_lat": "40.472151", "place_lon": "-3.68235", "journeys": [23040, 23040, 23040, 22440, 22440, 22440], "duration_median": 22740.0, "duration_min": 22440, "duration_max": 23040}, "spain_55": {"place_id": "spain_55", "place_name": "Zaragoza", "place_lat": "41.65844", "place_lon": "-0.909906", "journeys": [17460, 17460, 17460], "duration_median": 17460, "duration_min": 17460, "duration_max": 17460}, "spain_104": {"place_id": "spain_104", "place_name": "Figueres", "place_lat": "42.26478", "place_lon": "2.943023", "journeys": [7740, 7740, 7500], "duration_median": 7740, "duration_min": 7500, "duration_max": 7740}, "spain_105": {"place_id": "spain_105", "place_name": "Girona", "place_lat": "41.979517", "place_lon": "2.816482", "journeys": [8760, 8880, 8520], "duration_median": 8760, "duration_min": 8520, "duration_max": 8880}, "spain_806": {"place_id": "spain_806", "place_name": "Portbou", "place_lat": "42.424725", "place_lon": "3.157848", "journeys": [10500, 10500, 10560], "duration_median": 10500, "duration_min": 10500, "duration_max": 10560}}}