{"place_id": "france_151", "place_name": "Cerbere", "place_lat": "42.4427710", "place_lon": "3.16552800", "place_brief_desc": "Gateway to Spain  - just wander over the hill! It's a journey made by made during times of strife, but these days it's all for pleasure", "place_longer_desc": "./static/places/cerbere.html", "place_image": "./static/images/cerbere.png", "place_tags": "history|sea", "place_links": "https://www.lonelyplanet.com/search?q=Cerb\u00c3\u00a8re", "place_country": "France", "hops": {"france_19": {"place_id": "france_19", "place_name": "Paris", "place_lat": "48.861496", "place_lon": "2.333681", "journeys": [49560, 44280], "duration_median": 46920.0, "duration_min": 44280, "duration_max": 49560}, "france_38": {"place_id": "france_38", "place_name": "Toulouse", "place_lat": "43.611409", "place_lon": "1.453942", "journeys": [12540, 11820, 11880], "duration_median": 11880, "duration_min": 11820, "duration_max": 12540}, "france_72": {"place_id": "france_72", "place_name": "Carcassonne", "place_lat": "43.218185", "place_lon": "2.351794", "journeys": [8580, 8100, 8160], "duration_median": 8160, "duration_min": 8100, "duration_max": 8580}, "france_123": {"place_id": "france_123", "place_name": "Montpellier", "place_lat": "43.599651", "place_lon": "3.899979", "journeys": [9480, 9780, 9780], "duration_median": 9780, "duration_min": 9480, "duration_max": 9780}, "france_124": {"place_id": "france_124", "place_name": "Sete", "place_lat": "43.412811", "place_lon": "3.696535", "journeys": [8340, 8580, 8580], "duration_median": 8580, "duration_min": 8340, "duration_max": 8580}, "france_125": {"place_id": "france_125", "place_name": "Nimes", "place_lat": "43.821397", "place_lon": "4.441912", "journeys": [11820, 12060, 12060, 11820, 12060, 12060, 12480, 12660, 12480], "duration_median": 12060, "duration_min": 11820, "duration_max": 12660}, "france_127": {"place_id": "france_127", "place_name": "Narbonne", "place_lat": "43.1904", "place_lon": "3.006011", "journeys": [5280, 5220, 5280], "duration_median": 5280, "duration_min": 5220, "duration_max": 5280}, "france_145": {"place_id": "france_145", "place_name": "Perpignan", "place_lat": "42.695939", "place_lon": "2.879398", "journeys": [2280, 2280, 2340], "duration_median": 2280, "duration_min": 2280, "duration_max": 2340}, "france_148": {"place_id": "france_148", "place_name": "Collioure", "place_lat": "42.526906", "place_lon": "3.078077", "journeys": [840, 840, 840], "duration_median": 840, "duration_min": 840, "duration_max": 840}, "spain_806": {"place_id": "spain_806", "place_name": "Portbou", "place_lat": "42.424725", "place_lon": "3.157848", "journeys": [240, 240, 240], "duration_median": 240, "duration_min": 240, "duration_max": 240}}}