{"place_id": "france_24", "place_name": "Bordeaux", "place_lat": "44.8258230", "place_lon": "-0.5560120", "place_brief_desc": "Bordeaux, resting on the banks of the Garonne is the global capital of wine and it would be rude not to get straight to the point and pay a visit to La Cit\u00c3\u00a9 du Vin where you can learn about how the giggle-juice is made and maybe do some tasting?", "place_longer_desc": "../static/places/bordeaux.html", "place_image": "../static/images/bordeaux.png", "place_tags": "history|kids|city break", "place_links": "https://www.lonelyplanet.com/search?q=Bordeaux", "place_country": "France", "hops": {"Germany_6": {"place_id": "Germany_6", "place_name": "Freiburg", "place_lat": "47.997974", "place_lon": "7.841344", "journeys": [26580], "duration_median": 26580, "duration_min": 26580, "duration_max": 26580}, "france_10": {"place_id": "france_10", "place_name": "La Rochelle", "place_lat": "46.152426", "place_lon": "-1.145118", "journeys": [8520, 9480, 8520], "duration_median": 8520, "duration_min": 8520, "duration_max": 9480}, "france_15": {"place_id": "france_15", "place_name": "Saintes", "place_lat": "45.748918", "place_lon": "-0.617406", "journeys": [5400, 6120, 5400], "duration_median": 5400, "duration_min": 5400, "duration_max": 6120}, "france_19": {"place_id": "france_19", "place_name": "Paris", "place_lat": "48.861496", "place_lon": "2.333681", "journeys": [12240, 7680, 10440, 12240, 7680, 10440], "duration_median": 10440.0, "duration_min": 7680, "duration_max": 12240}, "france_38": {"place_id": "france_38", "place_name": "Toulouse", "place_lat": "43.611409", "place_lon": "1.453942", "journeys": [7740, 7740, 7320], "duration_median": 7740, "duration_min": 7320, "duration_max": 7740}, "france_72": {"place_id": "france_72", "place_name": "Carcassonne", "place_lat": "43.218185", "place_lon": "2.351794", "journeys": [10740, 10740, 10800], "duration_median": 10740, "duration_min": 10740, "duration_max": 10800}, "france_80": {"place_id": "france_80", "place_name": "Lourdes", "place_lat": "43.100382", "place_lon": "-0.042159", "journeys": [8700, 9660, 10500], "duration_median": 9660, "duration_min": 8700, "duration_max": 10500}, "france_83": {"place_id": "france_83", "place_name": "Bayonne", "place_lat": "43.497084", "place_lon": "-1.470384", "journeys": [7680, 6300, 7020], "duration_median": 7020, "duration_min": 6300, "duration_max": 7680}, "france_85": {"place_id": "france_85", "place_name": "Hendaye", "place_lat": "43.353149", "place_lon": "-1.781959", "journeys": [10260, 8820, 9420, 10020, 9120, 9780], "duration_median": 9600.0, "duration_min": 8820, "duration_max": 10260}, "france_105": {"place_id": "france_105", "place_name": "Marseille", "place_lat": "43.303816", "place_lon": "5.38195", "journeys": [21900, 22140, 22200], "duration_median": 22140, "duration_min": 21900, "duration_max": 22200}, "france_106": {"place_id": "france_106", "place_name": "Arles", "place_lat": "43.685004", "place_lon": "4.632429", "journeys": [19320, 19200, 19320], "duration_median": 19320, "duration_min": 19200, "duration_max": 19320}, "france_123": {"place_id": "france_123", "place_name": "Montpellier", "place_lat": "43.599651", "place_lon": "3.899979", "journeys": [15960, 15960, 16020], "duration_median": 15960, "duration_min": 15960, "duration_max": 16020}, "france_124": {"place_id": "france_124", "place_name": "Sete", "place_lat": "43.412811", "place_lon": "3.696535", "journeys": [14760, 14760, 14760], "duration_median": 14760, "duration_min": 14760, "duration_max": 14760}, "france_125": {"place_id": "france_125", "place_name": "Nimes", "place_lat": "43.821397", "place_lon": "4.441912", "journeys": [17640, 17640, 17700, 17640, 17640, 17700], "duration_median": 17640.0, "duration_min": 17640, "duration_max": 17700}, "france_127": {"place_id": "france_127", "place_name": "Narbonne", "place_lat": "43.1904", "place_lon": "3.006011", "journeys": [12600, 12600, 12660], "duration_median": 12600, "duration_min": 12600, "duration_max": 12660}, "france_162": {"place_id": "france_162", "place_name": "Strasbourg", "place_lat": "48.585339", "place_lon": "7.734067", "journeys": [20100, 21480, 20100], "duration_median": 20100, "duration_min": 20100, "duration_max": 21480}}}