{"place_id": "france_125", "place_name": "Nimes", "place_lat": "43.8323870", "place_lon": "4.36608100", "place_brief_desc": "Known as the most Roman city outside of Italy, N\u00c3\u00aemes has one of the best preserved arenas and Roman temples in the world. It's also the birthplace of denim ('de N\u00c3\u00aemes'), so you could think of coming to N\u00c3\u00aemes as a pilgrimage for your jeans! The city is full of activity and has events and festivals throughout the year, including an annual international music festival held in the Roman arena and local craft and produce markets.", "place_longer_desc": "../static/places/nimes.html", "place_image": "../static/images/nimes.png", "place_tags": "history|food", "place_links": "https://www.lonelyplanet.com/search?q=N\u00c3\u00aemes", "place_country": "France", "hops": {"france_19": {"place_id": "france_19", "place_name": "Paris", "place_lat": "48.861496", "place_lon": "2.333681", "journeys": [10260, 10740, 10860, 10260, 10740, 10860, 10740, 10860, 10740, 10740, 10860, 10740, 10260, 10200, 10680, 10260, 10200, 10680], "duration_median": 10740.0, "duration_min": 10200, "duration_max": 10860}, "france_24": {"place_id": "france_24", "place_name": "Bordeaux", "place_lat": "44.82649", "place_lon": "-0.55592", "journeys": [17640, 17640, 17700, 17640, 17640, 17700], "duration_median": 17640.0, "duration_min": 17640, "duration_max": 17700}, "france_38": {"place_id": "france_38", "place_name": "Toulouse", "place_lat": "43.611409", "place_lon": "1.453942", "journeys": [12840, 9600, 10500, 12840, 9600, 10500], "duration_median": 10500.0, "duration_min": 9600, "duration_max": 12840}, "france_72": {"place_id": "france_72", "place_name": "Carcassonne", "place_lat": "43.218185", "place_lon": "2.351794", "journeys": [8460, 6900, 7800, 8460, 6900, 7800], "duration_median": 7800.0, "duration_min": 6900, "duration_max": 8460}, "france_93": {"place_id": "france_93", "place_name": "Lyon", "place_lat": "45.702255", "place_lon": "4.863811", "journeys": [5040, 4980, 4860, 5040, 4980, 4860, 5040, 4980, 3840, 5040, 4980, 4800, 4860, 3780, 4680, 4860, 4680, 4620], "duration_median": 4860.0, "duration_min": 3780, "duration_max": 5040}, "france_105": {"place_id": "france_105", "place_name": "Marseille", "place_lat": "43.303816", "place_lon": "5.38195", "journeys": [4500, 4560, 4080, 5040, 5340, 4080, 4500, 4560, 5040], "duration_median": 4560, "duration_min": 4080, "duration_max": 5340}, "france_106": {"place_id": "france_106", "place_name": "Arles", "place_lat": "43.685004", "place_lon": "4.632429", "journeys": [1260, 1260, 1500, 1800, 2040, 1500, 1260, 1260, 1260], "duration_median": 1260, "duration_min": 1260, "duration_max": 2040}, "france_123": {"place_id": "france_123", "place_name": "Montpellier", "place_lat": "43.599651", "place_lon": "3.899979", "journeys": [1920, 1440, 2580, 1920, 1440, 2580, 2640, 2760, 2700], "duration_median": 2580, "duration_min": 1440, "duration_max": 2760}, "france_124": {"place_id": "france_124", "place_name": "Sete", "place_lat": "43.412811", "place_lon": "3.696535", "journeys": [3420, 3180, 3360, 3420, 3180, 3360, 4020, 4020, 2280], "duration_median": 3360, "duration_min": 2280, "duration_max": 4020}, "france_127": {"place_id": "france_127", "place_name": "Narbonne", "place_lat": "43.1904", "place_lon": "3.006011", "journeys": [6360, 4860, 5820, 6360, 4860, 5820, 6540, 6600, 5220], "duration_median": 5820, "duration_min": 4860, "duration_max": 6600}, "france_145": {"place_id": "france_145", "place_name": "Perpignan", "place_lat": "42.695939", "place_lon": "2.879398", "journeys": [9300, 8100, 7800, 9300, 8100, 7800, 9960, 7500, 9900], "duration_median": 8100, "duration_min": 7500, "duration_max": 9960}, "france_148": {"place_id": "france_148", "place_name": "Collioure", "place_lat": "42.526906", "place_lon": "3.078077", "journeys": [10800, 10800, 10800, 10800, 10800, 10800, 11460, 11460, 11520], "duration_median": 10800, "duration_min": 10800, "duration_max": 11520}, "france_151": {"place_id": "france_151", "place_name": "Cerbere", "place_lat": "42.441661", "place_lon": "3.163187", "journeys": [11940, 11940, 11940, 11940, 11940, 11940, 12600, 12600, 12660], "duration_median": 11940, "duration_min": 11940, "duration_max": 12660}, "france_162": {"place_id": "france_162", "place_name": "Strasbourg", "place_lat": "48.585339", "place_lon": "7.734067", "journeys": [19440, 20760, 19440, 19440, 20760, 19440], "duration_median": 19440.0, "duration_min": 19440, "duration_max": 20760}, "france_163": {"place_id": "france_163", "place_name": "Arras", "place_lat": "50.286889", "place_lon": "2.781829", "journeys": [16080, 16080, 15720, 16080, 16080], "duration_median": 16080, "duration_min": 15720, "duration_max": 16080}, "spain_1": {"place_id": "spain_1", "place_name": "Barcelona", "place_lat": "41.378911", "place_lon": "2.140368", "journeys": [13080, 13680, 12660, 13080, 13680, 12660, 12960, 12960, 12960], "duration_median": 12960, "duration_min": 12660, "duration_max": 13680}, "spain_19": {"place_id": "spain_19", "place_name": "Tarragona", "place_lat": "41.192026", "place_lon": "1.271587", "journeys": [15600, 15600, 15600, 15600, 15600, 15600], "duration_median": 15600.0, "duration_min": 15600, "duration_max": 15600}, "spain_20": {"place_id": "spain_20", "place_name": "Madrid", "place_lat": "40.472151", "place_lon": "-3.68235", "journeys": [24900, 24900, 24900, 24300, 24300, 24300, 24900, 24900, 24900, 24300, 24300, 24300], "duration_median": 24600.0, "duration_min": 24300, "duration_max": 24900}, "spain_55": {"place_id": "spain_55", "place_name": "Zaragoza", "place_lat": "41.65844", "place_lon": "-0.909906", "journeys": [19320, 19320, 19320, 19320, 19320, 19320], "duration_median": 19320.0, "duration_min": 19320, "duration_max": 19320}, "spain_104": {"place_id": "spain_104", "place_name": "Figueres", "place_lat": "42.26478", "place_lon": "2.943023", "journeys": [9600, 9660, 9180, 9600, 9660, 9180, 9480, 9480, 9480], "duration_median": 9480, "duration_min": 9180, "duration_max": 9660}, "spain_105": {"place_id": "spain_105", "place_name": "Girona", "place_lat": "41.979517", "place_lon": "2.816482", "journeys": [10620, 10800, 10200, 10620, 10800, 10200, 10500, 10500, 10500], "duration_median": 10500, "duration_min": 10200, "duration_max": 10800}, "spain_806": {"place_id": "spain_806", "place_name": "Portbou", "place_lat": "42.424725", "place_lon": "3.157848", "journeys": [12780, 12780, 12780, 12780, 12780, 12780, 13440, 13440, 13500], "duration_median": 12780, "duration_min": 12780, "duration_max": 13500}}}