{"place_id": "france_127", "place_name": "Narbonne", "place_lat": "43.1906640", "place_lon": "3.00556200", "place_brief_desc": "Narbonne has been an ideal place to stop off when going places since Roman times as it was where the via Aquitania from the Atlantic via Bordeaux and Toulouse met the via Domitia reaching into Spain. It\u00e2\u20ac\u2122s still a great place to change trains when doing the same thing.", "place_longer_desc": "../static/places/narbonne.html", "place_image": "../static/images/narbonne.png", "place_tags": "history", "place_links": "https://www.lonelyplanet.com/search?q=Narbonne", "place_country": "France", "hops": {"france_19": {"place_id": "france_19", "place_name": "Paris", "place_lat": "48.861496", "place_lon": "2.333681", "journeys": [16560, 16560, 16560, 16560, 16560, 16560], "duration_median": 16560.0, "duration_min": 16560, "duration_max": 16560}, "france_24": {"place_id": "france_24", "place_name": "Bordeaux", "place_lat": "44.82649", "place_lon": "-0.55592", "journeys": [12600, 12480, 12540], "duration_median": 12540, "duration_min": 12480, "duration_max": 12600}, "france_38": {"place_id": "france_38", "place_name": "Toulouse", "place_lat": "43.611409", "place_lon": "1.453942", "journeys": [5580, 6300, 4560], "duration_median": 5580, "duration_min": 4560, "duration_max": 6300}, "france_72": {"place_id": "france_72", "place_name": "Carcassonne", "place_lat": "43.218185", "place_lon": "2.351794", "journeys": [1800, 1920, 1860], "duration_median": 1860, "duration_min": 1800, "duration_max": 1920}, "france_93": {"place_id": "france_93", "place_name": "Lyon", "place_lat": "45.702255", "place_lon": "4.863811", "journeys": [10860, 10260, 10200, 10860, 10260, 10200], "duration_median": 10260.0, "duration_min": 10200, "duration_max": 10860}, "france_105": {"place_id": "france_105", "place_name": "Marseille", "place_lat": "43.303816", "place_lon": "5.38195", "journeys": [11100, 11460, 9120], "duration_median": 11100, "duration_min": 9120, "duration_max": 11460}, "france_106": {"place_id": "france_106", "place_name": "Arles", "place_lat": "43.685004", "place_lon": "4.632429", "journeys": [7860, 8160, 6540], "duration_median": 7860, "duration_min": 6540, "duration_max": 8160}, "france_123": {"place_id": "france_123", "place_name": "Montpellier", "place_lat": "43.599651", "place_lon": "3.899979", "journeys": [3540, 4080, 4980], "duration_median": 4080, "duration_min": 3540, "duration_max": 4980}, "france_124": {"place_id": "france_124", "place_name": "Sete", "place_lat": "43.412811", "place_lon": "3.696535", "journeys": [2400, 3000, 3540], "duration_median": 3000, "duration_min": 2400, "duration_max": 3540}, "france_125": {"place_id": "france_125", "place_name": "Nimes", "place_lat": "43.821397", "place_lon": "4.441912", "journeys": [5880, 7140, 7140, 5880, 7140, 7140, 6480, 7740, 7800], "duration_median": 7140, "duration_min": 5880, "duration_max": 7800}, "france_145": {"place_id": "france_145", "place_name": "Perpignan", "place_lat": "42.695939", "place_lon": "2.879398", "journeys": [2460, 2640, 2580], "duration_median": 2580, "duration_min": 2460, "duration_max": 2640}, "france_148": {"place_id": "france_148", "place_name": "Collioure", "place_lat": "42.526906", "place_lon": "3.078077", "journeys": [3900, 4260, 4080], "duration_median": 4080, "duration_min": 3900, "duration_max": 4260}, "france_151": {"place_id": "france_151", "place_name": "Cerbere", "place_lat": "42.441661", "place_lon": "3.163187", "journeys": [4980, 5400, 5160], "duration_median": 5160, "duration_min": 4980, "duration_max": 5400}, "france_163": {"place_id": "france_163", "place_name": "Arras", "place_lat": "50.286889", "place_lon": "2.781829", "journeys": [21960, 21960], "duration_median": 21960.0, "duration_min": 21960, "duration_max": 21960}, "spain_1": {"place_id": "spain_1", "place_name": "Barcelona", "place_lat": "41.378911", "place_lon": "2.140368", "journeys": [7020, 7620, 7200], "duration_median": 7200, "duration_min": 7020, "duration_max": 7620}, "spain_19": {"place_id": "spain_19", "place_name": "Tarragona", "place_lat": "41.192026", "place_lon": "1.271587", "journeys": [9540, 9540, 9540], "duration_median": 9540, "duration_min": 9540, "duration_max": 9540}, "spain_20": {"place_id": "spain_20", "place_name": "Madrid", "place_lat": "40.472151", "place_lon": "-3.68235", "journeys": [18840, 18840, 18840, 18240, 18240, 18240], "duration_median": 18540.0, "duration_min": 18240, "duration_max": 18840}, "spain_55": {"place_id": "spain_55", "place_name": "Zaragoza", "place_lat": "41.65844", "place_lon": "-0.909906", "journeys": [13260, 13260, 13260], "duration_median": 13260, "duration_min": 13260, "duration_max": 13260}, "spain_104": {"place_id": "spain_104", "place_name": "Figueres", "place_lat": "42.26478", "place_lon": "2.943023", "journeys": [3540, 3600, 3720], "duration_median": 3600, "duration_min": 3540, "duration_max": 3720}, "spain_105": {"place_id": "spain_105", "place_name": "Girona", "place_lat": "41.979517", "place_lon": "2.816482", "journeys": [4560, 4740, 4740], "duration_median": 4740, "duration_min": 4560, "duration_max": 4740}, "spain_806": {"place_id": "spain_806", "place_name": "Portbou", "place_lat": "42.424725", "place_lon": "3.157848", "journeys": [5820, 6120, 5760], "duration_median": 5820, "duration_min": 5760, "duration_max": 6120}}}