{"place_id": "france_38", "place_name": "Toulouse", "place_lat": "43.6114370", "place_lon": "1.45423700", "place_brief_desc": "Toulouse, known as 'La Ville Rose', is the proud capital of the Occitan region of France which has had a distinctly independent culture and language - hence its bilingual street signs. Wandering around the city with its rose-coloured bricks, it does feel markedly different from the yellow limestone which dominates so many parts of France.", "place_longer_desc": "./static/places/toulouse.html", "place_image": "./static/images/toulouse.png", "place_tags": "history|food", "place_links": "https://www.lonelyplanet.com/search?q=Toulouse", "place_country": "France", "hops": {"france_19": {"place_id": "france_19", "place_name": "Paris", "place_lat": "48.861496", "place_lon": "2.333681", "journeys": [16020, 16200, 16860, 16020, 16200, 16860], "duration_median": 16200.0, "duration_min": 16020, "duration_max": 16860}, "france_24": {"place_id": "france_24", "place_name": "Bordeaux", "place_lat": "44.82649", "place_lon": "-0.55592", "journeys": [7920, 7920, 7680], "duration_median": 7920, "duration_min": 7680, "duration_max": 7920}, "france_28": {"place_id": "france_28", "place_name": "Limoges", "place_lat": "45.836419", "place_lon": "1.267245", "journeys": [12900, 12060, 12360], "duration_median": 12360, "duration_min": 12060, "duration_max": 12900}, "france_45": {"place_id": "france_45", "place_name": "Latour-de-Carol - Enveitg", "place_lat": "42.458732", "place_lon": "1.904778", "journeys": [9660, 9720, 10080], "duration_median": 9720, "duration_min": 9660, "duration_max": 10080}, "france_72": {"place_id": "france_72", "place_name": "Carcassonne", "place_lat": "43.218185", "place_lon": "2.351794", "journeys": [3780, 2460, 2520], "duration_median": 2520, "duration_min": 2460, "duration_max": 3780}, "france_80": {"place_id": "france_80", "place_name": "Lourdes", "place_lat": "43.100382", "place_lon": "-0.042159", "journeys": [7740, 6660, 6540], "duration_median": 6660, "duration_min": 6540, "duration_max": 7740}, "france_83": {"place_id": "france_83", "place_name": "Bayonne", "place_lat": "43.497084", "place_lon": "-1.470384", "journeys": [12480, 12420, 14160], "duration_median": 12480, "duration_min": 12420, "duration_max": 14160}, "france_85": {"place_id": "france_85", "place_name": "Hendaye", "place_lat": "43.353149", "place_lon": "-1.781959", "journeys": [15420, 15900, 15660], "duration_median": 15660, "duration_min": 15420, "duration_max": 15900}, "france_93": {"place_id": "france_93", "place_name": "Lyon", "place_lat": "45.702255", "place_lon": "4.863811", "journeys": [14820, 14700, 14820, 14820, 14700, 14820], "duration_median": 14820.0, "duration_min": 14700, "duration_max": 14820}, "france_105": {"place_id": "france_105", "place_name": "Marseille", "place_lat": "43.303816", "place_lon": "5.38195", "journeys": [13680, 13920, 13920], "duration_median": 13920, "duration_min": 13680, "duration_max": 13920}, "france_106": {"place_id": "france_106", "place_name": "Arles", "place_lat": "43.685004", "place_lon": "4.632429", "journeys": [11100, 10980, 11100], "duration_median": 11100, "duration_min": 10980, "duration_max": 11100}, "france_123": {"place_id": "france_123", "place_name": "Montpellier", "place_lat": "43.599651", "place_lon": "3.899979", "journeys": [7920, 7740, 7740], "duration_median": 7740, "duration_min": 7740, "duration_max": 7920}, "france_124": {"place_id": "france_124", "place_name": "Sete", "place_lat": "43.412811", "place_lon": "3.696535", "journeys": [6780, 6540, 6780], "duration_median": 6780, "duration_min": 6540, "duration_max": 6780}, "france_125": {"place_id": "france_125", "place_name": "Nimes", "place_lat": "43.821397", "place_lon": "4.441912", "journeys": [9780, 9420, 9420, 9420, 9420, 9420, 9780, 10020, 9780], "duration_median": 9420, "duration_min": 9420, "duration_max": 10020}, "france_127": {"place_id": "france_127", "place_name": "Narbonne", "place_lat": "43.1904", "place_lon": "3.006011", "journeys": [5820, 4380, 4380], "duration_median": 4380, "duration_min": 4380, "duration_max": 5820}, "france_145": {"place_id": "france_145", "place_name": "Perpignan", "place_lat": "42.695939", "place_lon": "2.879398", "journeys": [8940, 9060, 9300], "duration_median": 9060, "duration_min": 8940, "duration_max": 9300}, "france_148": {"place_id": "france_148", "place_name": "Collioure", "place_lat": "42.526906", "place_lon": "3.078077", "journeys": [10560, 10560, 10860], "duration_median": 10560, "duration_min": 10560, "duration_max": 10860}, "france_151": {"place_id": "france_151", "place_name": "Cerbere", "place_lat": "42.441661", "place_lon": "3.163187", "journeys": [11700, 11640, 11940], "duration_median": 11700, "duration_min": 11640, "duration_max": 11940}, "spain_806": {"place_id": "spain_806", "place_name": "Portbou", "place_lat": "42.424725", "place_lon": "3.157848", "journeys": [12420, 12240, 12720], "duration_median": 12420, "duration_min": 12240, "duration_max": 12720}}}