{"place_id": "Germany_1", "place_name": "Berlin", "place_lat": "52.520501", "place_lon": "13.386988", "place_brief_desc": "The capital of Germany is a must-see for anyone interested in the country's turbulent past and vibrant present.", "place_longer_desc": "./static/places/berlin.html", "place_image": "./static/images/berlin.png", "place_tags": "history", "place_links": "https://www.lonelyplanet.com/search?q=Berlin", "place_country": "Germany", "hops": {"Germany_2": {"place_id": "Germany_2", "place_name": "Dresden", "place_lat": "51.040221", "place_lon": "13.731409", "journeys": [7560, 7560, 6600, 7560, 7560], "duration_median": 7560, "duration_min": 6600, "duration_max": 7560}, "Germany_3": {"place_id": "Germany_3", "place_name": "Nuremberg", "place_lat": "49.450748", "place_lon": "11.077955", "journeys": [13080, 10560, 12180, 13080, 10560, 12180, 13080, 10560, 12180, 13080, 10560, 12180], "duration_median": 12180.0, "duration_min": 10560, "duration_max": 13080}, "Germany_4": {"place_id": "Germany_4", "place_name": "Munich", "place_lat": "48.140364", "place_lon": "11.558744", "journeys": [17220, 14520, 16380, 17220, 14520, 16380], "duration_median": 16380.0, "duration_min": 14520, "duration_max": 17220}, "Germany_5": {"place_id": "Germany_5", "place_name": "Cologne", "place_lat": "50.941312", "place_lon": "6.967206", "journeys": [23940, 23940, 18780, 19200, 23940, 23940, 18780, 19200], "duration_median": 21570.0, "duration_min": 18780, "duration_max": 23940}, "Germany_6": {"place_id": "Germany_6", "place_name": "Freiburg", "place_lat": "47.997974", "place_lon": "7.841344", "journeys": [24360, 24360, 24360, 24360, 24360, 24360], "duration_median": 24360.0, "duration_min": 24360, "duration_max": 24360}, "Germany_7": {"place_id": "Germany_7", "place_name": "Hamburg", "place_lat": "53.55711", "place_lon": "9.997434", "journeys": [6420, 7560, 6360, 6420, 7560, 6360, 6420, 7560, 6360, 6420, 7560, 6360], "duration_median": 6420.0, "duration_min": 6360, "duration_max": 7560}, "Germany_8": {"place_id": "Germany_8", "place_name": "Heidelberg", "place_lat": "49.403582", "place_lon": "8.67548", "journeys": [18360, 18240, 18300, 18360, 18240, 18300], "duration_median": 18300.0, "duration_min": 18240, "duration_max": 18360}, "Germany_9": {"place_id": "Germany_9", "place_name": "Aachen", "place_lat": "50.767641", "place_lon": "6.09119", "journeys": [21240, 21600, 20820, 21240, 21600, 20820], "duration_median": 21240.0, "duration_min": 20820, "duration_max": 21600}, "czechia_1": {"place_id": "czechia_1", "place_name": "Prague", "place_lat": "50.081926", "place_lon": "14.451481", "journeys": [15240, 16440, 16440, 15240, 16440, 16440, 15240, 16440, 16440, 15240, 16440, 16440], "duration_median": 16440.0, "duration_min": 15240, "duration_max": 16440}, "czechia_5": {"place_id": "czechia_5", "place_name": "Brno", "place_lat": "49.190537", "place_lon": "16.612776", "journeys": [25380, 26340, 25380, 25380, 26340, 25380], "duration_median": 25380.0, "duration_min": 25380, "duration_max": 26340}, "austria_1": {"place_id": "austria_1", "place_name": "Vienna", "place_lat": "48.207037", "place_lon": "16.341553", "journeys": [30720, 27780, 47280, 30720, 27780, 47280, 30720, 27780, 47280, 30720, 27780, 47280], "duration_median": 30720.0, "duration_min": 27780, "duration_max": 47280}, "austria_3": {"place_id": "austria_3", "place_name": "Graz", "place_lat": "47.072301", "place_lon": "15.416437", "journeys": [40920, 58200, 40920, 40920, 58200, 40920], "duration_median": 40920.0, "duration_min": 40920, "duration_max": 58200}, "switzerland_6": {"place_id": "switzerland_6", "place_name": "Zurich", "place_lat": "47.378968", "place_lon": "8.540534", "journeys": [30840, 30840, 30840, 30840, 30840, 30840, 30840, 30840, 30840, 30840, 30840, 30840], "duration_median": 30840.0, "duration_min": 30840, "duration_max": 30840}}}