{"place_id": "Germany_5", "place_name": "Cologne", "place_lat": "50.941312", "place_lon": "6.967206", "place_brief_desc": "The city of Cologne is located on the banks of the Rhine river and is known for its Gothic cathedral, its Roman heritage and its carnival. You can marvel at the majestic Cologne Cathedral, which took over 600 years to complete, explore the Roman-Germanic Museum and the Chocolate Museum, and join the fun at the annual Cologne Carnival, one of the largest street festivals in Europe.", "place_longer_desc": "./static/places/cologne.html", "place_image": "./static/images/cologne.png", "place_tags": "history", "place_links": "https://www.lonelyplanet.com/search?q=Cologne", "place_country": "Germany", "hops": {"Germany_1": {"place_id": "Germany_1", "place_name": "Berlin", "place_lat": "52.524924", "place_lon": "13.369629", "journeys": [25440, 17340, 17400, 25440, 17340, 17400], "duration_median": 17400.0, "duration_min": 17340, "duration_max": 25440}, "Germany_2": {"place_id": "Germany_2", "place_name": "Dresden", "place_lat": "51.040221", "place_lon": "13.731409", "journeys": [26340, 26340, 27120], "duration_median": 26340, "duration_min": 26340, "duration_max": 27120}, "Germany_3": {"place_id": "Germany_3", "place_name": "Nuremberg", "place_lat": "49.450748", "place_lon": "11.077955", "journeys": [14760, 13860, 13380, 14760, 13860, 13380], "duration_median": 13860.0, "duration_min": 13380, "duration_max": 14760}, "Germany_4": {"place_id": "Germany_4", "place_name": "Munich", "place_lat": "48.140364", "place_lon": "11.558744", "journeys": [22080, 19140, 17940], "duration_median": 19140, "duration_min": 17940, "duration_max": 22080}, "Germany_6": {"place_id": "Germany_6", "place_name": "Freiburg", "place_lat": "47.997974", "place_lon": "7.841344", "journeys": [20640, 20640, 14520, 14580], "duration_median": 17610.0, "duration_min": 14520, "duration_max": 20640}, "Germany_7": {"place_id": "Germany_7", "place_name": "Hamburg", "place_lat": "53.55711", "place_lon": "9.997434", "journeys": [16920, 14820, 13200, 16920, 14820, 13200], "duration_median": 14820.0, "duration_min": 13200, "duration_max": 16920}, "Germany_8": {"place_id": "Germany_8", "place_name": "Heidelberg", "place_lat": "49.403582", "place_lon": "8.67548", "journeys": [8520, 10080, 10980], "duration_median": 10080, "duration_min": 8520, "duration_max": 10980}, "Germany_9": {"place_id": "Germany_9", "place_name": "Aachen", "place_lat": "50.767641", "place_lon": "6.09119", "journeys": [3540, 3240, 3180], "duration_median": 3240, "duration_min": 3180, "duration_max": 3540}, "Germany_10": {"place_id": "Germany_10", "place_name": "Lubeck", "place_lat": "53.86767", "place_lon": "10.669737", "journeys": [16680, 16680, 16680], "duration_median": 16680, "duration_min": 16680, "duration_max": 16680}, "austria_1": {"place_id": "austria_1", "place_name": "Vienna", "place_lat": "48.207037", "place_lon": "16.341553", "journeys": [32460, 33240, 32460, 32460, 33240, 32460], "duration_median": 32460.0, "duration_min": 32460, "duration_max": 33240}, "austria_4": {"place_id": "austria_4", "place_name": "Innsbruck", "place_lat": "47.263331", "place_lon": "11.400506", "journeys": [43560, 39960, 39720], "duration_median": 39960, "duration_min": 39720, "duration_max": 43560}, "switzerland_2": {"place_id": "switzerland_2", "place_name": "Bern", "place_lat": "46.948834", "place_lon": "7.439131", "journeys": [23280, 23280, 21780], "duration_median": 23280, "duration_min": 21780, "duration_max": 23280}, "switzerland_6": {"place_id": "switzerland_6", "place_name": "Zurich", "place_lat": "47.378968", "place_lon": "8.540534", "journeys": [30180, 30180, 22200, 33780, 30180, 30180, 22200, 33780], "duration_median": 30180.0, "duration_min": 22200, "duration_max": 33780}, "france_19": {"place_id": "france_19", "place_name": "Paris", "place_lat": "48.861496", "place_lon": "2.333681", "journeys": [12120, 12120, 12240, 13920, 13920, 14040, 12120, 12120, 12240], "duration_median": 12240, "duration_min": 12120, "duration_max": 14040}}}