{"place_id": "Germany_8", "place_name": "Heidelberg", "place_lat": "49.403582", "place_lon": "8.67548", "place_brief_desc": "The city of Heidelberg is one of the most romantic cities in Germany, thanks to its picturesque setting on the Neckar river and its historic castle. You can stroll along the Old Bridge, visit the Heidelberg Castle ruins and gardens, admire the Old Town Hall and the Church of the Holy Spirit, and soak up the academic atmosphere at Heidelberg University, Germany's oldest university.", "place_longer_desc": "./static/places/heidelberg.html", "place_image": "./static/images/heidelberg.png", "place_tags": "history", "place_links": "https://www.lonelyplanet.com/search?q=Heidelberg", "place_country": "Germany", "hops": {"Germany_1": {"place_id": "Germany_1", "place_name": "Berlin", "place_lat": "52.524924", "place_lon": "13.369629", "journeys": [23340, 18480, 18540, 23340, 18480, 18540], "duration_median": 18540.0, "duration_min": 18480, "duration_max": 23340}, "Germany_4": {"place_id": "Germany_4", "place_name": "Munich", "place_lat": "48.140364", "place_lon": "11.558744", "journeys": [13440, 13680, 10620], "duration_median": 13440, "duration_min": 10620, "duration_max": 13680}, "Germany_5": {"place_id": "Germany_5", "place_name": "Cologne", "place_lat": "50.941312", "place_lon": "6.967206", "journeys": [8400, 10680, 10620], "duration_median": 10620, "duration_min": 8400, "duration_max": 10680}, "Germany_6": {"place_id": "Germany_6", "place_name": "Freiburg", "place_lat": "47.997974", "place_lon": "7.841344", "journeys": [6420, 6900, 6420], "duration_median": 6420, "duration_min": 6420, "duration_max": 6900}, "Germany_7": {"place_id": "Germany_7", "place_name": "Hamburg", "place_lat": "53.55711", "place_lon": "9.997434", "journeys": [24360, 24360, 23460, 26640, 24360, 24360, 23460, 26640], "duration_median": 24360.0, "duration_min": 23460, "duration_max": 26640}, "austria_2": {"place_id": "austria_2", "place_name": "Salzburg", "place_lat": "47.813848", "place_lon": "13.045514", "journeys": [17160, 17160, 17160], "duration_median": 17160, "duration_min": 17160, "duration_max": 17160}, "switzerland_6": {"place_id": "switzerland_6", "place_name": "Zurich", "place_lat": "47.378968", "place_lon": "8.540534", "journeys": [16260, 16260, 16260, 16260, 16260, 16260], "duration_median": 16260.0, "duration_min": 16260, "duration_max": 16260}}}