{"place_id": "Germany_7", "place_name": "Hamburg", "place_lat": "53.55711", "place_lon": "9.997434", "place_brief_desc": "The city of Hamburg is Germany's second-largest city and its biggest port. You can experience the maritime flair of this cosmopolitan city by visiting the Speicherstadt warehouse district, the Miniatur Wunderland model railway museum, the Elbphilharmonie concert hall and the Fish Market. You can also enjoy the nightlife and entertainment options at the Reeperbahn district, also known as \"the sinful mile\".", "place_longer_desc": "../static/places/hamburg.html", "place_image": "../static/images/hamburg.png", "place_tags": "history", "place_links": "https://www.lonelyplanet.com/search?q=Hamburg", "place_country": "Germany", "hops": {"Germany_1": {"place_id": "Germany_1", "place_name": "Berlin", "place_lat": "52.524924", "place_lon": "13.369629", "journeys": [7320, 7380, 6360, 7320, 7380, 6360, 7320, 7380, 6360, 7320, 7380, 6360], "duration_median": 7320.0, "duration_min": 6360, "duration_max": 7380}, "Germany_2": {"place_id": "Germany_2", "place_name": "Dresden", "place_lat": "51.040221", "place_lon": "13.731409", "journeys": [15540, 15360, 15360, 15540, 15360, 15360], "duration_median": 15360.0, "duration_min": 15360, "duration_max": 15540}, "Germany_3": {"place_id": "Germany_3", "place_name": "Nuremberg", "place_lat": "49.450748", "place_lon": "11.077955", "journeys": [19800, 18240, 19860, 19800, 18240, 19860, 19800, 18240, 19860, 19800, 18240, 19860], "duration_median": 19800.0, "duration_min": 18240, "duration_max": 19860}, "Germany_4": {"place_id": "Germany_4", "place_name": "Munich", "place_lat": "48.140364", "place_lon": "11.558744", "journeys": [24300, 22200, 24240, 24300, 22200, 24240], "duration_median": 24240.0, "duration_min": 22200, "duration_max": 24300}, "Germany_5": {"place_id": "Germany_5", "place_name": "Cologne", "place_lat": "50.941312", "place_lon": "6.967206", "journeys": [15240, 15120, 14220, 15240, 15120, 14220, 14880], "duration_median": 15120, "duration_min": 14220, "duration_max": 15240}, "Germany_6": {"place_id": "Germany_6", "place_name": "Freiburg", "place_lat": "47.997974", "place_lon": "7.841344", "journeys": [25740, 29460, 24240, 25740, 29460, 24240], "duration_median": 25740.0, "duration_min": 24240, "duration_max": 29460}, "Germany_8": {"place_id": "Germany_8", "place_name": "Heidelberg", "place_lat": "49.403582", "place_lon": "8.67548", "journeys": [22500, 28800, 23520, 22500, 28800, 23520], "duration_median": 23520.0, "duration_min": 22500, "duration_max": 28800}, "Germany_10": {"place_id": "Germany_10", "place_name": "Lubeck", "place_lat": "53.86767", "place_lon": "10.669737", "journeys": [3060, 2880, 3060, 3060, 2880, 3060], "duration_median": 3060.0, "duration_min": 2880, "duration_max": 3060}, "czechia_1": {"place_id": "czechia_1", "place_name": "Prague", "place_lat": "50.081926", "place_lon": "14.451481", "journeys": [24420, 24240, 24240, 24420, 24240, 24240, 24420, 24240, 24240, 24420, 24240, 24240], "duration_median": 24240.0, "duration_min": 24240, "duration_max": 24420}, "czechia_5": {"place_id": "czechia_5", "place_name": "Brno", "place_lat": "49.190537", "place_lon": "16.612776", "journeys": [34320, 34320, 34320, 34320, 34320, 34320], "duration_median": 34320.0, "duration_min": 34320, "duration_max": 34320}, "austria_1": {"place_id": "austria_1", "place_name": "Vienna", "place_lat": "48.207037", "place_lon": "16.341553", "journeys": [34980, 56940, 34980, 34980, 56940, 34980, 34980, 56940, 34980, 34980, 56940, 34980], "duration_median": 34980.0, "duration_min": 34980, "duration_max": 56940}, "austria_4": {"place_id": "austria_4", "place_name": "Innsbruck", "place_lat": "47.263331", "place_lon": "11.400506", "journeys": [35640, 49800, 46200, 35640, 49800, 46200], "duration_median": 46200.0, "duration_min": 35640, "duration_max": 49800}, "switzerland_2": {"place_id": "switzerland_2", "place_name": "Bern", "place_lat": "46.948834", "place_lon": "7.439131", "journeys": [38220, 31740, 33540, 38220, 31740, 33540], "duration_median": 33540.0, "duration_min": 31740, "duration_max": 38220}, "switzerland_6": {"place_id": "switzerland_6", "place_name": "Zurich", "place_lat": "47.378968", "place_lon": "8.540534", "journeys": [36900, 46680, 46680, 36900, 36900, 46680, 46680, 36900, 36900, 46680, 46680, 36900, 36900, 46680, 46680, 36900], "duration_median": 41790.0, "duration_min": 36900, "duration_max": 46680}}}