{"place_id": "Germany_3", "place_name": "Nuremberg", "place_lat": "49.450748", "place_lon": "11.077955", "place_brief_desc": "The city of Nuremberg is famous for its medieval old town, its Christmas market and its role in the Nazi era. You can walk along the ancient city walls, visit the imposing Nuremberg Castle, learn about the history of the Nazi Party Rally Grounds and the Nuremberg Trials, and sample some of the local specialties such as Nuremberg sausages and gingerbread.", "place_longer_desc": "./static/places/nuremberg.html", "place_image": "./static/images/nuremberg.png", "place_tags": "history", "place_links": "https://www.lonelyplanet.com/search?q=Nuremberg", "place_country": "Germany", "hops": {"Germany_1": {"place_id": "Germany_1", "place_name": "Berlin", "place_lat": "52.524924", "place_lon": "13.369629", "journeys": [21960, 13620, 10440, 21960, 13620, 10440, 21960, 13620, 10440, 21960, 13620, 10440], "duration_median": 13620.0, "duration_min": 10440, "duration_max": 21960}, "Germany_4": {"place_id": "Germany_4", "place_name": "Munich", "place_lat": "48.140364", "place_lon": "11.558744", "journeys": [4740, 3720, 4500, 5580, 4740, 4740, 3720, 4500, 5580, 4740], "duration_median": 4740.0, "duration_min": 3720, "duration_max": 5580}, "Germany_5": {"place_id": "Germany_5", "place_name": "Cologne", "place_lat": "50.941312", "place_lon": "6.967206", "journeys": [20880, 14700, 12480, 20880, 14700, 12480], "duration_median": 14700.0, "duration_min": 12480, "duration_max": 20880}, "Germany_7": {"place_id": "Germany_7", "place_name": "Hamburg", "place_lat": "53.55711", "place_lon": "9.997434", "journeys": [24900, 24540, 22860, 24900, 24540, 22860, 24900, 24540, 22860, 24900, 24540, 22860], "duration_median": 24540.0, "duration_min": 22860, "duration_max": 24900}, "Germany_10": {"place_id": "Germany_10", "place_name": "Lubeck", "place_lat": "53.86767", "place_lon": "10.669737", "journeys": [21840, 21960, 21840, 21840, 21960, 21840], "duration_median": 21840.0, "duration_min": 21840, "duration_max": 21960}, "austria_1": {"place_id": "austria_1", "place_name": "Vienna", "place_lat": "48.207037", "place_lon": "16.341553", "journeys": [17340, 17220, 15360, 17340, 17220, 15360, 17340, 17220, 15360, 17340, 17220, 15360], "duration_median": 17220.0, "duration_min": 15360, "duration_max": 17340}, "austria_4": {"place_id": "austria_4", "place_name": "Innsbruck", "place_lat": "47.263331", "place_lon": "11.400506", "journeys": [16560, 20280, 16680, 16560, 20280, 16680], "duration_median": 16680.0, "duration_min": 16560, "duration_max": 20280}}}