{"place_id": "Germany_2", "place_name": "Dresden", "place_lat": "51.040221", "place_lon": "13.731409", "place_brief_desc": "Dresden: The city of Dresden was heavily bombed during World War II, but has been beautifully restored to its former glory. You can admire the stunning Baroque architecture of the Zwinger Palace, the Semper Opera House and the Frauenkirche, as well as explore the rich collections of art and history in the museums.", "place_longer_desc": "../static/places/dresden.html", "place_image": "../static/images/dresden.png", "place_tags": "history", "place_links": "https://www.lonelyplanet.com/search?q=Dresden", "place_country": "Germany", "hops": {"Germany_1": {"place_id": "Germany_1", "place_name": "Berlin", "place_lat": "52.524924", "place_lon": "13.369629", "journeys": [7320, 7680, 7440, 7320, 7680, 7440], "duration_median": 7440.0, "duration_min": 7320, "duration_max": 7680}, "Germany_5": {"place_id": "Germany_5", "place_name": "Cologne", "place_lat": "50.941312", "place_lon": "6.967206", "journeys": [26580, 27000, 27000], "duration_median": 27000, "duration_min": 26580, "duration_max": 27000}, "Germany_6": {"place_id": "Germany_6", "place_name": "Freiburg", "place_lat": "47.997974", "place_lon": "7.841344", "journeys": [36420, 36420, 32820, 32820], "duration_median": 34620.0, "duration_min": 32820, "duration_max": 36420}, "Germany_7": {"place_id": "Germany_7", "place_name": "Hamburg", "place_lat": "53.55711", "place_lon": "9.997434", "journeys": [15660, 15360, 15360, 15660, 15360, 15360], "duration_median": 15360.0, "duration_min": 15360, "duration_max": 15660}, "Germany_9": {"place_id": "Germany_9", "place_name": "Aachen", "place_lat": "50.767641", "place_lon": "6.09119", "journeys": [28920], "duration_median": 28920, "duration_min": 28920, "duration_max": 28920}, "czechia_1": {"place_id": "czechia_1", "place_name": "Prague", "place_lat": "50.081926", "place_lon": "14.451481", "journeys": [9000, 8460, 8700, 9000, 8460, 8700], "duration_median": 8700.0, "duration_min": 8460, "duration_max": 9000}, "czechia_5": {"place_id": "czechia_5", "place_name": "Brno", "place_lat": "49.190537", "place_lon": "16.612776", "journeys": [18600, 18600, 18600], "duration_median": 18600, "duration_min": 18600, "duration_max": 18600}, "czechia_9": {"place_id": "czechia_9", "place_name": "Liberec", "place_lat": "50.761429", "place_lon": "15.045947", "journeys": [8940, 7200, 7200], "duration_median": 7200, "duration_min": 7200, "duration_max": 8940}, "austria_1": {"place_id": "austria_1", "place_name": "Vienna", "place_lat": "48.207037", "place_lon": "16.341553", "journeys": [23940, 23940, 23940, 23940, 23940, 23940], "duration_median": 23940.0, "duration_min": 23940, "duration_max": 23940}, "austria_3": {"place_id": "austria_3", "place_name": "Graz", "place_lat": "47.072301", "place_lon": "15.416437", "journeys": [34140, 34140, 33840], "duration_median": 34140, "duration_min": 33840, "duration_max": 34140}, "switzerland_6": {"place_id": "switzerland_6", "place_name": "Zurich", "place_lat": "47.378968", "place_lon": "8.540534", "journeys": [46500, 46500, 42900, 42900, 46500, 46500, 42900, 42900], "duration_median": 44700.0, "duration_min": 42900, "duration_max": 46500}}}