{"place_id": "Germany_6", "place_name": "Freiburg", "place_lat": "47.997974", "place_lon": "7.841344", "place_brief_desc": "The city of Freiburg is situated at the edge of the Black Forest and is one of the greenest and sunniest cities in Germany. You can wander around the charming old town with its colourful houses, cobblestone streets and canals, climb up to the Schlossberg hill for a panoramic view of the city and the forest, and take a scenic train ride on the H\u00c3\u00b6llentalbahn or the Three Lakes Railway", "place_longer_desc": "./static/places/freiburg.html", "place_image": "./static/images/freiburg.png", "place_tags": "history", "place_links": "https://www.lonelyplanet.com/search?q=Freiburg", "place_country": "Germany", "hops": {"Germany_1": {"place_id": "Germany_1", "place_name": "Berlin", "place_lat": "52.524924", "place_lon": "13.369629", "journeys": [24600, 24240, 24240, 24600, 24240, 24240], "duration_median": 24240.0, "duration_min": 24240, "duration_max": 24600}, "Germany_2": {"place_id": "Germany_2", "place_name": "Dresden", "place_lat": "51.040221", "place_lon": "13.731409", "journeys": [36420, 36420, 32820, 32820], "duration_median": 34620.0, "duration_min": 32820, "duration_max": 36420}, "Germany_4": {"place_id": "Germany_4", "place_name": "Munich", "place_lat": "48.140364", "place_lon": "11.558744", "journeys": [15060, 15060], "duration_median": 15060.0, "duration_min": 15060, "duration_max": 15060}, "Germany_5": {"place_id": "Germany_5", "place_name": "Cologne", "place_lat": "50.941312", "place_lon": "6.967206", "journeys": [22320, 22320, 15000, 14820], "duration_median": 18660.0, "duration_min": 14820, "duration_max": 22320}, "Germany_7": {"place_id": "Germany_7", "place_name": "Hamburg", "place_lat": "53.55711", "place_lon": "9.997434", "journeys": [32160, 32160, 24360, 24060, 32160, 32160, 24360, 24060], "duration_median": 28260.0, "duration_min": 24060, "duration_max": 32160}, "Germany_8": {"place_id": "Germany_8", "place_name": "Heidelberg", "place_lat": "49.403582", "place_lon": "8.67548", "journeys": [7560, 7320, 7320], "duration_median": 7320, "duration_min": 7320, "duration_max": 7560}, "czechia_1": {"place_id": "czechia_1", "place_name": "Prague", "place_lat": "50.081926", "place_lon": "14.451481", "journeys": [45600, 45600, 42000, 42000, 45600, 45600, 42000, 42000], "duration_median": 43800.0, "duration_min": 42000, "duration_max": 45600}, "switzerland_2": {"place_id": "switzerland_2", "place_name": "Bern", "place_lat": "46.948834", "place_lon": "7.439131", "journeys": [10740, 8640, 7860], "duration_median": 8640, "duration_min": 7860, "duration_max": 10740}, "switzerland_6": {"place_id": "switzerland_6", "place_name": "Zurich", "place_lat": "47.378968", "place_lon": "8.540534", "journeys": [9420, 9960, 6960, 9420, 9960, 6960], "duration_median": 9420.0, "duration_min": 6960, "duration_max": 9960}, "france_19": {"place_id": "france_19", "place_name": "Paris", "place_lat": "48.861496", "place_lon": "2.333681", "journeys": [11580, 13020, 10920, 11580, 13020, 10920, 13380, 14820, 12720], "duration_median": 12720, "duration_min": 10920, "duration_max": 14820}, "france_24": {"place_id": "france_24", "place_name": "Bordeaux", "place_lat": "44.82649", "place_lon": "-0.55592", "journeys": [27600], "duration_median": 27600, "duration_min": 27600, "duration_max": 27600}, "france_162": {"place_id": "france_162", "place_name": "Strasbourg", "place_lat": "48.585339", "place_lon": "7.734067", "journeys": [3780, 5040, 5220], "duration_median": 5040, "duration_min": 3780, "duration_max": 5220}}}