{"place_id": "Germany_4", "place_name": "Munich", "place_lat": "48.140364", "place_lon": "11.558744", "place_brief_desc": "The capital of Bavaria is a popular destination for its Oktoberfest, its beer halls and its fairy-tale castles. You can enjoy the festive atmosphere at Marienplatz, see the famous Glockenspiel clock, visit the impressive Munich Residenz palace and museum, and take a day trip to Neuschwanstein Castle, one of the most spectacular castles in the world", "place_longer_desc": "./static/places/munich.html", "place_image": "./static/images/munich.png", "place_tags": "history", "place_links": "https://www.lonelyplanet.com/search?q=Munich", "place_country": "Germany", "hops": {"Germany_1": {"place_id": "Germany_1", "place_name": "Berlin", "place_lat": "52.524924", "place_lon": "13.369629", "journeys": [14400, 16500, 14280, 14400, 16500, 14280], "duration_median": 14400.0, "duration_min": 14280, "duration_max": 16500}, "Germany_3": {"place_id": "Germany_3", "place_name": "Nuremberg", "place_lat": "49.450748", "place_lon": "11.077955", "journeys": [7320, 4020, 4680, 7320, 4020, 4680], "duration_median": 4680.0, "duration_min": 4020, "duration_max": 7320}, "Germany_5": {"place_id": "Germany_5", "place_name": "Cologne", "place_lat": "50.941312", "place_lon": "6.967206", "journeys": [30900, 21720, 16320], "duration_median": 21720, "duration_min": 16320, "duration_max": 30900}, "Germany_6": {"place_id": "Germany_6", "place_name": "Freiburg", "place_lat": "47.997974", "place_lon": "7.841344", "journeys": [14640, 14640], "duration_median": 14640.0, "duration_min": 14640, "duration_max": 14640}, "Germany_7": {"place_id": "Germany_7", "place_name": "Hamburg", "place_lat": "53.55711", "place_lon": "9.997434", "journeys": [35700, 36780, 21480, 35700, 36780, 21480], "duration_median": 35700.0, "duration_min": 21480, "duration_max": 36780}, "Germany_8": {"place_id": "Germany_8", "place_name": "Heidelberg", "place_lat": "49.403582", "place_lon": "8.67548", "journeys": [12000, 10800, 10680], "duration_median": 10800, "duration_min": 10680, "duration_max": 12000}, "Germany_10": {"place_id": "Germany_10", "place_name": "Lubeck", "place_lat": "53.86767", "place_lon": "10.669737", "journeys": [26580, 26340, 26580], "duration_median": 26580, "duration_min": 26340, "duration_max": 26580}, "czechia_1": {"place_id": "czechia_1", "place_name": "Prague", "place_lat": "50.081926", "place_lon": "14.451481", "journeys": [19980, 19980, 20040, 19980, 19980, 20040], "duration_median": 19980.0, "duration_min": 19980, "duration_max": 20040}, "czechia_6": {"place_id": "czechia_6", "place_name": "Pilsen", "place_lat": "49.746889", "place_lon": "13.377351", "journeys": [14580, 14580, 14640, 14580, 14580, 14640], "duration_median": 14580.0, "duration_min": 14580, "duration_max": 14640}, "austria_1": {"place_id": "austria_1", "place_name": "Vienna", "place_lat": "48.207037", "place_lon": "16.341553", "journeys": [26100, 18540, 18060, 26100, 18540, 18060], "duration_median": 18540.0, "duration_min": 18060, "duration_max": 26100}, "austria_2": {"place_id": "austria_2", "place_name": "Salzburg", "place_lat": "47.813848", "place_lon": "13.045514", "journeys": [6900, 7740, 6660], "duration_median": 6900, "duration_min": 6660, "duration_max": 7740}, "austria_4": {"place_id": "austria_4", "place_name": "Innsbruck", "place_lat": "47.263331", "place_lon": "11.400506", "journeys": [6360, 6240, 6240], "duration_median": 6240, "duration_min": 6240, "duration_max": 6360}, "austria_5": {"place_id": "austria_5", "place_name": "Bregenz", "place_lat": "47.503001", "place_lon": "9.739623", "journeys": [7380, 7380, 7380], "duration_median": 7380, "duration_min": 7380, "duration_max": 7380}, "switzerland_6": {"place_id": "switzerland_6", "place_name": "Zurich", "place_lat": "47.378968", "place_lon": "8.540534", "journeys": [12720, 12720, 12720, 12720, 12720, 12720], "duration_median": 12720.0, "duration_min": 12720, "duration_max": 12720}, "france_19": {"place_id": "france_19", "place_name": "Paris", "place_lat": "48.861496", "place_lon": "2.333681", "journeys": [20580, 39960, 20580, 20580, 39960, 20580, 22380, 41760, 22380], "duration_median": 22380, "duration_min": 20580, "duration_max": 41760}, "france_162": {"place_id": "france_162", "place_name": "Strasbourg", "place_lat": "48.585339", "place_lon": "7.734067", "journeys": [13680, 23160, 13680], "duration_median": 13680, "duration_min": 13680, "duration_max": 23160}}}