{"place_id": "romania_10", "place_name": "Bucharest", "place_lat": "44.428816", "place_lon": "26.10382", "place_brief_desc": "It\u00e2\u20ac\u2122s the capital and the largest city of Romania, as well as a dynamic and cosmopolitan metropolis. It offers a contrast between its historical and cultural heritage and its modern and eclectic vibe. You can visit the Palace of Parliament, one of the largest and most extravagant buildings in the world, built by the former communist dictator Nicolae Ceau\u00c8\u2122escu. You can also explore the old town, where you can find churches, museums, restaurants, and bars.", "place_longer_desc": "../static/places/bucharest.html", "place_image": "../static/images/bucharest.png", "place_tags": "history", "place_links": "https://www.lonelyplanet.com/search?q=Bucharest", "place_country": "Romania", "hops": {"romania_1": {"place_id": "romania_1", "place_name": "Sighisoara", "place_lat": "46.226398", "place_lon": "24.795737", "journeys": [21780, 19680, 21600], "duration_median": 21600, "duration_min": 19680, "duration_max": 21780}, "romania_3": {"place_id": "romania_3", "place_name": "Sibiu", "place_lat": "45.799977", "place_lon": "24.161575", "journeys": [20400, 18840, 20400], "duration_median": 20400, "duration_min": 18840, "duration_max": 20400}, "romania_2": {"place_id": "romania_2", "place_name": "Brasov", "place_lat": "45.661516", "place_lon": "25.613711", "journeys": [9120, 8880, 8700], "duration_median": 8880, "duration_min": 8700, "duration_max": 9120}, "romania_4": {"place_id": "romania_4", "place_name": "Targu Mures", "place_lat": "46.533344", "place_lon": "24.549316", "journeys": [32340, 32340, 32340], "duration_median": 32340, "duration_min": 32340, "duration_max": 32340}, "romania_5": {"place_id": "romania_5", "place_name": "Miercurea Ciuc", "place_lat": "46.359574", "place_lon": "25.793782", "journeys": [16080, 15300, 16080], "duration_median": 16080, "duration_min": 15300, "duration_max": 16080}, "romania_6": {"place_id": "romania_6", "place_name": "Cluj-Napoca", "place_lat": "46.784197", "place_lon": "23.586616", "journeys": [33360, 30540, 30240], "duration_median": 30540, "duration_min": 30240, "duration_max": 33360}, "romania_9": {"place_id": "romania_9", "place_name": "Constanta", "place_lat": "44.168767", "place_lon": "28.631893", "journeys": [8520, 8400, 7200], "duration_median": 8400, "duration_min": 7200, "duration_max": 8520}}}