{"place_id": "romania_2", "place_name": "Brasov", "place_lat": "47.931922", "place_lon": "8.456908", "place_brief_desc": "Bra\u00c8\u2122ov is a charming city surrounded by the Carpathian Mountains and known for its Gothic and Baroque architecture. It is also a gateway to some of the most famous attractions in Romania, such as Bran Castle (also known as Dracula's Castle), Pele\u00c8\u2122 Castle (a former royal residence), and R\u00c3\u00a2\u00c8\u2122nov Fortress (a medieval citadel). You can also enjoy the nature and wildlife of the nearby Piatra Craiului National Park or Poiana Bra\u00c8\u2122ov ski resort.", "place_longer_desc": "./static/places/brasov.html", "place_image": "./static/images/brasov.png", "place_tags": "history", "place_links": "https://www.lonelyplanet.com/search?q=Bra\u00c8\u2122ov", "place_country": "Romania", "hops": {"romania_1": {"place_id": "romania_1", "place_name": "Sighisoara", "place_lat": "46.226398", "place_lon": "24.795737", "journeys": [14880, 12060, 13980], "duration_median": 13980, "duration_min": 12060, "duration_max": 14880}, "romania_3": {"place_id": "romania_3", "place_name": "Sibiu", "place_lat": "45.799977", "place_lon": "24.161575", "journeys": [9480, 9960, 13920], "duration_median": 9960, "duration_min": 9480, "duration_max": 13920}, "romania_4": {"place_id": "romania_4", "place_name": "Targu Mures", "place_lat": "46.533344", "place_lon": "24.549316", "journeys": [22140, 22140, 22140], "duration_median": 22140, "duration_min": 22140, "duration_max": 22140}, "romania_5": {"place_id": "romania_5", "place_name": "Miercurea Ciuc", "place_lat": "46.359574", "place_lon": "25.793782", "journeys": [5340, 9060, 7020], "duration_median": 7020, "duration_min": 5340, "duration_max": 9060}, "romania_6": {"place_id": "romania_6", "place_name": "Cluj-Napoca", "place_lat": "46.784197", "place_lon": "23.586616", "journeys": [25260, 23640, 22260], "duration_median": 23640, "duration_min": 22260, "duration_max": 25260}, "romania_9": {"place_id": "romania_9", "place_name": "Constanta", "place_lat": "44.168767", "place_lon": "28.631893", "journeys": [16200, 18600, 20100], "duration_median": 18600, "duration_min": 16200, "duration_max": 20100}, "romania_10": {"place_id": "romania_10", "place_name": "Bucharest", "place_lat": "44.428816", "place_lon": "26.10382", "journeys": [10080, 12840, 9960], "duration_median": 10080, "duration_min": 9960, "duration_max": 12840}}}