{"place_id": "spain_806", "place_name": "Portbou", "place_lat": "42.4244940", "place_lon": "3.15785800", "place_brief_desc": "border town with a long history", "place_longer_desc": "./static/places/portbou.html", "place_image": "./static/images/portbou.png", "place_tags": "history", "place_links": "https://www.lonelyplanet.com/search?q=portbou", "place_country": "Spain", "hops": {"france_38": {"place_id": "france_38", "place_name": "Toulouse", "place_lat": "43.611409", "place_lon": "1.453942", "journeys": [13860, 13140, 13200], "duration_median": 13200, "duration_min": 13140, "duration_max": 13860}, "france_72": {"place_id": "france_72", "place_name": "Carcassonne", "place_lat": "43.218185", "place_lon": "2.351794", "journeys": [9900, 9420, 9480], "duration_median": 9480, "duration_min": 9420, "duration_max": 9900}, "france_123": {"place_id": "france_123", "place_name": "Montpellier", "place_lat": "43.599651", "place_lon": "3.899979", "journeys": [11040, 11040, 11100], "duration_median": 11040, "duration_min": 11040, "duration_max": 11100}, "france_124": {"place_id": "france_124", "place_name": "Sete", "place_lat": "43.412811", "place_lon": "3.696535", "journeys": [9840, 9840, 9900], "duration_median": 9840, "duration_min": 9840, "duration_max": 9900}, "france_125": {"place_id": "france_125", "place_name": "Nimes", "place_lat": "43.821397", "place_lon": "4.441912", "journeys": [13320, 13380, 13320, 13320, 13380, 13320, 13920, 14040, 13920], "duration_median": 13380, "duration_min": 13320, "duration_max": 14040}, "france_127": {"place_id": "france_127", "place_name": "Narbonne", "place_lat": "43.1904", "place_lon": "3.006011", "journeys": [6540, 6540, 6600], "duration_median": 6540, "duration_min": 6540, "duration_max": 6600}, "france_145": {"place_id": "france_145", "place_name": "Perpignan", "place_lat": "42.695939", "place_lon": "2.879398", "journeys": [3600, 3600, 3600], "duration_median": 3600, "duration_min": 3600, "duration_max": 3600}, "france_148": {"place_id": "france_148", "place_name": "Collioure", "place_lat": "42.526906", "place_lon": "3.078077", "journeys": [2160, 2100, 2160], "duration_median": 2160, "duration_min": 2100, "duration_max": 2160}, "france_151": {"place_id": "france_151", "place_name": "Cerbere", "place_lat": "42.441661", "place_lon": "3.163187", "journeys": [420, 240, 360], "duration_median": 360, "duration_min": 240, "duration_max": 420}, "spain_1": {"place_id": "spain_1", "place_name": "Barcelona", "place_lat": "41.378911", "place_lon": "2.140368", "journeys": [9300, 9300, 9300], "duration_median": 9300, "duration_min": 9300, "duration_max": 9300}, "spain_104": {"place_id": "spain_104", "place_name": "Figueres", "place_lat": "42.264951", "place_lon": "2.969272", "journeys": [1380, 1380, 1380], "duration_median": 1380, "duration_min": 1380, "duration_max": 1380}, "spain_105": {"place_id": "spain_105", "place_name": "Girona", "place_lat": "41.979517", "place_lon": "2.816482", "journeys": [3780, 3780, 3780], "duration_median": 3780, "duration_min": 3780, "duration_max": 3780}, "spain_805": {"place_id": "spain_805", "place_name": "Llanca", "place_lat": "42.366691", "place_lon": "3.149101", "journeys": [540, 540, 540], "duration_median": 540, "duration_min": 540, "duration_max": 540}}}