{"place_id": "spain_20", "place_name": "Madrid", "place_lat": "40.4720993", "place_lon": "-3.6824687", "place_brief_desc": "Madrid, capital of Spain and former centre of a vast new-world empire has accumulated a wealth of art and architecture that should tickle even the most jaded of travellers.", "place_longer_desc": "./static/places/madrid.html", "place_image": "./static/images/madrid.png", "place_tags": "history", "place_links": "https://www.lonelyplanet.com/search?q=Madrid", "place_country": "Spain", "hops": {"france_105": {"place_id": "france_105", "place_name": "Marseille", "place_lat": "43.303816", "place_lon": "5.38195", "journeys": [29700, 29700, 29700, 29100, 29100, 29100], "duration_median": 29400.0, "duration_min": 29100, "duration_max": 29700}, "france_123": {"place_id": "france_123", "place_name": "Montpellier", "place_lat": "43.599651", "place_lon": "3.899979", "journeys": [23280, 23280, 23280, 22680, 22680, 22680], "duration_median": 22980.0, "duration_min": 22680, "duration_max": 23280}, "france_125": {"place_id": "france_125", "place_name": "Nimes", "place_lat": "43.821397", "place_lon": "4.441912", "journeys": [25620, 25620, 25620, 25620, 25620, 25620, 25020, 25020, 25020, 25020, 25020, 25020], "duration_median": 25320.0, "duration_min": 25020, "duration_max": 25620}, "france_127": {"place_id": "france_127", "place_name": "Narbonne", "place_lat": "43.1904", "place_lon": "3.006011", "journeys": [19080, 19080, 19080, 18480, 18480, 18480], "duration_median": 18780.0, "duration_min": 18480, "duration_max": 19080}, "france_145": {"place_id": "france_145", "place_name": "Perpignan", "place_lat": "42.695939", "place_lon": "2.879398", "journeys": [16740, 16740, 16740, 16140, 16140, 16140], "duration_median": 16440.0, "duration_min": 16140, "duration_max": 16740}, "spain_1": {"place_id": "spain_1", "place_name": "Barcelona", "place_lat": "41.378911", "place_lon": "2.140368", "journeys": [9600, 10500, 12120, 9000, 9900, 11520], "duration_median": 10200.0, "duration_min": 9000, "duration_max": 12120}, "spain_19": {"place_id": "spain_19", "place_name": "Tarragona", "place_lat": "41.192026", "place_lon": "1.271587", "journeys": [9840, 9480, 8760, 9240, 8880, 8160], "duration_median": 9060.0, "duration_min": 8160, "duration_max": 9840}, "spain_44": {"place_id": "spain_44", "place_name": "San Sebastian", "place_lat": "43.317669", "place_lon": "-1.976782", "journeys": [17640, 18120, 17640, 20340, 20820, 20340], "duration_median": 19230.0, "duration_min": 17640, "duration_max": 20820}, "spain_55": {"place_id": "spain_55", "place_name": "Zaragoza", "place_lat": "41.65844", "place_lon": "-0.909906", "journeys": [5100, 5460, 5100, 4500, 4860, 4500], "duration_median": 4980.0, "duration_min": 4500, "duration_max": 5460}, "spain_56": {"place_id": "spain_56", "place_name": "Tudela de Navarra", "place_lat": "42.059521", "place_lon": "-1.597554", "journeys": [9120, 8460, 8640, 8520, 7860, 8040], "duration_median": 8490.0, "duration_min": 7860, "duration_max": 9120}, "spain_61": {"place_id": "spain_61", "place_name": "Pamplona", "place_lat": "42.825123", "place_lon": "-1.66189", "journeys": [12480, 13320, 12060, 11880, 12720, 11460], "duration_median": 12270.0, "duration_min": 11460, "duration_max": 13320}, "spain_96": {"place_id": "spain_96", "place_name": "Cordoba", "place_lat": "37.888589", "place_lon": "-4.789596", "journeys": [7860, 7320, 8460, 7260, 6720, 7860], "duration_median": 7590.0, "duration_min": 6720, "duration_max": 8460}, "spain_97": {"place_id": "spain_97", "place_name": "Seville", "place_lat": "37.391926", "place_lon": "-5.975265", "journeys": [10920, 10380, 10380, 10320, 9780, 9780], "duration_median": 10350.0, "duration_min": 9780, "duration_max": 10920}, "spain_104": {"place_id": "spain_104", "place_name": "Figueres", "place_lat": "42.26478", "place_lon": "2.943023", "journeys": [15900, 15600, 15240, 15300, 15000, 14640], "duration_median": 15270.0, "duration_min": 14640, "duration_max": 15900}, "spain_105": {"place_id": "spain_105", "place_name": "Girona", "place_lat": "41.979517", "place_lon": "2.816482", "journeys": [14880, 14580, 14220, 14280, 13980, 13620], "duration_median": 14250.0, "duration_min": 13620, "duration_max": 14880}, "spain_139": {"place_id": "spain_139", "place_name": "Tolosa", "place_lat": "43.135592", "place_lon": "-2.079205", "journeys": [16740, 16200, 16740, 19440, 18900, 19440], "duration_median": 17820.0, "duration_min": 16200, "duration_max": 19440}, "spain_162": {"place_id": "spain_162", "place_name": "Algeciras", "place_lat": "36.126721", "place_lon": "-5.450996", "journeys": [20820, 20820, 20820, 20220, 20220, 20220], "duration_median": 20520.0, "duration_min": 20220, "duration_max": 20820}}}