{"place_id": "spain_19", "place_name": "Tarragona", "place_lat": "41.1116240", "place_lon": "1.25321400", "place_brief_desc": "Tarragona seems to effortlessly juggle being both a UNESCO-listed tourist destination and a busy port with all the associated industry", "place_longer_desc": "./static/places/tarragona.html", "place_image": "./static/images/tarragona.png", "place_tags": "history", "place_links": "https://www.lonelyplanet.com/search?q=Tarragona", "place_country": "Spain", "hops": {"spain_1": {"place_id": "spain_1", "place_name": "Barcelona", "place_lat": "41.378911", "place_lon": "2.140368", "journeys": [5220, 4440, 4500, 2040, 2160, 2700], "duration_median": 3570.0, "duration_min": 2040, "duration_max": 5220}, "spain_20": {"place_id": "spain_20", "place_name": "Madrid", "place_lat": "40.472151", "place_lon": "-3.68235", "journeys": [28680, 28680, 28680, 31380, 31380, 31380, 10500, 10080, 10380, 9900, 9480, 9780], "duration_median": 19590.0, "duration_min": 9480, "duration_max": 31380}, "spain_55": {"place_id": "spain_55", "place_name": "Zaragoza", "place_lat": "41.65844", "place_lon": "-0.909906", "journeys": [14160, 14640, 14160, 4080, 4560, 4080], "duration_median": 9360.0, "duration_min": 4080, "duration_max": 14640}, "france_105": {"place_id": "france_105", "place_name": "Marseille", "place_lat": "43.303816", "place_lon": "5.38195", "journeys": [20640, 20640, 20640], "duration_median": 20640, "duration_min": 20640, "duration_max": 20640}, "france_123": {"place_id": "france_123", "place_name": "Montpellier", "place_lat": "43.599651", "place_lon": "3.899979", "journeys": [14220, 14220, 14220], "duration_median": 14220, "duration_min": 14220, "duration_max": 14220}, "france_125": {"place_id": "france_125", "place_name": "Nimes", "place_lat": "43.821397", "place_lon": "4.441912", "journeys": [16560, 16560, 16560, 16560, 16560, 16560], "duration_median": 16560.0, "duration_min": 16560, "duration_max": 16560}, "france_127": {"place_id": "france_127", "place_name": "Narbonne", "place_lat": "43.1904", "place_lon": "3.006011", "journeys": [10020, 10020, 10020], "duration_median": 10020, "duration_min": 10020, "duration_max": 10020}, "france_145": {"place_id": "france_145", "place_name": "Perpignan", "place_lat": "42.695939", "place_lon": "2.879398", "journeys": [7680, 7680, 7680], "duration_median": 7680, "duration_min": 7680, "duration_max": 7680}, "spain_44": {"place_id": "spain_44", "place_name": "San Sebastian", "place_lat": "43.317669", "place_lon": "-1.976782", "journeys": [19500, 19500, 18480], "duration_median": 19500, "duration_min": 18480, "duration_max": 19500}, "spain_56": {"place_id": "spain_56", "place_name": "Tudela de Navarra", "place_lat": "42.059521", "place_lon": "-1.597554", "journeys": [7860, 8160, 7560], "duration_median": 7860, "duration_min": 7560, "duration_max": 8160}, "spain_61": {"place_id": "spain_61", "place_name": "Pamplona", "place_lat": "42.825123", "place_lon": "-1.66189", "journeys": [12240, 11820, 12240], "duration_median": 12240, "duration_min": 11820, "duration_max": 12240}, "spain_96": {"place_id": "spain_96", "place_name": "Cordoba", "place_lat": "37.888589", "place_lon": "-4.789596", "journeys": [15780, 16320, 17040], "duration_median": 16320, "duration_min": 15780, "duration_max": 17040}, "spain_97": {"place_id": "spain_97", "place_name": "Seville", "place_lat": "37.391926", "place_lon": "-5.975265", "journeys": [19320, 20220, 19320], "duration_median": 19320, "duration_min": 19320, "duration_max": 20220}, "spain_104": {"place_id": "spain_104", "place_name": "Figueres", "place_lat": "42.26478", "place_lon": "2.943023", "journeys": [5940, 6000, 6180], "duration_median": 6000, "duration_min": 5940, "duration_max": 6180}, "spain_105": {"place_id": "spain_105", "place_name": "Girona", "place_lat": "41.979517", "place_lon": "2.816482", "journeys": [4920, 4980, 5160], "duration_median": 4980, "duration_min": 4920, "duration_max": 5160}}}