{"place_id": "spain_105", "place_name": "Girona", "place_lat": "41.9793030", "place_lon": "2.81700600", "place_brief_desc": "The Catalan city of Girona is the smart choice for those who have found Barcelona just a bit too much...", "place_longer_desc": "../static/places/girona.html", "place_image": "../static/images/girona.png", "place_tags": "history", "place_links": "https://www.lonelyplanet.com/search?q=Girona", "place_country": "Spain", "hops": {"france_19": {"place_id": "france_19", "place_name": "Paris", "place_lat": "48.861496", "place_lon": "2.333681", "journeys": [21840, 21900, 21840, 21840, 21900, 21840], "duration_median": 21840.0, "duration_min": 21840, "duration_max": 21900}, "france_93": {"place_id": "france_93", "place_name": "Lyon", "place_lat": "45.702255", "place_lon": "4.863811", "journeys": [15420, 15420, 15420, 15420, 15420, 15420], "duration_median": 15420.0, "duration_min": 15420, "duration_max": 15420}, "france_105": {"place_id": "france_105", "place_name": "Marseille", "place_lat": "43.303816", "place_lon": "5.38195", "journeys": [15300, 15300, 15300], "duration_median": 15300, "duration_min": 15300, "duration_max": 15300}, "france_123": {"place_id": "france_123", "place_name": "Montpellier", "place_lat": "43.599651", "place_lon": "3.899979", "journeys": [8580, 9000, 9000], "duration_median": 9000, "duration_min": 8580, "duration_max": 9000}, "france_124": {"place_id": "france_124", "place_name": "Sete", "place_lat": "43.412811", "place_lon": "3.696535", "journeys": [7920, 7860, 7920], "duration_median": 7920, "duration_min": 7860, "duration_max": 7920}, "france_125": {"place_id": "france_125", "place_name": "Nimes", "place_lat": "43.821397", "place_lon": "4.441912", "journeys": [10380, 10860, 11100, 10380, 10860, 11100], "duration_median": 10860.0, "duration_min": 10380, "duration_max": 11100}, "france_127": {"place_id": "france_127", "place_name": "Narbonne", "place_lat": "43.1904", "place_lon": "3.006011", "journeys": [5040, 5100, 5160], "duration_median": 5100, "duration_min": 5040, "duration_max": 5160}, "france_145": {"place_id": "france_145", "place_name": "Perpignan", "place_lat": "42.695939", "place_lon": "2.879398", "journeys": [2700, 2460, 2340], "duration_median": 2460, "duration_min": 2340, "duration_max": 2700}, "france_151": {"place_id": "france_151", "place_name": "Cerbere", "place_lat": "42.441661", "place_lon": "3.163187", "journeys": [4080, 4080, 4080], "duration_median": 4080, "duration_min": 4080, "duration_max": 4080}, "spain_1": {"place_id": "spain_1", "place_name": "Barcelona", "place_lat": "41.378911", "place_lon": "2.140368", "journeys": [2340, 5220, 5160], "duration_median": 5160, "duration_min": 2340, "duration_max": 5220}, "spain_19": {"place_id": "spain_19", "place_name": "Tarragona", "place_lat": "41.192026", "place_lon": "1.271587", "journeys": [4980, 4800, 4860], "duration_median": 4860, "duration_min": 4800, "duration_max": 4980}, "spain_20": {"place_id": "spain_20", "place_name": "Madrid", "place_lat": "40.472151", "place_lon": "-3.68235", "journeys": [13440, 13440, 14100, 12840, 12840, 13500], "duration_median": 13440.0, "duration_min": 12840, "duration_max": 14100}, "spain_55": {"place_id": "spain_55", "place_name": "Zaragoza", "place_lat": "41.65844", "place_lon": "-0.909906", "journeys": [7920, 7920, 8520], "duration_median": 7920, "duration_min": 7920, "duration_max": 8520}, "spain_104": {"place_id": "spain_104", "place_name": "Figueres", "place_lat": "42.264951", "place_lon": "2.969272", "journeys": [2280, 1740, 2280, 840, 900, 960], "duration_median": 1350.0, "duration_min": 840, "duration_max": 2280}, "spain_805": {"place_id": "spain_805", "place_name": "Llanca", "place_lat": "42.366691", "place_lon": "3.149101", "journeys": [3180, 2640, 3180], "duration_median": 3180, "duration_min": 2640, "duration_max": 3180}, "spain_806": {"place_id": "spain_806", "place_name": "Portbou", "place_lat": "42.424725", "place_lon": "3.157848", "journeys": [3780, 3120, 3780], "duration_median": 3780, "duration_min": 3120, "duration_max": 3780}}}