{"place_id": "switzerland_6", "place_name": "Zurich", "place_lat": "47.378968", "place_lon": "8.540534", "place_brief_desc": "The largest city in Switzerland is a vibrant metropolis that combines urban flair with natural beauty. Shopping is a must for some and Bahnhofstrasse is one of Europe's most expensive streets.", "place_longer_desc": "./static/places/zurich.html", "place_image": "./static/images/zurich.png", "place_tags": "history", "place_links": "https://www.lonelyplanet.com/search?q=Zurich", "place_country": "Switzerland", "hops": {"Germany_1": {"place_id": "Germany_1", "place_name": "Berlin", "place_lat": "52.524924", "place_lon": "13.369629", "journeys": [30780, 30780, 30780, 30780, 30780, 30780, 30780, 30780, 30780, 30780, 30780, 30780], "duration_median": 30780.0, "duration_min": 30780, "duration_max": 30780}, "Germany_2": {"place_id": "Germany_2", "place_name": "Dresden", "place_lat": "51.040221", "place_lon": "13.731409", "journeys": [43560, 43560, 39960, 39960, 43560, 43560, 39960, 39960], "duration_median": 41760.0, "duration_min": 39960, "duration_max": 43560}, "Germany_4": {"place_id": "Germany_4", "place_name": "Munich", "place_lat": "48.140364", "place_lon": "11.558744", "journeys": [12660, 12660, 12660, 12660, 12660, 12660], "duration_median": 12660.0, "duration_min": 12660, "duration_max": 12660}, "Germany_5": {"place_id": "Germany_5", "place_name": "Cologne", "place_lat": "50.941312", "place_lon": "6.967206", "journeys": [22500, 36540, 36540, 22500, 22500, 36540, 36540, 22500], "duration_median": 29520.0, "duration_min": 22500, "duration_max": 36540}, "Germany_6": {"place_id": "Germany_6", "place_name": "Freiburg", "place_lat": "47.997974", "place_lon": "7.841344", "journeys": [6420, 6420, 6420, 6420, 6420, 6420], "duration_median": 6420.0, "duration_min": 6420, "duration_max": 6420}, "Germany_7": {"place_id": "Germany_7", "place_name": "Hamburg", "place_lat": "53.55711", "place_lon": "9.997434", "journeys": [36900, 36240, 42900, 42900, 36900, 36240, 42900, 42900, 36900, 36240, 42900, 42900, 36900, 36240, 42900, 42900], "duration_median": 39900.0, "duration_min": 36240, "duration_max": 42900}, "Germany_8": {"place_id": "Germany_8", "place_name": "Heidelberg", "place_lat": "49.403582", "place_lon": "8.67548", "journeys": [14700, 14700, 14700, 14700, 14700, 14700], "duration_median": 14700.0, "duration_min": 14700, "duration_max": 14700}, "czechia_1": {"place_id": "czechia_1", "place_name": "Prague", "place_lat": "50.081926", "place_lon": "14.451481", "journeys": [52740, 52740, 50820, 49140, 52740, 52740, 50820, 49140, 52740, 52740, 50820, 49140, 52740, 52740, 50820, 49140], "duration_median": 51780.0, "duration_min": 49140, "duration_max": 52740}, "czechia_10": {"place_id": "czechia_10", "place_name": "Ceske Budejovice", "place_lat": "48.974616", "place_lon": "14.48875", "journeys": [44400, 40800, 40800, 44400, 40800, 40800], "duration_median": 40800.0, "duration_min": 40800, "duration_max": 44400}, "austria_1": {"place_id": "austria_1", "place_name": "Vienna", "place_lat": "48.207037", "place_lon": "16.341553", "journeys": [46260, 42660, 42660, 46260, 42660, 42660, 46260, 42660, 42660, 46260, 42660, 42660], "duration_median": 42660.0, "duration_min": 42660, "duration_max": 46260}, "austria_2": {"place_id": "austria_2", "place_name": "Salzburg", "place_lat": "47.813848", "place_lon": "13.045514", "journeys": [33240, 29640, 29640, 33240, 29640, 29640], "duration_median": 29640.0, "duration_min": 29640, "duration_max": 33240}, "austria_3": {"place_id": "austria_3", "place_name": "Graz", "place_lat": "47.072301", "place_lon": "15.416437", "journeys": [46740, 53520, 46740, 46740, 53520, 46740], "duration_median": 46740.0, "duration_min": 46740, "duration_max": 53520}, "austria_5": {"place_id": "austria_5", "place_name": "Bregenz", "place_lat": "47.503001", "place_lon": "9.739623", "journeys": [5220, 5220, 5220, 5220, 5220, 5220], "duration_median": 5220.0, "duration_min": 5220, "duration_max": 5220}, "switzerland_2": {"place_id": "switzerland_2", "place_name": "Bern", "place_lat": "46.948834", "place_lon": "7.439131", "journeys": [4380, 4380, 4380, 4380, 4380, 4380], "duration_median": 4380.0, "duration_min": 4380, "duration_max": 4380}, "switzerland_3": {"place_id": "switzerland_3", "place_name": "Geneva", "place_lat": "46.210209", "place_lon": "6.142455", "journeys": [12540, 9900, 12420, 12540, 9900, 12420], "duration_median": 12420.0, "duration_min": 9900, "duration_max": 12540}, "switzerland_4": {"place_id": "switzerland_4", "place_name": "Lucerne", "place_lat": "47.050179", "place_lon": "8.310186", "journeys": [2460, 3000, 2460, 2460, 3000, 2460], "duration_median": 2460.0, "duration_min": 2460, "duration_max": 3000}, "france_19": {"place_id": "france_19", "place_name": "Paris", "place_lat": "48.861496", "place_lon": "2.333681", "journeys": [15360, 14640, 14880, 15360, 14640, 14880, 15360, 14640, 14880, 15360, 14640, 14880], "duration_median": 14880.0, "duration_min": 14640, "duration_max": 15360}}}